{"type":"FeatureCollection","features":[{"type":"Feature","id":"_mview_admi_etablissements_administration.fid--1b6ae3e2_1a0db278384_-392c","geometry":{"type":"Point","coordinates":[1.19186271,6.19029753]},"geometry_name":"geometry","properties":{"region_nom_bdd":"Maritime","prefecture_nom_bdd":"Golfe","commune_nom_bdd":"Golfe 5","canton_nom_bdd":"Aflao-Gakli","nom_localite":"Djidjole","etablissement_nom":"Office du Patrimoine Immobilier du Togo à l'étranger (OPITE) Lomé","etab_adr":"Djidjole","ouverture_jour":"Nsp","ministere_tutelle":"MEF"}},{"type":"Feature","id":"_mview_admi_etablissements_administration.fid--1b6ae3e2_1a0db278384_-392b","geometry":{"type":"Point","coordinates":[1.13076929,7.53113658]},"geometry_name":"geometry","properties":{"region_nom_bdd":"Plateaux","prefecture_nom_bdd":"Ogou","commune_nom_bdd":"Ogou 1","canton_nom_bdd":"Gnagna","nom_localite":"Atakpamé","etablissement_nom":"Caisse de retraite du Togo (CRT) Atakpamé","etab_adr":"N/a","ouverture_jour":null,"ministere_tutelle":"MEF"}},{"type":"Feature","id":"_mview_admi_etablissements_administration.fid--1b6ae3e2_1a0db278384_-392a","geometry":{"type":"Point","coordinates":[1.13529352,8.97174502]},"geometry_name":"geometry","properties":{"region_nom_bdd":"Centrale","prefecture_nom_bdd":"Tchaoudjo","commune_nom_bdd":"Tchaoudjo 1","canton_nom_bdd":"Sokodè (Komah)","nom_localite":"KOMAH","etablissement_nom":"OTR - Bureaux des Douanes de Sokodé ","etab_adr":"Sokode/Komah","ouverture_jour":"{Lundi,Mardi,Mercredi,Jeudi,Vendredi}","ministere_tutelle":"MEF"}},{"type":"Feature","id":"_mview_admi_etablissements_administration.fid--1b6ae3e2_1a0db278384_-3929","geometry":{"type":"Point","coordinates":[1.22142045,6.12886699]},"geometry_name":"geometry","properties":{"region_nom_bdd":"Maritime","prefecture_nom_bdd":"Golfe","commune_nom_bdd":"Golfe 4","canton_nom_bdd":"Amoutivé","nom_localite":"Adawolato","etablissement_nom":"Direction Générale Banque Atlantique Lomé","etab_adr":"Adawoulato","ouverture_jour":"{lundi,Vendredi,Mercredi,Samedi,Jeudi,Mardi}","ministere_tutelle":"MEF"}},{"type":"Feature","id":"_mview_admi_etablissements_administration.fid--1b6ae3e2_1a0db278384_-3928","geometry":{"type":"Point","coordinates":[0.62789914,6.91196584]},"geometry_name":"geometry","properties":{"region_nom_bdd":"Plateaux","prefecture_nom_bdd":"Kloto","commune_nom_bdd":"Kloto 1","canton_nom_bdd":"Agome-Kpalime","nom_localite":"Kpalimé","etablissement_nom":"Caisse de retraite du Togo (CRT) Kpalimé 2","etab_adr":"N/a","ouverture_jour":null,"ministere_tutelle":"MEF"}},{"type":"Feature","id":"_mview_admi_etablissements_administration.fid--1b6ae3e2_1a0db278384_-3927","geometry":{"type":"Point","coordinates":[1.22453716,6.12425369]},"geometry_name":"geometry","properties":{"region_nom_bdd":"Maritime","prefecture_nom_bdd":"Golfe","commune_nom_bdd":"Golfe 4","canton_nom_bdd":"Amoutivé","nom_localite":"Adawolato","etablissement_nom":"Direction Générale Bia Togo","etab_adr":"Assigamé","ouverture_jour":"{Jeudi,Mardi,Samedi,Mercredi,Vendredi,lundi}","ministere_tutelle":"MEF"}},{"type":"Feature","id":"_mview_admi_etablissements_administration.fid--1b6ae3e2_1a0db278384_-3926","geometry":{"type":"Point","coordinates":[0.7944062,7.6639992]},"geometry_name":"geometry","properties":{"region_nom_bdd":"Plateaux","prefecture_nom_bdd":"Akébou","commune_nom_bdd":"Akébou 1","canton_nom_bdd":"Kougnohou","nom_localite":"Kougnohou","etablissement_nom":"Trésorerie de la Préfecture de l'Akébou","etab_adr":"Trésorerie de la Préfecture de l'Akébou, Kougnohou, Kougnohou, Akébou 1, 01BP Kougnohou","ouverture_jour":"{lundi,Mardi,Mercredi,Jeudi,Vendredi}","ministere_tutelle":"MEF"}},{"type":"Feature","id":"_mview_admi_etablissements_administration.fid--1b6ae3e2_1a0db278384_-3925","geometry":{"type":"Point","coordinates":[1.17305667,6.943535]},"geometry_name":"geometry","properties":{"region_nom_bdd":"Plateaux","prefecture_nom_bdd":"Haho","commune_nom_bdd":"Haho 1","canton_nom_bdd":"Notsé","nom_localite":"Aligno","etablissement_nom":"OTR - Poste Contrôle des Impôts","etab_adr":"OTR - Poste Contrôle des Impôts, Aligno, Notsé, Haho 1","ouverture_jour":"{lundi,Mardi,Mercredi,Jeudi,Vendredi}","ministere_tutelle":"MEF"}},{"type":"Feature","id":"_mview_admi_etablissements_administration.fid--1b6ae3e2_1a0db278384_-3924","geometry":{"type":"Point","coordinates":[1.12822171,7.51893317]},"geometry_name":"geometry","properties":{"region_nom_bdd":"Plateaux","prefecture_nom_bdd":"Ogou","commune_nom_bdd":"Ogou 1","canton_nom_bdd":"Gnagna","nom_localite":"Lom-nava","etablissement_nom":"Trésorerie de la Préfecture d'Ogou","etab_adr":"Trésorerie de la Préfecture d'Ogou, Lom-Nava, Gnagna, Ogou 1","ouverture_jour":"{lundi,Mercredi,Mardi,Jeudi,Vendredi}","ministere_tutelle":"MEF"}},{"type":"Feature","id":"_mview_admi_etablissements_administration.fid--1b6ae3e2_1a0db278384_-3923","geometry":{"type":"Point","coordinates":[1.2224419,6.13081302]},"geometry_name":"geometry","properties":{"region_nom_bdd":"Maritime","prefecture_nom_bdd":"Golfe","commune_nom_bdd":"Golfe 4","canton_nom_bdd":"Amoutivé","nom_localite":"Adawolato","etablissement_nom":"Direction Générale Orabank Lomé","etab_adr":"Adawoulato","ouverture_jour":"{lundi,Vendredi,Mercredi,Samedi,Mardi,Jeudi}","ministere_tutelle":"MEF"}},{"type":"Feature","id":"_mview_admi_etablissements_administration.fid--1b6ae3e2_1a0db278384_-3922","geometry":{"type":"Point","coordinates":[1.20908455,6.19118537]},"geometry_name":"geometry","properties":{"region_nom_bdd":"Maritime","prefecture_nom_bdd":"Golfe","commune_nom_bdd":"Golfe 3","canton_nom_bdd":"Bè-Ouest","nom_localite":"Gta","etablissement_nom":"Société de Recouvrement du Togo (SRT) Lomé","etab_adr":"Carrefour GTA","ouverture_jour":"{Jeudi,lundi,Vendredi,Mercredi,Mardi,Samedi}","ministere_tutelle":"MEF"}},{"type":"Feature","id":"_mview_admi_etablissements_administration.fid--1b6ae3e2_1a0db278384_-3921","geometry":{"type":"Point","coordinates":[0.69020165,7.19630642]},"geometry_name":"geometry","properties":{"region_nom_bdd":"Plateaux","prefecture_nom_bdd":"Danyi","commune_nom_bdd":"Danyi 1","canton_nom_bdd":"Danyi-Atigba","nom_localite":"Danyi Apeyeme","etablissement_nom":"Trésorerie de la Préfecture de Danyi","etab_adr":"Trésorerie de la Préfecture de Danyi, Danyi Apeyeme, Danyi-Atigba, Danyi 1, 215BP1 Danyi","ouverture_jour":"{lundi,Mardi,Mercredi,Jeudi,Vendredi}","ministere_tutelle":"MEF"}},{"type":"Feature","id":"_mview_admi_etablissements_administration.fid--1b6ae3e2_1a0db278384_-3920","geometry":{"type":"Point","coordinates":[1.13445092,9.01276048]},"geometry_name":"geometry","properties":{"region_nom_bdd":"Centrale","prefecture_nom_bdd":"Tchaoudjo","commune_nom_bdd":"Tchaoudjo 1","canton_nom_bdd":"Kpangalam","nom_localite":"Kpangalam","etablissement_nom":"Trésorerie Régionale - Région Centrale","etab_adr":"Trésorerie Régionale - Région Centrale, Kpangalam, Kpangalam, Tchaoudjo 1, BP324","ouverture_jour":"{Vendredi,Jeudi,Mercredi,Mardi,lundi}","ministere_tutelle":"MEF"}},{"type":"Feature","id":"_mview_admi_etablissements_administration.fid--1b6ae3e2_1a0db278384_-391f","geometry":{"type":"Point","coordinates":[1.248275,6.16565167]},"geometry_name":"geometry","properties":{"region_nom_bdd":"Maritime","prefecture_nom_bdd":"Golfe","commune_nom_bdd":"Golfe 2","canton_nom_bdd":"Bè-Centre","nom_localite":"Aéroport De Lomé","etablissement_nom":"OTR - Be Ouest","etab_adr":"OTR - Be Ouest, Aéroport de Lomé, Bè-Centre, Golfe 2, BP20823 Lomé","ouverture_jour":"{lundi,Mardi,Mercredi,Jeudi,Vendredi,Samedi}","ministere_tutelle":"MEF"}},{"type":"Feature","id":"_mview_admi_etablissements_administration.fid--1b6ae3e2_1a0db278384_-391e","geometry":{"type":"Point","coordinates":[1.14878333,7.52625333]},"geometry_name":"geometry","properties":{"region_nom_bdd":"Plateaux","prefecture_nom_bdd":"Ogou","commune_nom_bdd":"Ogou 1","canton_nom_bdd":"Djama","nom_localite":"Sada","etablissement_nom":"OTR - Division des Opérations Douanières de la Region des Plateaux","etab_adr":"OTR - Division des Opérations Douanières de la Region des Plateaux, Sada, Djama, Ogou 1","ouverture_jour":"{lundi,Mardi,Mercredi,Jeudi,Vendredi}","ministere_tutelle":"MEF"}},{"type":"Feature","id":"_mview_admi_etablissements_administration.fid--1b6ae3e2_1a0db278384_-391d","geometry":{"type":"Point","coordinates":[0.38608679,10.73075149]},"geometry_name":"geometry","properties":{"region_nom_bdd":"Savanes","prefecture_nom_bdd":"Kpendjal-Ouest","commune_nom_bdd":"Kpendjal-Ouest 1","canton_nom_bdd":"Naki-Est","nom_localite":"Naki Est Centre","etablissement_nom":"Trésorerie de la Préfecture de Naki-Est","etab_adr":"Trésorerie de la Préfecture de Naki-Est, Naki Est Centre, Naki-Est, Kpendjal-Ouest 1","ouverture_jour":"{lundi,Mardi,Mercredi,Jeudi,Vendredi,Samedi}","ministere_tutelle":"MEF"}},{"type":"Feature","id":"_mview_admi_etablissements_administration.fid--1b6ae3e2_1a0db278384_-391c","geometry":{"type":"Point","coordinates":[0.90624425,7.46915761]},"geometry_name":"geometry","properties":{"region_nom_bdd":"Plateaux","prefecture_nom_bdd":"Amou","commune_nom_bdd":"Amou 1","canton_nom_bdd":"Amlamé (Ouma)","nom_localite":"Ouma","etablissement_nom":"Trésorerie de la Préfecture d'Amou","etab_adr":"Trésorerie de la Préfecture d'Amou, Ouma, Amlamé (Ouma), Amou 1","ouverture_jour":"{lundi,Mardi,Mercredi,Jeudi,Vendredi}","ministere_tutelle":"MEF"}},{"type":"Feature","id":"_mview_admi_etablissements_administration.fid--1b6ae3e2_1a0db278384_-391b","geometry":{"type":"Point","coordinates":[0.60848342,7.58711588]},"geometry_name":"geometry","properties":{"region_nom_bdd":"Plateaux","prefecture_nom_bdd":"Wawa","commune_nom_bdd":"Wawa 1","canton_nom_bdd":"Badou","nom_localite":"Zongo","etablissement_nom":"Trésorerie de la Préfecture de Wawa","etab_adr":"Trésorerie de la Préfecture de Wawa, Zongo, Badou, Wawa 1","ouverture_jour":"{lundi,Mardi,Mercredi,Jeudi,Vendredi}","ministere_tutelle":"MEF"}},{"type":"Feature","id":"_mview_admi_etablissements_administration.fid--1b6ae3e2_1a0db278384_-391a","geometry":{"type":"Point","coordinates":[1.04174723,9.95864644]},"geometry_name":"geometry","properties":{"region_nom_bdd":"Kara","prefecture_nom_bdd":"Kéran","commune_nom_bdd":"Kéran 1","canton_nom_bdd":"Kantè","nom_localite":"Kantè","etablissement_nom":"Trésorerie de la Préfecture de la Kéran","etab_adr":"Trésorerie de la Préfecture de la Kéran, Kantè, Kantè, Kéran 1","ouverture_jour":"{lundi,Mardi,Mercredi,Jeudi,Vendredi}","ministere_tutelle":"MEF"}},{"type":"Feature","id":"_mview_admi_etablissements_administration.fid--1b6ae3e2_1a0db278384_-3919","geometry":{"type":"Point","coordinates":[1.10688641,9.75623047]},"geometry_name":"geometry","properties":{"region_nom_bdd":"Kara","prefecture_nom_bdd":"Doufelgou","commune_nom_bdd":"Doufelgou 1","canton_nom_bdd":"Niamtougou","nom_localite":"Niamtougou","etablissement_nom":"OTR - Niamtougou","etab_adr":"OTR - Niamtougou, Niamtougou, Niamtougou, Doufelgou 1","ouverture_jour":"{lundi,Mardi,Mercredi,Jeudi,Vendredi}","ministere_tutelle":"MEF"}},{"type":"Feature","id":"_mview_admi_etablissements_administration.fid--1b6ae3e2_1a0db278384_-3918","geometry":{"type":"Point","coordinates":[0.63226856,6.90582665]},"geometry_name":"geometry","properties":{"region_nom_bdd":"Plateaux","prefecture_nom_bdd":"Kloto","commune_nom_bdd":"Kloto 1","canton_nom_bdd":"Agome-Kpalime","nom_localite":"Anlonkondzi","etablissement_nom":"Trésorerie de la Préfecture de Kloto","etab_adr":"Trésorerie de la Préfecture de Kloto, Anlonkondzi, Agome-Kpalime, Kloto 1, BP294 Kpalime","ouverture_jour":"{lundi,Mardi,Mercredi,Jeudi,Vendredi}","ministere_tutelle":"MEF"}},{"type":"Feature","id":"_mview_admi_etablissements_administration.fid--1b6ae3e2_1a0db278384_-3917","geometry":{"type":"Point","coordinates":[0.73406088,7.13472752]},"geometry_name":"geometry","properties":{"region_nom_bdd":"Plateaux","prefecture_nom_bdd":"Kpélé","commune_nom_bdd":"Kpélé 1","canton_nom_bdd":"Kpélé-Novivé","nom_localite":"Adeta","etablissement_nom":"Trésorerie de la Préfecture de Kpélé","etab_adr":"Trésorerie de la Préfecture de Kpélé, Adeta, Kpélé-Novivé, Kpélé 1","ouverture_jour":"{lundi,Mardi,Mercredi,Jeudi,Vendredi}","ministere_tutelle":"MEF"}},{"type":"Feature","id":"_mview_admi_etablissements_administration.fid--1b6ae3e2_1a0db278384_-3916","geometry":{"type":"Point","coordinates":[1.21426333,6.41391333]},"geometry_name":"geometry","properties":{"region_nom_bdd":"Maritime","prefecture_nom_bdd":"Zio","commune_nom_bdd":"Zio 1","canton_nom_bdd":"Tsévié","nom_localite":"Daviemondji","etablissement_nom":"Trésorerie Régionale - Région Maritime","etab_adr":"Trésorerie Régionale - Région Maritime, Daviemondji, Tsévié, Zio 1, BP13 Tsevie","ouverture_jour":"{lundi,Mardi,Mercredi,Jeudi,Vendredi}","ministere_tutelle":"MEF"}},{"type":"Feature","id":"_mview_admi_etablissements_administration.fid--1b6ae3e2_1a0db278384_-3915","geometry":{"type":"Point","coordinates":[0.97710333,8.56616833]},"geometry_name":"geometry","properties":{"region_nom_bdd":"Centrale","prefecture_nom_bdd":"Sotouboua","commune_nom_bdd":"Sotouboua 1","canton_nom_bdd":"Sotouboua","nom_localite":"Sotouboua","etablissement_nom":"Trésorerie de la Préfecture de Sotouboua","etab_adr":"Trésorerie de la Préfecture de Sotouboua, Sotouboua, Sotouboua, Sotouboua 1","ouverture_jour":"{lundi,Mardi,Mercredi,Jeudi,Vendredi}","ministere_tutelle":"MEF"}},{"type":"Feature","id":"_mview_admi_etablissements_administration.fid--1b6ae3e2_1a0db278384_-3914","geometry":{"type":"Point","coordinates":[1.21746494,6.12863951]},"geometry_name":"geometry","properties":{"region_nom_bdd":"Maritime","prefecture_nom_bdd":"Golfe","commune_nom_bdd":"Golfe 4","canton_nom_bdd":"Amoutivé","nom_localite":"Quartier Administratif","etablissement_nom":"Ministère de l'Économie et des Finances (MEF)","etab_adr":"Ministère de l'Économie et des Finances (MEF), Quartier Administratif, Amoutivé, Golfe 4, BP587 Lomé","ouverture_jour":"{lundi,Mardi,Mercredi,Jeudi,Vendredi}","ministere_tutelle":"MEF"}},{"type":"Feature","id":"_mview_admi_etablissements_administration.fid--1b6ae3e2_1a0db278384_-3913","geometry":{"type":"Point","coordinates":[1.18459264,6.1898349]},"geometry_name":"geometry","properties":{"region_nom_bdd":"Maritime","prefecture_nom_bdd":"Golfe","commune_nom_bdd":"Golfe 5","canton_nom_bdd":"Aflao-Gakli","nom_localite":"Totsi-gblinkome","etablissement_nom":"Trésorerie des Communes Golfes 2, 3, 5 et 7","etab_adr":"Trésorerie des Communes Golfes 2, 3, 5 et 7, Totsi-Gblinkome, Aflao-Gakli, Golfe 5","ouverture_jour":"{lundi,Mardi,Mercredi,Jeudi,Vendredi}","ministere_tutelle":"MEF"}},{"type":"Feature","id":"_mview_admi_etablissements_administration.fid--1b6ae3e2_1a0db278384_-3912","geometry":{"type":"Point","coordinates":[0.92102624,6.44197801]},"geometry_name":"geometry","properties":{"region_nom_bdd":"Maritime","prefecture_nom_bdd":"Avé","commune_nom_bdd":"Avé 1","canton_nom_bdd":"Kévé","nom_localite":"Apeyeme","etablissement_nom":"OTR - Contrôle de Keve","etab_adr":"OTR - Contrôle de Keve, Apeyeme, Kévé, Avé 1","ouverture_jour":"{lundi,Mardi,Mercredi,Jeudi,Vendredi}","ministere_tutelle":"MEF"}},{"type":"Feature","id":"_mview_admi_etablissements_administration.fid--1b6ae3e2_1a0db278384_-3911","geometry":{"type":"Point","coordinates":[1.19843833,9.54955]},"geometry_name":"geometry","properties":{"region_nom_bdd":"Kara","prefecture_nom_bdd":"Kozah","commune_nom_bdd":"Kozah 1","canton_nom_bdd":"Commune De Kara","nom_localite":"Tomdé","etablissement_nom":"OTR Impots - Kara","etab_adr":"OTR Impots - Kara, Tomdé, Commune De Kara, Kozah 1, BP20823 Lomé","ouverture_jour":"{lundi,Mardi,Mercredi,Jeudi,Vendredi}","ministere_tutelle":"MEF"}},{"type":"Feature","id":"_mview_admi_etablissements_administration.fid--1b6ae3e2_1a0db278384_-3910","geometry":{"type":"Point","coordinates":[0.98002928,8.32340065]},"geometry_name":"geometry","properties":{"region_nom_bdd":"Centrale","prefecture_nom_bdd":"Blitta","commune_nom_bdd":"Blitta 1","canton_nom_bdd":"Blitta","nom_localite":"Blitta Gare","etablissement_nom":"Trésorerie de la Préfecture de Blitta","etab_adr":"Trésorerie de la Préfecture de Blitta, Blitta Gare, Blitta, Blitta 1","ouverture_jour":"{lundi,Mercredi,Jeudi,Vendredi}","ministere_tutelle":"MEF"}},{"type":"Feature","id":"_mview_admi_etablissements_administration.fid--1b6ae3e2_1a0db278384_-390f","geometry":{"type":"Point","coordinates":[0.60611387,7.58705934]},"geometry_name":"geometry","properties":{"region_nom_bdd":"Plateaux","prefecture_nom_bdd":"Wawa","commune_nom_bdd":"Wawa 1","canton_nom_bdd":"Badou","nom_localite":"Badou","etablissement_nom":"OTR - Bureau des Opérations Fiscales Préfectorales de Badou","etab_adr":"OTR - Bureau des Opérations Fiscales Préfectorales de Badou, Badou, Badou, Wawa 1","ouverture_jour":"{lundi,Mardi,Mercredi,Jeudi,Vendredi}","ministere_tutelle":"MEF"}},{"type":"Feature","id":"_mview_admi_etablissements_administration.fid--1b6ae3e2_1a0db278384_-390e","geometry":{"type":"Point","coordinates":[1.49653539,6.59269805]},"geometry_name":"geometry","properties":{"region_nom_bdd":"Maritime","prefecture_nom_bdd":"Yoto","commune_nom_bdd":"Yoto 1","canton_nom_bdd":"Tabligbo","nom_localite":"N'tifafakome","etablissement_nom":"OTR - Contrôle de Tabligbo","etab_adr":"OTR - Contrôle de Tabligbo, N'Tifafakome, Tabligbo, Yoto 1","ouverture_jour":"{lundi,Mardi,Mercredi,Jeudi,Vendredi}","ministere_tutelle":"MEF"}},{"type":"Feature","id":"_mview_admi_etablissements_administration.fid--1b6ae3e2_1a0db278384_-390d","geometry":{"type":"Point","coordinates":[0.63107648,6.9079692]},"geometry_name":"geometry","properties":{"region_nom_bdd":"Plateaux","prefecture_nom_bdd":"Kloto","commune_nom_bdd":"Kloto 1","canton_nom_bdd":"Agome-Kpalime","nom_localite":"Kpalimé","etablissement_nom":"DPCML","etab_adr":"DPCML, Kpalimé, Agome-Kpalime, Kloto 1, BP33 Kpalime","ouverture_jour":"{lundi,Mardi,Mercredi,Jeudi,Vendredi}","ministere_tutelle":"MEF"}},{"type":"Feature","id":"_mview_admi_etablissements_administration.fid--1b6ae3e2_1a0db278384_-390c","geometry":{"type":"Point","coordinates":[1.61124785,6.23909984]},"geometry_name":"geometry","properties":{"region_nom_bdd":"Maritime","prefecture_nom_bdd":"Lacs","commune_nom_bdd":"Lacs 1","canton_nom_bdd":"Canton D’Aneho","nom_localite":"Yessouvito","etablissement_nom":"Direction Nationale Contrôle Financier (MEF/DNCF) - Délégation Aneho","etab_adr":"Direction Nationale Contrôle Financier (MEF/DNCF) - Délégation Aneho, Yessouvito, Canton D’Aneho, Lacs 1","ouverture_jour":"{Mardi,Mercredi,lundi,Jeudi,Vendredi}","ministere_tutelle":"MEF"}},{"type":"Feature","id":"_mview_admi_etablissements_administration.fid--1b6ae3e2_1a0db278384_-390b","geometry":{"type":"Point","coordinates":[0.62703401,6.91462733]},"geometry_name":"geometry","properties":{"region_nom_bdd":"Plateaux","prefecture_nom_bdd":"Kloto","commune_nom_bdd":"Kloto 1","canton_nom_bdd":"Agome-Kpalime","nom_localite":"Nyive","etablissement_nom":"Direction Nationale Contrôle Financier (MEF/DNCF) - Délégation Région Plateaux","etab_adr":"Direction Nationale Contrôle Financier (MEF/DNCF) - Délégation Région Plateaux, Nyive, Agome-Kpalime, Kloto 1","ouverture_jour":"{lundi,Mardi,Mercredi,Jeudi,Vendredi}","ministere_tutelle":"MEF"}},{"type":"Feature","id":"_mview_admi_etablissements_administration.fid--1b6ae3e2_1a0db278384_-390a","geometry":{"type":"Point","coordinates":[0.63256309,6.90580125]},"geometry_name":"geometry","properties":{"region_nom_bdd":"Plateaux","prefecture_nom_bdd":"Kloto","commune_nom_bdd":"Kloto 1","canton_nom_bdd":"Agome-Kpalime","nom_localite":"Anlonkondzi","etablissement_nom":"Caisse de Retraite du Togo (CRT) - Kpalimé","etab_adr":"Caisse de Retraite du Togo (CRT) - Kpalimé, Anlonkondzi, Agome-Kpalime, Kloto 1, BP1297 Lomé","ouverture_jour":"{lundi,Mardi,Mercredi,Jeudi,Vendredi}","ministere_tutelle":"MEF, MFPTDS"}},{"type":"Feature","id":"_mview_admi_etablissements_administration.fid--1b6ae3e2_1a0db278384_-3909","geometry":{"type":"Point","coordinates":[0.63622595,6.912605]},"geometry_name":"geometry","properties":{"region_nom_bdd":"Plateaux","prefecture_nom_bdd":"Kloto","commune_nom_bdd":"Kloto 1","canton_nom_bdd":"Agome-Kpalime","nom_localite":"Kpalimé","etablissement_nom":"Loterie Nationale Togolaise (LONATO) - Direction Régionale de Kpalimé","etab_adr":"Loterie Nationale Togolaise (LONATO) - Direction Régionale de Kpalimé, Kpalimé, Agome-Kpalime, Kloto 1, BP380 Kpalime","ouverture_jour":"{lundi,Mardi,Mercredi,Jeudi,Vendredi}","ministere_tutelle":"MEF"}},{"type":"Feature","id":"_mview_admi_etablissements_administration.fid--1b6ae3e2_1a0db278384_-3908","geometry":{"type":"Point","coordinates":[1.12825754,7.51887785]},"geometry_name":"geometry","properties":{"region_nom_bdd":"Plateaux","prefecture_nom_bdd":"Ogou","commune_nom_bdd":"Ogou 1","canton_nom_bdd":"Gnagna","nom_localite":"Lom-nava","etablissement_nom":"Trésorerie Régionale - Région Plateaux","etab_adr":"Trésorerie Régionale - Région Plateaux, Lom-Nava, Gnagna, Ogou 1","ouverture_jour":"{lundi,Mardi,Mercredi,Jeudi,Vendredi}","ministere_tutelle":"MEF"}},{"type":"Feature","id":"_mview_admi_etablissements_administration.fid--1b6ae3e2_1a0db278384_-3907","geometry":{"type":"Point","coordinates":[1.22455858,6.15911207]},"geometry_name":"geometry","properties":{"region_nom_bdd":"Maritime","prefecture_nom_bdd":"Golfe","commune_nom_bdd":"Golfe 3","canton_nom_bdd":"Bè-Ouest","nom_localite":"Tokoin","etablissement_nom":"Direction du Garage Central Administratif (MEF/DGCA)","etab_adr":"Direction du Garage Central Administratif (MEF/DGCA), Tokoin, Bè-Ouest, Golfe 3, BP371 Lomé","ouverture_jour":"{lundi,Mardi,Mercredi,Jeudi,Vendredi}","ministere_tutelle":"MEF"}},{"type":"Feature","id":"_mview_admi_etablissements_administration.fid--1b6ae3e2_1a0db278384_-3906","geometry":{"type":"Point","coordinates":[1.19829024,9.54965007]},"geometry_name":"geometry","properties":{"region_nom_bdd":"Kara","prefecture_nom_bdd":"Kozah","commune_nom_bdd":"Kozah 1","canton_nom_bdd":"Commune De Kara","nom_localite":"Lama Kara","etablissement_nom":"OTR Cadastre - Division Regionale Kara","etab_adr":"OTR Cadastre - Division Regionale Kara, Lama Kara, Commune De Kara, Kozah 1, BP20283","ouverture_jour":"{lundi,Mardi,Mercredi,Jeudi,Vendredi}","ministere_tutelle":"MEF"}},{"type":"Feature","id":"_mview_admi_etablissements_administration.fid--1b6ae3e2_1a0db278384_-3905","geometry":{"type":"Point","coordinates":[1.50431903,6.60106761]},"geometry_name":"geometry","properties":{"region_nom_bdd":"Maritime","prefecture_nom_bdd":"Yoto","commune_nom_bdd":"Yoto 1","canton_nom_bdd":"Tabligbo","nom_localite":"Zebe","etablissement_nom":"Trésorerie de la Préfecture de Yoto","etab_adr":"Trésorerie de la Préfecture de Yoto, Zebe, Tabligbo, Yoto 1","ouverture_jour":"{lundi,Mardi,Mercredi,Jeudi,Vendredi}","ministere_tutelle":"MEF"}},{"type":"Feature","id":"_mview_admi_etablissements_administration.fid--1b6ae3e2_1a0db278384_-3904","geometry":{"type":"Point","coordinates":[1.20774674,6.41289103]},"geometry_name":"geometry","properties":{"region_nom_bdd":"Maritime","prefecture_nom_bdd":"Zio","commune_nom_bdd":"Zio 1","canton_nom_bdd":"Tsévié","nom_localite":"Daviemondji","etablissement_nom":"OTR - Division du Zio","etab_adr":"OTR - Division du Zio, Daviemondji, Tsévié, Zio 1","ouverture_jour":"{lundi,Mardi,Mercredi,Jeudi,Vendredi}","ministere_tutelle":"MEF"}},{"type":"Feature","id":"_mview_admi_etablissements_administration.fid--1b6ae3e2_1a0db278384_-3903","geometry":{"type":"Point","coordinates":[0.1932681,10.6600324]},"geometry_name":"geometry","properties":{"region_nom_bdd":"Savanes","prefecture_nom_bdd":"Tandjoaré","commune_nom_bdd":"Tandjoaré 1","canton_nom_bdd":"Bogou","nom_localite":"Tandjouare","etablissement_nom":"Trésorerie de la Préfecture de Tandjouaré","etab_adr":"Trésorerie de la Préfecture de Tandjouaré, Tandjouare, Bogou, Tandjoaré 1","ouverture_jour":"{lundi,Mardi,Mercredi,Jeudi,Vendredi,Samedi}","ministere_tutelle":"MEF"}},{"type":"Feature","id":"_mview_admi_etablissements_administration.fid--1b6ae3e2_1a0db278384_-3902","geometry":{"type":"Point","coordinates":[1.14866111,7.52622846]},"geometry_name":"geometry","properties":{"region_nom_bdd":"Plateaux","prefecture_nom_bdd":"Ogou","commune_nom_bdd":"Ogou 1","canton_nom_bdd":"Djama","nom_localite":"Nsp","etablissement_nom":"OTR Impots - Plateaux","etab_adr":"OTR Impots - Plateaux, , Djama, Ogou 1","ouverture_jour":"{lundi,Mardi,Mercredi,Jeudi,Vendredi}","ministere_tutelle":"MEF"}},{"type":"Feature","id":"_mview_admi_etablissements_administration.fid--1b6ae3e2_1a0db278384_-3901","geometry":{"type":"Point","coordinates":[1.21124985,6.41764398]},"geometry_name":"geometry","properties":{"region_nom_bdd":"Maritime","prefecture_nom_bdd":"Zio","commune_nom_bdd":"Zio 1","canton_nom_bdd":"Tsévié","nom_localite":"Daviemondji","etablissement_nom":"Agence Nationale de Promotion et de Garantie de Financement des PME/PMI (ANPGF) - Tsevie","etab_adr":"Agence Nationale de Promotion et de Garantie de Financement des PME/PMI (ANPGF) - Tsevie, Daviemondji, Tsévié, Zio 1","ouverture_jour":"{lundi,Mardi,Mercredi,Jeudi,Vendredi}","ministere_tutelle":"MEF"}},{"type":"Feature","id":"_mview_admi_etablissements_administration.fid--1b6ae3e2_1a0db278384_-3900","geometry":{"type":"Point","coordinates":[0.20386167,10.85822667]},"geometry_name":"geometry","properties":{"region_nom_bdd":"Savanes","prefecture_nom_bdd":"Tône","commune_nom_bdd":"Tône 1","canton_nom_bdd":"Dapaong","nom_localite":"Boumonga","etablissement_nom":"OTR Impots - Savanes","etab_adr":"OTR Impots - Savanes, Boumonga, Dapaong, Tône 1, BP28023","ouverture_jour":"{lundi,Mardi,Mercredi,Jeudi,Vendredi}","ministere_tutelle":"MEF"}},{"type":"Feature","id":"_mview_admi_etablissements_administration.fid--1b6ae3e2_1a0db278384_-38ff","geometry":{"type":"Point","coordinates":[1.19187845,7.77285026]},"geometry_name":"geometry","properties":{"region_nom_bdd":"Plateaux","prefecture_nom_bdd":"Anié","commune_nom_bdd":"Anié 1","canton_nom_bdd":"Anié","nom_localite":"Akposso Kope","etablissement_nom":"Trésorerie de la Préfecture d'Anié","etab_adr":"Trésorerie de la Préfecture d'Anié, Akposso Kope, Anié, Anié 1","ouverture_jour":"{lundi,Mardi,Mercredi,Jeudi,Vendredi}","ministere_tutelle":"MEF"}},{"type":"Feature","id":"_mview_admi_etablissements_administration.fid--1b6ae3e2_1a0db278384_-38fe","geometry":{"type":"Point","coordinates":[1.13805576,8.97879565]},"geometry_name":"geometry","properties":{"region_nom_bdd":"Centrale","prefecture_nom_bdd":"Tchaoudjo","commune_nom_bdd":"Tchaoudjo 1","canton_nom_bdd":"Sokodè (Komah)","nom_localite":"Komah","etablissement_nom":"Caisse de Retraite du Togo (CRT) - Sokodé","etab_adr":"Caisse de Retraite du Togo (CRT) - Sokodé, Komah, Sokodè (Komah), Tchaoudjo 1, BP1297 Lomé","ouverture_jour":"{Vendredi,Jeudi,Mercredi,Mardi,lundi}","ministere_tutelle":"MEF, MFPTDS"}},{"type":"Feature","id":"_mview_admi_etablissements_administration.fid--1b6ae3e2_1a0db278384_-38fd","geometry":{"type":"Point","coordinates":[1.14681392,7.52233267]},"geometry_name":"geometry","properties":{"region_nom_bdd":"Plateaux","prefecture_nom_bdd":"Ogou","commune_nom_bdd":"Ogou 1","canton_nom_bdd":"Djama","nom_localite":"Atchimi","etablissement_nom":"OTR Cadastre - Division Regionale Plateaux","etab_adr":"OTR Cadastre - Division Regionale Plateaux, Atchimi, Djama, Ogou 1","ouverture_jour":"{lundi,Mardi,Mercredi,Jeudi,Vendredi}","ministere_tutelle":"MEF"}},{"type":"Feature","id":"_mview_admi_etablissements_administration.fid--1b6ae3e2_1a0db278384_-38fc","geometry":{"type":"Point","coordinates":[1.12949341,7.53094268]},"geometry_name":"geometry","properties":{"region_nom_bdd":"Plateaux","prefecture_nom_bdd":"Ogou","commune_nom_bdd":"Ogou 1","canton_nom_bdd":"Gnagna","nom_localite":"Quartier Des Étoiles","etablissement_nom":"Caisse de Retraite du Togo (CRT) - Plateaux Est/Atakpamé","etab_adr":"Caisse de Retraite du Togo (CRT) - Plateaux Est/Atakpamé, Quartier des Étoiles, Gnagna, Ogou 1, BP1297 Atakpame","ouverture_jour":"{lundi,Mardi,Mercredi,Jeudi,Vendredi}","ministere_tutelle":"MEF, MFPTDS"}},{"type":"Feature","id":"_mview_admi_etablissements_administration.fid--1b6ae3e2_1a0db278384_-38fb","geometry":{"type":"Point","coordinates":[1.21347799,6.19382794]},"geometry_name":"geometry","properties":{"region_nom_bdd":"Maritime","prefecture_nom_bdd":"Golfe","commune_nom_bdd":"Golfe 3","canton_nom_bdd":"Bè-Ouest","nom_localite":"Gta","etablissement_nom":"Commission de Contrôle des Marchés Publics (CCMP)","etab_adr":"Commission de Contrôle des Marchés Publics (CCMP), GTA, Bè-Ouest, Golfe 3, BP121 Lomé","ouverture_jour":"{lundi,Mardi,Mercredi,Jeudi,Vendredi}","ministere_tutelle":"MEF"}},{"type":"Feature","id":"_mview_admi_etablissements_administration.fid--1b6ae3e2_1a0db278384_-38fa","geometry":{"type":"Point","coordinates":[1.32469333,9.74225167]},"geometry_name":"geometry","properties":{"region_nom_bdd":"Kara","prefecture_nom_bdd":"Binah","commune_nom_bdd":"Binah 1","canton_nom_bdd":"Pagouda","nom_localite":"Waze","etablissement_nom":"Trésorerie de la Préfecture de la Binah","etab_adr":"Trésorerie de la Préfecture de la Binah, Waze, Pagouda, Binah 1","ouverture_jour":"{lundi,Mardi,Mercredi,Jeudi,Vendredi}","ministere_tutelle":"MEF"}},{"type":"Feature","id":"_mview_admi_etablissements_administration.fid--1b6ae3e2_1a0db278384_-38f9","geometry":{"type":"Point","coordinates":[1.12812103,7.51917611]},"geometry_name":"geometry","properties":{"region_nom_bdd":"Plateaux","prefecture_nom_bdd":"Ogou","commune_nom_bdd":"Ogou 1","canton_nom_bdd":"Gnagna","nom_localite":"Lom-nava","etablissement_nom":"Direction Nationale Contrôle Financier (MEF/DNCF) - Délégation Région Plateaux","etab_adr":"Direction Nationale Contrôle Financier (MEF/DNCF) - Délégation Région Plateaux, Lom-Nava, Gnagna, Ogou 1","ouverture_jour":"{lundi,Mardi,Mercredi,Jeudi,Vendredi}","ministere_tutelle":"MEF"}},{"type":"Feature","id":"_mview_admi_etablissements_administration.fid--1b6ae3e2_1a0db278384_-38f8","geometry":{"type":"Point","coordinates":[1.42097493,9.01882046]},"geometry_name":"geometry","properties":{"region_nom_bdd":"Centrale","prefecture_nom_bdd":"Tchamba","commune_nom_bdd":"Tchamba 1","canton_nom_bdd":"Tchamba","nom_localite":"Tchamba","etablissement_nom":"Trésorerie de la Préfecture de Tchamba","etab_adr":"Trésorerie de la Préfecture de Tchamba, Tchamba, Tchamba, Tchamba 1, BP53","ouverture_jour":"{lundi,Mardi,Mercredi,Jeudi,Vendredi}","ministere_tutelle":"MEF"}},{"type":"Feature","id":"_mview_admi_etablissements_administration.fid--1b6ae3e2_1a0db278384_-38f7","geometry":{"type":"Point","coordinates":[1.13513538,8.97735093]},"geometry_name":"geometry","properties":{"region_nom_bdd":"Centrale","prefecture_nom_bdd":"Tchaoudjo","commune_nom_bdd":"Tchaoudjo 1","canton_nom_bdd":"Sokodè (Komah)","nom_localite":"Quartier Administratif","etablissement_nom":"OTR Cadastre - Division Regionale Centrale","etab_adr":"OTR Cadastre - Division Regionale Centrale, Quartier Administratif, Sokodè (Komah), Tchaoudjo 1","ouverture_jour":"{lundi,Mardi,Mercredi,Jeudi,Vendredi}","ministere_tutelle":"MEF"}},{"type":"Feature","id":"_mview_admi_etablissements_administration.fid--1b6ae3e2_1a0db278384_-38f6","geometry":{"type":"Point","coordinates":[0.71490576,6.85034306]},"geometry_name":"geometry","properties":{"region_nom_bdd":"Plateaux","prefecture_nom_bdd":"Agou","commune_nom_bdd":"Agou 1","canton_nom_bdd":"Agou-Tavié","nom_localite":"Gadzefe","etablissement_nom":"Trésorerie de la Préfecture d'Agou","etab_adr":"Trésorerie de la Préfecture d'Agou, Gadzefe, Agou-Tavié, Agou 1, BP40 Agou Tavie","ouverture_jour":"{lundi,Mardi,Mercredi,Jeudi,Vendredi}","ministere_tutelle":"MEF"}},{"type":"Feature","id":"_mview_admi_etablissements_administration.fid--1b6ae3e2_1a0db278384_-38f5","geometry":{"type":"Point","coordinates":[1.41548251,9.02786089]},"geometry_name":"geometry","properties":{"region_nom_bdd":"Centrale","prefecture_nom_bdd":"Tchamba","commune_nom_bdd":"Tchamba 1","canton_nom_bdd":"Tchamba","nom_localite":"Tchamba","etablissement_nom":"OTR - Tchamba","etab_adr":"OTR - Tchamba, Tchamba, Tchamba, Tchamba 1","ouverture_jour":"{lundi,Mardi,Mercredi,Jeudi,Vendredi}","ministere_tutelle":"MEF"}},{"type":"Feature","id":"_mview_admi_etablissements_administration.fid--1b6ae3e2_1a0db278384_-38f4","geometry":{"type":"Point","coordinates":[0.98392349,8.56087252]},"geometry_name":"geometry","properties":{"region_nom_bdd":"Centrale","prefecture_nom_bdd":"Sotouboua","commune_nom_bdd":"Sotouboua 1","canton_nom_bdd":"Sotouboua","nom_localite":"Laouwaï","etablissement_nom":"OTR - Sotouboua","etab_adr":"OTR - Sotouboua, Laouwaï, Sotouboua, Sotouboua 1","ouverture_jour":"{lundi,Mardi,Mercredi,Jeudi,Vendredi}","ministere_tutelle":"MEF"}},{"type":"Feature","id":"_mview_admi_etablissements_administration.fid--1b6ae3e2_1a0db278384_-38f3","geometry":{"type":"Point","coordinates":[0.779705,9.26167667]},"geometry_name":"geometry","properties":{"region_nom_bdd":"Kara","prefecture_nom_bdd":"Bassar","commune_nom_bdd":"Bassar 1","canton_nom_bdd":"Bassar","nom_localite":"Wandande","etablissement_nom":"OTR - Bassar","etab_adr":"OTR - Bassar, Wandande, Bassar, Bassar 1","ouverture_jour":"{lundi,Mardi,Mercredi,Jeudi,Vendredi}","ministere_tutelle":"MEF"}},{"type":"Feature","id":"_mview_admi_etablissements_administration.fid--1b6ae3e2_1a0db278384_-38f2","geometry":{"type":"Point","coordinates":[1.19749863,9.53829862]},"geometry_name":"geometry","properties":{"region_nom_bdd":"Kara","prefecture_nom_bdd":"Kozah","commune_nom_bdd":"Kozah 1","canton_nom_bdd":"Commune De Kara","nom_localite":"Agnaram","etablissement_nom":"Trésorerie Régionale - Région Kara","etab_adr":"Trésorerie Régionale - Région Kara, Agnaram, Commune De Kara, Kozah 1","ouverture_jour":"{lundi,Mardi,Mercredi,Jeudi,Vendredi}","ministere_tutelle":"MEF"}},{"type":"Feature","id":"_mview_admi_etablissements_administration.fid--1b6ae3e2_1a0db278384_-38f1","geometry":{"type":"Point","coordinates":[0.63846015,6.91620545]},"geometry_name":"geometry","properties":{"region_nom_bdd":"Plateaux","prefecture_nom_bdd":"Kloto","commune_nom_bdd":"Kloto 1","canton_nom_bdd":"Agome-Kpalime","nom_localite":"Kpalimé","etablissement_nom":"OTR - Kpalimé","etab_adr":"OTR - Kpalimé, Kpalimé, Agome-Kpalime, Kloto 1","ouverture_jour":"{lundi,Mardi,Mercredi,Jeudi,Vendredi}","ministere_tutelle":"MEF"}},{"type":"Feature","id":"_mview_admi_etablissements_administration.fid--1b6ae3e2_1a0db278384_-38f0","geometry":{"type":"Point","coordinates":[0.02330333,11.09755667]},"geometry_name":"geometry","properties":{"region_nom_bdd":"Savanes","prefecture_nom_bdd":"Cinkassé","commune_nom_bdd":"Cinkassé 1","canton_nom_bdd":"Cinkassé","nom_localite":"Cinkasse","etablissement_nom":"OTR - Bureau Préfectoral des Impôts de Cinkasse","etab_adr":"OTR - Bureau Préfectoral des Impôts de Cinkasse, Cinkasse, Boadé, Cinkassé 1, BP1520","ouverture_jour":"{lundi,Mardi,Mercredi,Jeudi,Vendredi,Samedi}","ministere_tutelle":"MEF"}},{"type":"Feature","id":"_mview_admi_etablissements_administration.fid--1b6ae3e2_1a0db278384_-38ef","geometry":{"type":"Point","coordinates":[1.61454,6.24729833]},"geometry_name":"geometry","properties":{"region_nom_bdd":"Maritime","prefecture_nom_bdd":"Lacs","commune_nom_bdd":"Lacs 1","canton_nom_bdd":"Glidji","nom_localite":"Zebe","etablissement_nom":"OTR - Contrôle d'Aného","etab_adr":"OTR - Contrôle d'Aného, Zebe, Glidji, Lacs 1","ouverture_jour":"{lundi,Mardi,Mercredi,Jeudi,Vendredi}","ministere_tutelle":"MEF"}},{"type":"Feature","id":"_mview_admi_etablissements_administration.fid--1b6ae3e2_1a0db278384_-38ee","geometry":{"type":"Point","coordinates":[1.32723411,9.75187133]},"geometry_name":"geometry","properties":{"region_nom_bdd":"Kara","prefecture_nom_bdd":"Binah","commune_nom_bdd":"Binah 1","canton_nom_bdd":"Pagouda","nom_localite":"Quartier Pre","etablissement_nom":"OTR - Pagouda","etab_adr":"OTR - Pagouda, Quartier Pre, Pagouda, Binah 1, 02BP20823 Lomé","ouverture_jour":"{lundi,Mardi,Mercredi,Jeudi,Vendredi}","ministere_tutelle":"MEF"}},{"type":"Feature","id":"_mview_admi_etablissements_administration.fid--1b6ae3e2_1a0db278384_-38ed","geometry":{"type":"Point","coordinates":[1.22484138,6.13244124]},"geometry_name":"geometry","properties":{"region_nom_bdd":"Maritime","prefecture_nom_bdd":"Golfe","commune_nom_bdd":"Golfe 4","canton_nom_bdd":"Amoutivé","nom_localite":"Quartier Administratif","etablissement_nom":"Trésorerie Régionale - District Autonome du Grand Lomé","etab_adr":"Trésorerie Régionale - District Autonome du Grand Lomé, Quartier Administratif, Amoutivé, Golfe 4","ouverture_jour":"{lundi,Mardi,Mercredi,Jeudi,Vendredi}","ministere_tutelle":"MEF"}},{"type":"Feature","id":"_mview_admi_etablissements_administration.fid--1b6ae3e2_1a0db278384_-38ec","geometry":{"type":"Point","coordinates":[1.61489143,6.24692901]},"geometry_name":"geometry","properties":{"region_nom_bdd":"Maritime","prefecture_nom_bdd":"Lacs","commune_nom_bdd":"Lacs 1","canton_nom_bdd":"Glidji","nom_localite":"Zebe","etablissement_nom":"Trésorerie de la Préfecture des Lacs","etab_adr":"Trésorerie de la Préfecture des Lacs, Zebe, Glidji, Lacs 1, BP104 Aneho","ouverture_jour":"{lundi,Mardi,Mercredi,Jeudi,Vendredi}","ministere_tutelle":"MEF"}},{"type":"Feature","id":"_mview_admi_etablissements_administration.fid--1b6ae3e2_1a0db278384_-38eb","geometry":{"type":"Point","coordinates":[1.08560333,10.15312667]},"geometry_name":"geometry","properties":{"region_nom_bdd":"Kara","prefecture_nom_bdd":"Kéran","commune_nom_bdd":"Kéran 3","canton_nom_bdd":"Nadoba","nom_localite":"Nadoba","etablissement_nom":"OTR - Nadoba","etab_adr":"OTR - Nadoba, Nadoba, Nadoba, Kéran 3","ouverture_jour":"{lundi,Dimanche,Samedi,Vendredi,Jeudi,Mercredi,Mardi}","ministere_tutelle":"MEF"}},{"type":"Feature","id":"_mview_admi_etablissements_administration.fid--1b6ae3e2_1a0db278384_-38ea","geometry":{"type":"Point","coordinates":[0.20374667,10.85812167]},"geometry_name":"geometry","properties":{"region_nom_bdd":"Savanes","prefecture_nom_bdd":"Tône","commune_nom_bdd":"Tône 1","canton_nom_bdd":"Dapaong","nom_localite":"Boumonga","etablissement_nom":"OTR Cadastre - Division Regionale Savanes","etab_adr":"OTR Cadastre - Division Regionale Savanes, Boumonga, Dapaong, Tône 1","ouverture_jour":"{lundi,Mardi,Mercredi,Jeudi,Vendredi}","ministere_tutelle":"MEF"}},{"type":"Feature","id":"_mview_admi_etablissements_administration.fid--1b6ae3e2_1a0db278384_-38e9","geometry":{"type":"Point","coordinates":[1.53251167,6.33407534]},"geometry_name":"geometry","properties":{"region_nom_bdd":"Maritime","prefecture_nom_bdd":"Vo","commune_nom_bdd":"Vo 1","canton_nom_bdd":"Vogan","nom_localite":"Yesuvito","etablissement_nom":"Trésorerie de la Préfecture de Vo","etab_adr":"Trésorerie de la Préfecture de Vo, Yesuvito, Vogan, Vo 1","ouverture_jour":"{lundi,Mardi,Mercredi,Jeudi,Vendredi}","ministere_tutelle":"MEF"}},{"type":"Feature","id":"_mview_admi_etablissements_administration.fid--1b6ae3e2_1a0db278384_-38e8","geometry":{"type":"Point","coordinates":[1.13526953,9.01165453]},"geometry_name":"geometry","properties":{"region_nom_bdd":"Centrale","prefecture_nom_bdd":"Tchaoudjo","commune_nom_bdd":"Tchaoudjo 1","canton_nom_bdd":"Kpangalam","nom_localite":"Kpangalam","etablissement_nom":"Direction Nationale Contrôle Financier (MEF/DNCF) - Délégation Région Centrale","etab_adr":"Direction Nationale Contrôle Financier (MEF/DNCF) - Délégation Région Centrale, Kpangalam, Kpangalam, Tchaoudjo 1","ouverture_jour":"{lundi,Mardi,Mercredi,Jeudi,Vendredi,Samedi}","ministere_tutelle":"MEF"}},{"type":"Feature","id":"_mview_admi_etablissements_administration.fid--1b6ae3e2_1a0db278384_-38e7","geometry":{"type":"Point","coordinates":[1.60375792,7.02239428]},"geometry_name":"geometry","properties":{"region_nom_bdd":"Plateaux","prefecture_nom_bdd":"Moyen-Mono","commune_nom_bdd":"Moyen-Mono 1","canton_nom_bdd":"Tohoun","nom_localite":"Tohoun","etablissement_nom":"Trésorerie de la Préfecture de Moyen Mono","etab_adr":"Trésorerie de la Préfecture de Moyen Mono, Tohoun, Tohoun, Moyen-Mono 1","ouverture_jour":"{lundi,Mardi,Mercredi,Jeudi,Vendredi}","ministere_tutelle":"MEF"}},{"type":"Feature","id":"_mview_admi_etablissements_administration.fid--1b6ae3e2_1a0db278384_-38e6","geometry":{"type":"Point","coordinates":[0.01883118,11.09942391]},"geometry_name":"geometry","properties":{"region_nom_bdd":"Savanes","prefecture_nom_bdd":"Cinkassé","commune_nom_bdd":"Cinkassé 1","canton_nom_bdd":"Cinkassé","nom_localite":"Cinkasse","etablissement_nom":"Trésorerie de la Préfecture de Cinkassé","etab_adr":"Trésorerie de la Préfecture de Cinkassé, Cinkasse, Boadé, Cinkassé 1, BP30","ouverture_jour":"{lundi,Mardi,Mercredi,Jeudi,Vendredi}","ministere_tutelle":"MEF"}},{"type":"Feature","id":"_mview_admi_etablissements_administration.fid--1b6ae3e2_1a0db278384_-38e5","geometry":{"type":"Point","coordinates":[1.17266589,6.95850874]},"geometry_name":"geometry","properties":{"region_nom_bdd":"Plateaux","prefecture_nom_bdd":"Haho","commune_nom_bdd":"Haho 1","canton_nom_bdd":"Notsé","nom_localite":"Tegbe","etablissement_nom":"Trésorerie de la Préfecture de Haho","etab_adr":"Trésorerie de la Préfecture de Haho, Tegbe, Notsé, Haho 1","ouverture_jour":"{lundi,Mardi,Mercredi,Jeudi,Vendredi}","ministere_tutelle":"MEF"}},{"type":"Feature","id":"_mview_admi_etablissements_administration.fid--1b6ae3e2_1a0db278384_-38e4","geometry":{"type":"Point","coordinates":[1.29398667,7.95889833]},"geometry_name":"geometry","properties":{"region_nom_bdd":"Plateaux","prefecture_nom_bdd":"Est-Mono","commune_nom_bdd":"Est-Mono 1","canton_nom_bdd":"Elavagnon","nom_localite":"Amedeka","etablissement_nom":"Trésorerie de la Préfecture de l'Est-Mono","etab_adr":"Trésorerie de la Préfecture de l'Est-Mono, Amedeka, Elavagnon, Est-Mono 1","ouverture_jour":"{lundi,Mardi,Mercredi,Jeudi,Vendredi}","ministere_tutelle":"MEF"}},{"type":"Feature","id":"_mview_admi_etablissements_administration.fid--1b6ae3e2_1a0db278384_-38e3","geometry":{"type":"Point","coordinates":[0.4691598,10.35758922]},"geometry_name":"geometry","properties":{"region_nom_bdd":"Savanes","prefecture_nom_bdd":"Oti","commune_nom_bdd":"Oti 1","canton_nom_bdd":"Mango","nom_localite":"Quartier Administratif","etablissement_nom":"Trésorerie de la Préfecture de l'Oti","etab_adr":"Trésorerie de la Préfecture de l'Oti, Quartier Administratif, Mango, Oti 1, BP02 Mango","ouverture_jour":"{lundi,Mardi,Mercredi,Jeudi,Vendredi}","ministere_tutelle":"MEF"}},{"type":"Feature","id":"_mview_admi_etablissements_administration.fid--1b6ae3e2_1a0db278384_-38e2","geometry":{"type":"Point","coordinates":[1.21657363,6.12559106]},"geometry_name":"geometry","properties":{"region_nom_bdd":"Maritime","prefecture_nom_bdd":"Golfe","commune_nom_bdd":"Golfe 4","canton_nom_bdd":"Amoutivé","nom_localite":"Quartier Administratif","etablissement_nom":"Direction des Affaires Administratives et Financières (MEF/DAAF)","etab_adr":"Direction des Affaires Administratives et Financières (MEF/DAAF), Quartier Administratif, Amoutivé, Golfe 4","ouverture_jour":"{Vendredi,Jeudi,Mercredi,Mardi,lundi}","ministere_tutelle":"MEF"}},{"type":"Feature","id":"_mview_admi_etablissements_administration.fid--1b6ae3e2_1a0db278384_-38e1","geometry":{"type":"Point","coordinates":[1.17757575,6.18255981]},"geometry_name":"geometry","properties":{"region_nom_bdd":"Maritime","prefecture_nom_bdd":"Golfe","commune_nom_bdd":"Golfe 5","canton_nom_bdd":"Aflao-Gakli","nom_localite":"Adidogome","etablissement_nom":"OTR - Aflao Gaki","etab_adr":"OTR - Aflao Gaki, Adidogome, Aflao-Gakli, Golfe 5","ouverture_jour":"{lundi,Mardi,Mercredi,Jeudi,Vendredi}","ministere_tutelle":"MEF"}},{"type":"Feature","id":"_mview_admi_etablissements_administration.fid--1b6ae3e2_1a0db278384_-38e0","geometry":{"type":"Point","coordinates":[1.20916704,6.19117063]},"geometry_name":"geometry","properties":{"region_nom_bdd":"Maritime","prefecture_nom_bdd":"Golfe","commune_nom_bdd":"Golfe 3","canton_nom_bdd":"Bè-Ouest","nom_localite":"Gta/c2a","etablissement_nom":"Unité de Politique Fiscal (UPF)","etab_adr":"N/a","ouverture_jour":"{Jeudi,Mardi,Mercredi,Vendredi,lundi}","ministere_tutelle":"MEF"}},{"type":"Feature","id":"_mview_admi_etablissements_administration.fid--1b6ae3e2_1a0db278384_-38df","geometry":{"type":"Point","coordinates":[0.98134997,8.3276189]},"geometry_name":"geometry","properties":{"region_nom_bdd":"Centrale","prefecture_nom_bdd":"Blitta","commune_nom_bdd":"Blitta 1","canton_nom_bdd":"Blitta","nom_localite":"Blitta Gare","etablissement_nom":"OTR - Blitta","etab_adr":"OTR - Blitta, Blitta Gare, Blitta, Blitta 1","ouverture_jour":"{lundi,Mardi,Mercredi,Jeudi,Vendredi}","ministere_tutelle":"MEF"}},{"type":"Feature","id":"_mview_admi_etablissements_administration.fid--1b6ae3e2_1a0db278384_-38de","geometry":{"type":"Point","coordinates":[1.21043658,6.19133321]},"geometry_name":"geometry","properties":{"region_nom_bdd":"Maritime","prefecture_nom_bdd":"Golfe","commune_nom_bdd":"Golfe 3","canton_nom_bdd":"Bè-Ouest","nom_localite":"Tokoin-atchati","etablissement_nom":"Autorité de Régulation des Marchés Publics (ARMP)","etab_adr":"N/a","ouverture_jour":"{Jeudi,Mardi,Samedi,Mercredi,Vendredi,lundi}","ministere_tutelle":"MEF"}},{"type":"Feature","id":"_mview_admi_etablissements_administration.fid--1b6ae3e2_1a0db278384_-38dd","geometry":{"type":"Point","coordinates":[0.61218598,9.67925497]},"geometry_name":"geometry","properties":{"region_nom_bdd":"Kara","prefecture_nom_bdd":"Dankpen","commune_nom_bdd":"Dankpen 1","canton_nom_bdd":"Guérin-Kouka","nom_localite":"Guerin-kouka","etablissement_nom":"Direction Régionale du Trésor et de la Comptabilité Publique","etab_adr":"Direction Régionale du Trésor et de la Comptabilité Publique, Guerin-Kouka, Guérin-Kouka, Dankpen 1","ouverture_jour":"{lundi,Mardi,Mercredi,Jeudi,Vendredi}","ministere_tutelle":"MEF"}},{"type":"Feature","id":"_mview_admi_etablissements_administration.fid--1b6ae3e2_1a0db278384_-38dc","geometry":{"type":"Point","coordinates":[0.92476784,6.43719106]},"geometry_name":"geometry","properties":{"region_nom_bdd":"Maritime","prefecture_nom_bdd":"Avé","commune_nom_bdd":"Avé 1","canton_nom_bdd":"Kévé","nom_localite":"Latin","etablissement_nom":"Trésorerie de la Préfecture de l'Avé","etab_adr":"Trésorerie de la Préfecture de l'Avé, Latin, Kévé, Avé 1","ouverture_jour":"{lundi,Mardi,Mercredi,Jeudi,Vendredi}","ministere_tutelle":"MEF"}},{"type":"Feature","id":"_mview_admi_etablissements_administration.fid--1b6ae3e2_1a0db278384_-38db","geometry":{"type":"Point","coordinates":[1.22081595,6.12415478]},"geometry_name":"geometry","properties":{"region_nom_bdd":"Maritime","prefecture_nom_bdd":"Golfe","commune_nom_bdd":"Golfe 4","canton_nom_bdd":"Amoutivé","nom_localite":"Quartier Administratif","etablissement_nom":"Direction du Matériel et du Transit Administratif (MEF/DMTA)","etab_adr":"Direction du Matériel et du Transit Administratif (MEF/DMTA), Quartier Administratif, Amoutivé, Golfe 4, BP370 Lomé","ouverture_jour":"{lundi,Mardi,Mercredi,Jeudi,Vendredi}","ministere_tutelle":"MEF"}},{"type":"Feature","id":"_mview_admi_etablissements_administration.fid--1b6ae3e2_1a0db278384_-38da","geometry":{"type":"Point","coordinates":[1.22466289,6.13111247]},"geometry_name":"geometry","properties":{"region_nom_bdd":"Maritime","prefecture_nom_bdd":"Golfe","commune_nom_bdd":"Golfe 4","canton_nom_bdd":"Amoutivé","nom_localite":"Quartier Administratif","etablissement_nom":"Inspection Générale des Finances (IGF)","etab_adr":"Inspection Générale des Finances (IGF), Quartier Administratif, Amoutivé, Golfe 4, BP1093 Lomé","ouverture_jour":"{lundi,Mardi,Mercredi,Jeudi,Vendredi}","ministere_tutelle":"MEF"}},{"type":"Feature","id":"_mview_admi_etablissements_administration.fid--1b6ae3e2_1a0db278384_-38d9","geometry":{"type":"Point","coordinates":[1.626015,6.49598333]},"geometry_name":"geometry","properties":{"region_nom_bdd":"Maritime","prefecture_nom_bdd":"Bas-Mono","commune_nom_bdd":"Bas-Mono 1","canton_nom_bdd":"Afagnangan","nom_localite":"Djebe","etablissement_nom":"Trésorerie de la Préfecture de Bas-Mono","etab_adr":"Trésorerie de la Préfecture de Bas-Mono, Djebe, Afagnangan, Bas-Mono 1","ouverture_jour":"{lundi,Mardi,Mercredi,Jeudi,Vendredi}","ministere_tutelle":"MEF"}},{"type":"Feature","id":"_mview_admi_etablissements_administration.fid--1b6ae3e2_1a0db278384_-38d8","geometry":{"type":"Point","coordinates":[0.75110402,10.32390997]},"geometry_name":"geometry","properties":{"region_nom_bdd":"Savanes","prefecture_nom_bdd":"Oti-Sud","commune_nom_bdd":"Oti-Sud 1","canton_nom_bdd":"Gando","nom_localite":"Gando","etablissement_nom":"Trésorerie de la Préfecture de l'Oti Sud","etab_adr":"Trésorerie de la Préfecture de l'Oti Sud, Gando, Gando, Oti-Sud 1","ouverture_jour":"{lundi,Mardi,Mercredi,Jeudi,Vendredi}","ministere_tutelle":"MEF"}},{"type":"Feature","id":"_mview_admi_etablissements_administration.fid--1b6ae3e2_1a0db278384_-38d7","geometry":{"type":"Point","coordinates":[0.78477749,9.25656615]},"geometry_name":"geometry","properties":{"region_nom_bdd":"Kara","prefecture_nom_bdd":"Bassar","commune_nom_bdd":"Bassar 1","canton_nom_bdd":"Bassar","nom_localite":"Bassar","etablissement_nom":"Trésorerie de la Préfecture de Bassar","etab_adr":"Trésorerie de la Préfecture de Bassar, Bassar, Bassar, Bassar 1","ouverture_jour":"{lundi,Mardi,Mercredi,Jeudi,Vendredi}","ministere_tutelle":"MEF"}},{"type":"Feature","id":"_mview_admi_etablissements_administration.fid--1b6ae3e2_1a0db278384_-38d6","geometry":{"type":"Point","coordinates":[1.21357495,6.13369605]},"geometry_name":"geometry","properties":{"region_nom_bdd":"Maritime","prefecture_nom_bdd":"Golfe","commune_nom_bdd":"Golfe 4","canton_nom_bdd":"Amoutivé","nom_localite":"Tokoin Hopital","etablissement_nom":"Trésorerie des Communes Golfes 1, 4 et 6","etab_adr":"Trésorerie des Communes Golfes 1, 4 et 6, Tokoin Hopital, Amoutivé, Golfe 4","ouverture_jour":"{lundi,Mardi,Mercredi,Jeudi,Vendredi}","ministere_tutelle":"MEF"}},{"type":"Feature","id":"_mview_admi_etablissements_administration.fid--1b6ae3e2_1a0db278384_-38d5","geometry":{"type":"Point","coordinates":[1.2166034,6.1280504]},"geometry_name":"geometry","properties":{"region_nom_bdd":"Maritime","prefecture_nom_bdd":"Golfe","commune_nom_bdd":"Golfe 4","canton_nom_bdd":"Amoutivé","nom_localite":"Quartier Administratif","etablissement_nom":"Direction Générale du Trésor et de la Comptabilité Publique (MEF/DGTCP)","etab_adr":"Direction Générale du Trésor et de la Comptabilité Publique (MEF/DGTCP), Quartier Administratif, Amoutivé, Golfe 4, BP324 Lomé","ouverture_jour":"{Vendredi,Jeudi,Mercredi,Mardi,lundi}","ministere_tutelle":"MEF"}},{"type":"Feature","id":"_mview_admi_etablissements_administration.fid--1b6ae3e2_1a0db278384_-38d4","geometry":{"type":"Point","coordinates":[1.19911801,6.17229056]},"geometry_name":"geometry","properties":{"region_nom_bdd":"Maritime","prefecture_nom_bdd":"Golfe","commune_nom_bdd":"Golfe 5","canton_nom_bdd":"Aflao-Gakli","nom_localite":"Djidjole","etablissement_nom":"Bureau Annexe CNSS pour les pensions","etab_adr":"Djidjole","ouverture_jour":null,"ministere_tutelle":"MEF"}},{"type":"Feature","id":"_mview_admi_etablissements_administration.fid--1b6ae3e2_1a0db278384_-38d3","geometry":{"type":"Point","coordinates":[1.21675849,6.12583259]},"geometry_name":"geometry","properties":{"region_nom_bdd":"Maritime","prefecture_nom_bdd":"Golfe","commune_nom_bdd":"Golfe 4","canton_nom_bdd":"Amoutivé","nom_localite":"Assivito","etablissement_nom":"Direction des Études et de la Planification (MEF/DEP)","etab_adr":"Direction des Études et de la Planification (MEF/DEP), Assivito, Amoutivé, Golfe 4","ouverture_jour":"{Vendredi,Jeudi,Mercredi,Mardi,lundi}","ministere_tutelle":"MEF"}},{"type":"Feature","id":"_mview_admi_etablissements_administration.fid--1b6ae3e2_1a0db278384_-38d2","geometry":{"type":"Point","coordinates":[1.11618037,9.76422566]},"geometry_name":"geometry","properties":{"region_nom_bdd":"Kara","prefecture_nom_bdd":"Doufelgou","commune_nom_bdd":"Doufelgou 1","canton_nom_bdd":"Niamtougou","nom_localite":"Niamtougou","etablissement_nom":"Trésorerie de la Préfecture de Doufelgou","etab_adr":"Trésorerie de la Préfecture de Doufelgou, Niamtougou, Niamtougou, Doufelgou 1, BP86 Niamtougou","ouverture_jour":"{lundi,Mardi,Mercredi,Jeudi,Vendredi}","ministere_tutelle":"MEF"}},{"type":"Feature","id":"_mview_admi_etablissements_administration.fid--1b6ae3e2_1a0db278384_-38d1","geometry":{"type":"Point","coordinates":[1.2207177,6.12411795]},"geometry_name":"geometry","properties":{"region_nom_bdd":"Maritime","prefecture_nom_bdd":"Golfe","commune_nom_bdd":"Golfe 4","canton_nom_bdd":"Amoutivé","nom_localite":"Quartier Administratif","etablissement_nom":"Commission de Passation des Marchés Publics (CPMP)","etab_adr":"Commission de Passation des Marchés Publics (CPMP), Quartier Administratif, Amoutivé, Golfe 4","ouverture_jour":"Nsp","ministere_tutelle":"MEF"}},{"type":"Feature","id":"_mview_admi_etablissements_administration.fid--1b6ae3e2_1a0db278384_-38d0","geometry":{"type":"Point","coordinates":[1.20825817,6.18798269]},"geometry_name":"geometry","properties":{"region_nom_bdd":"Maritime","prefecture_nom_bdd":"Golfe","commune_nom_bdd":"Golfe 3","canton_nom_bdd":"Bè-Ouest","nom_localite":"Gta","etablissement_nom":"Loterie Nationale Togolaise (LONATO) - Direction Générale","etab_adr":"Loterie Nationale Togolaise (LONATO) - Direction Générale, GTA, Bè-Ouest, Golfe 3","ouverture_jour":"Nsp","ministere_tutelle":"MEF"}},{"type":"Feature","id":"_mview_admi_etablissements_administration.fid--1b6ae3e2_1a0db278384_-38cf","geometry":{"type":"Point","coordinates":[1.21566855,6.18484075]},"geometry_name":"geometry","properties":{"region_nom_bdd":"Maritime","prefecture_nom_bdd":"Golfe","commune_nom_bdd":"Golfe 3","canton_nom_bdd":"Bè-Ouest","nom_localite":"Cite Oua","etablissement_nom":"Compagnie Commune de Réassurance des Etats Membres de la Conférence Interafricaine des Marchés d'Assurances (CICA-RE)","etab_adr":"Compagnie Commune de Réassurance des Etats Membres de la Conférence Interafricaine des Marchés d'Assurances (CICA-RE), Cite Oua, Bè-Ouest, Golfe 3","ouverture_jour":"{lundi,Mardi,Mercredi,Jeudi,Vendredi}","ministere_tutelle":"MEF"}},{"type":"Feature","id":"_mview_admi_etablissements_administration.fid--1b6ae3e2_1a0db278384_-38ce","geometry":{"type":"Point","coordinates":[1.24693333,6.14653333]},"geometry_name":"geometry","properties":{"region_nom_bdd":"Maritime","prefecture_nom_bdd":"Golfe","commune_nom_bdd":"Golfe 1","canton_nom_bdd":"Bè-Est","nom_localite":"Akodessewa","etablissement_nom":"OTR - Akodesewa","etab_adr":"OTR - Akodesewa, Akodessewa, Bè-Est, Golfe 1","ouverture_jour":"Nsp","ministere_tutelle":"MEF"}},{"type":"Feature","id":"_mview_admi_etablissements_administration.fid--1b6ae3e2_1a0db278384_-38cd","geometry":{"type":"Point","coordinates":[1.21312439,6.1866265]},"geometry_name":"geometry","properties":{"region_nom_bdd":"Maritime","prefecture_nom_bdd":"Golfe","commune_nom_bdd":"Golfe 3","canton_nom_bdd":"Bè-Ouest","nom_localite":"Cite Oua","etablissement_nom":"OTR - Be Ouest","etab_adr":"OTR - Be Ouest, Cite Oua, Bè-Ouest, Golfe 3","ouverture_jour":"Nsp","ministere_tutelle":"MEF"}},{"type":"Feature","id":"_mview_admi_etablissements_administration.fid--1b6ae3e2_1a0db278384_-38cc","geometry":{"type":"Point","coordinates":[1.19144934,6.21890955]},"geometry_name":"geometry","properties":{"region_nom_bdd":"Maritime","prefecture_nom_bdd":"Agoè-Nyivé","commune_nom_bdd":"Agoè-Nyivé 1","canton_nom_bdd":"Agoè-Nyivé","nom_localite":"Agoe Nyive","etablissement_nom":"OTR - Agoe","etab_adr":"OTR - Agoe, Agoe Nyive, Agoè-Nyivé, Agoè-Nyivé 1","ouverture_jour":"{lundi,Mardi,Mercredi,Jeudi,Vendredi}","ministere_tutelle":"MEF"}},{"type":"Feature","id":"_mview_admi_etablissements_administration.fid--1b6ae3e2_1a0db278384_-38cb","geometry":{"type":"Point","coordinates":[0.57226974,8.78668087]},"geometry_name":"geometry","properties":{"region_nom_bdd":"Centrale","prefecture_nom_bdd":"Mô","commune_nom_bdd":"Mô 1","canton_nom_bdd":"Djarkpanga","nom_localite":"Djarkpanga","etablissement_nom":"Trésorerie de la Préfecture de Mo","etab_adr":"Trésorerie de la Préfecture de Mo, Djarkpanga, Djarkpanga, Mô 1","ouverture_jour":"{Vendredi,Jeudi,Mercredi,Mardi,lundi}","ministere_tutelle":"MEF"}},{"type":"Feature","id":"_mview_admi_etablissements_administration.fid--1b6ae3e2_1a0db278384_-38ca","geometry":{"type":"Point","coordinates":[1.13999757,8.97929791]},"geometry_name":"geometry","properties":{"region_nom_bdd":"Centrale","prefecture_nom_bdd":"Tchaoudjo","commune_nom_bdd":"Tchaoudjo 1","canton_nom_bdd":"Sokodè (Komah)","nom_localite":"Komah 1","etablissement_nom":"OTR Impots - Centrale","etab_adr":"OTR Impots - Centrale, Komah 1, Sokodè (Komah), Tchaoudjo 1, BP169 Sokode","ouverture_jour":"{Vendredi,Jeudi,Mercredi,Mardi,lundi}","ministere_tutelle":"MEF"}},{"type":"Feature","id":"_mview_admi_etablissements_administration.fid--1b6ae3e2_1a0db278384_-38c9","geometry":{"type":"Point","coordinates":[1.22103037,6.12322812]},"geometry_name":"geometry","properties":{"region_nom_bdd":"Maritime","prefecture_nom_bdd":"Golfe","commune_nom_bdd":"Golfe 4","canton_nom_bdd":"Amoutivé","nom_localite":"Amoutive","etablissement_nom":"Direction des Affaires Domaniales (MEF/DAD)","etab_adr":"Direction des Affaires Domaniales (MEF/DAD), Amoutive, Amoutivé, Golfe 4","ouverture_jour":"{lundi,Mardi,Mercredi,Jeudi,Vendredi}","ministere_tutelle":"MEF"}},{"type":"Feature","id":"_mview_admi_etablissements_administration.fid--1b6ae3e2_1a0db278384_-38c8","geometry":{"type":"Point","coordinates":[1.18469357,9.55556239]},"geometry_name":"geometry","properties":{"region_nom_bdd":"Kara","prefecture_nom_bdd":"Kozah","commune_nom_bdd":"Kozah 1","canton_nom_bdd":"Commune De Kara","nom_localite":"Lama","etablissement_nom":"Agence Nationale de Promotion et de Garantie de Financement des PME/PMI (ANPGF) - Kara","etab_adr":"Agence Nationale de Promotion et de Garantie de Financement des PME/PMI (ANPGF) - Kara, Lama, Commune De Kara, Kozah 1, BP777 Kara","ouverture_jour":"{Vendredi,Jeudi,Mercredi,Mardi,lundi}","ministere_tutelle":"MEF"}},{"type":"Feature","id":"_mview_admi_etablissements_administration.fid--1b6ae3e2_1a0db278384_-38c7","geometry":{"type":"Point","coordinates":[1.2005347,6.17317888]},"geometry_name":"geometry","properties":{"region_nom_bdd":"Maritime","prefecture_nom_bdd":"Golfe","commune_nom_bdd":"Golfe 5","canton_nom_bdd":"Aflao-Gakli","nom_localite":"Djidjolé","etablissement_nom":"Agence Nationale de Promotion et de Garantie de Financement des PME/PMI (ANPGF) - Aflao Gakli","etab_adr":"Agence Nationale de Promotion et de Garantie de Financement des PME/PMI (ANPGF) - Aflao Gakli, Djidjolé, Aflao-Gakli, Golfe 5, 02BP20866 Lomé","ouverture_jour":"{lundi,Mardi,Mercredi,Jeudi,Vendredi}","ministere_tutelle":"MEF"}},{"type":"Feature","id":"_mview_admi_etablissements_administration.fid--1b6ae3e2_1a0db278384_-38c6","geometry":{"type":"Point","coordinates":[1.19193019,6.20320731]},"geometry_name":"geometry","properties":{"region_nom_bdd":"Maritime","prefecture_nom_bdd":"Agoè-Nyivé","commune_nom_bdd":"Agoè-Nyivé 1","canton_nom_bdd":"Agoè-Nyivé","nom_localite":"Cacaveli","etablissement_nom":"Cellule Nationale de Traitement des Informations Financières (CENTIF-TG)","etab_adr":"Cellule Nationale de Traitement des Informations Financières (CENTIF-TG), Cacaveli, Agoè-Nyivé, Agoè-Nyivé 1, 19BP226 Lomé","ouverture_jour":"{lundi,Mardi,Mercredi,Jeudi,Vendredi}","ministere_tutelle":"MEF"}},{"type":"Feature","id":"_mview_admi_etablissements_administration.fid--1b6ae3e2_1a0db278384_-38c5","geometry":{"type":"Point","coordinates":[0.19635298,10.88126087]},"geometry_name":"geometry","properties":{"region_nom_bdd":"Savanes","prefecture_nom_bdd":"Tône","commune_nom_bdd":"Tône 1","canton_nom_bdd":"Dapaong","nom_localite":"Les Citos (nassablé 2)","etablissement_nom":"Trésorerie Régionale - Région Savanes","etab_adr":"Trésorerie Régionale - Région Savanes, Les Citos (Nassablé 2), Dapaong, Tône 1","ouverture_jour":"{lundi,Mardi,Mercredi,Jeudi,Vendredi,Samedi}","ministere_tutelle":"MEF"}},{"type":"Feature","id":"_mview_admi_etablissements_administration.fid--1b6ae3e2_1a0db278384_-38c4","geometry":{"type":"Point","coordinates":[1.24633204,9.34926438]},"geometry_name":"geometry","properties":{"region_nom_bdd":"Kara","prefecture_nom_bdd":"Assoli","commune_nom_bdd":"Assoli 1","canton_nom_bdd":"Bafilo","nom_localite":"Sodjide","etablissement_nom":"Trésorerie de la Préfecture d'Assoli","etab_adr":"Trésorerie de la Préfecture d'Assoli, Sodjide, Bafilo, Assoli 1, BP10 Bafilo","ouverture_jour":"{Vendredi,Jeudi,Mercredi,Mardi,lundi}","ministere_tutelle":"MEF"}},{"type":"Feature","id":"_mview_admi_etablissements_administration.fid--1b6ae3e2_1a0db278384_-38c3","geometry":{"type":"Point","coordinates":[1.22163512,6.12299535]},"geometry_name":"geometry","properties":{"region_nom_bdd":"Maritime","prefecture_nom_bdd":"Golfe","commune_nom_bdd":"Golfe 4","canton_nom_bdd":"Amoutivé","nom_localite":"Quartier Administratif","etablissement_nom":"Direction Nationale du Contrôle des Marchés Publics (DNCMP)","etab_adr":"Direction Nationale du Contrôle des Marchés Publics (DNCMP), Quartier Administratif, Amoutivé, Golfe 4, BP1533 Lomé","ouverture_jour":"{Samedi,Vendredi,Jeudi,Mercredi,lundi}","ministere_tutelle":"MEF"}},{"type":"Feature","id":"_mview_admi_etablissements_administration.fid--1b6ae3e2_1a0db278384_-38c2","geometry":{"type":"Point","coordinates":[0.20214792,10.86947553]},"geometry_name":"geometry","properties":{"region_nom_bdd":"Savanes","prefecture_nom_bdd":"Tône","commune_nom_bdd":"Tône 1","canton_nom_bdd":"Dapaong","nom_localite":"Dapaong","etablissement_nom":"Caisse de retraite du Togo (CRT) Dapaong","etab_adr":"N/a","ouverture_jour":null,"ministere_tutelle":"MEF"}},{"type":"Feature","id":"_mview_admi_etablissements_administration.fid--1b6ae3e2_1a0db278384_-38c1","geometry":{"type":"Point","coordinates":[1.21897599,6.1351283]},"geometry_name":"geometry","properties":{"region_nom_bdd":"Maritime","prefecture_nom_bdd":"Golfe","commune_nom_bdd":"Golfe 4","canton_nom_bdd":"Amoutivé","nom_localite":"Nyekonakpoe","etablissement_nom":"Direction Générale Sunu Bank Togo","etab_adr":"Hanoukope","ouverture_jour":"{lundi,Vendredi,Mercredi,Samedi,Mardi,Jeudi}","ministere_tutelle":"MEF"}},{"type":"Feature","id":"_mview_admi_etablissements_administration.fid--1b6ae3e2_1a0db278384_-38c0","geometry":{"type":"Point","coordinates":[1.21836789,6.14918807]},"geometry_name":"geometry","properties":{"region_nom_bdd":"Maritime","prefecture_nom_bdd":"Golfe","commune_nom_bdd":"Golfe 4","canton_nom_bdd":"Amoutivé","nom_localite":"Tokoin","etablissement_nom":"Direction Générale Société Générale Togo (SGT)","etab_adr":"Tokoin","ouverture_jour":"{Jeudi,Mardi,Samedi,Mercredi,Vendredi,lundi}","ministere_tutelle":"MEF"}},{"type":"Feature","id":"_mview_admi_etablissements_administration.fid--1b6ae3e2_1a0db278384_-38bf","geometry":{"type":"Point","coordinates":[1.2172959,6.1284097]},"geometry_name":"geometry","properties":{"region_nom_bdd":"Maritime","prefecture_nom_bdd":"Golfe","commune_nom_bdd":"Golfe 4","canton_nom_bdd":"Amoutivé","nom_localite":"Adawoulato","etablissement_nom":"Secrétariat permanent pour le suivi des politiques de réformes et des programmes financiers (SP-PRPF)","etab_adr":"Quartier administratif/6 étage immeuble Casef","ouverture_jour":"{Jeudi,Mardi,Mercredi,Vendredi,lundi}","ministere_tutelle":"MEF"}},{"type":"Feature","id":"_mview_admi_etablissements_administration.fid--1b6ae3e2_1a0db278384_-38be","geometry":{"type":"Point","coordinates":[1.23332615,6.13431876]},"geometry_name":"geometry","properties":{"region_nom_bdd":"Maritime","prefecture_nom_bdd":"Golfe","commune_nom_bdd":"Golfe 4","canton_nom_bdd":"Amoutivé","nom_localite":"Attikpodji","etablissement_nom":"Direction Générale Banque Du Mali (BDM) Lomé","etab_adr":"Attikpodji","ouverture_jour":"{Jeudi,Mardi,Samedi,Mercredi,Vendredi,lundi}","ministere_tutelle":"MEF"}},{"type":"Feature","id":"_mview_admi_etablissements_administration.fid--1b6ae3e2_1a0db278384_-38bd","geometry":{"type":"Point","coordinates":[1.23532012,6.13287051]},"geometry_name":"geometry","properties":{"region_nom_bdd":"Maritime","prefecture_nom_bdd":"Golfe","commune_nom_bdd":"Golfe 4","canton_nom_bdd":"Amoutivé","nom_localite":"Attikpodji","etablissement_nom":"Direction Générale Coris Bank Lomé","etab_adr":"Attikpodji","ouverture_jour":"{lundi,Vendredi,Mercredi,Samedi,Mardi,Jeudi}","ministere_tutelle":"MEF"}},{"type":"Feature","id":"_mview_admi_etablissements_administration.fid--1b6ae3e2_1a0db278384_-38bc","geometry":{"type":"Point","coordinates":[1.21966392,6.15393198]},"geometry_name":"geometry","properties":{"region_nom_bdd":"Maritime","prefecture_nom_bdd":"Golfe","commune_nom_bdd":"Golfe 3","canton_nom_bdd":"Bè-Ouest","nom_localite":"Tokoin Gbonvie","etablissement_nom":"Unité de Politique Fiscal (UPF)","etab_adr":"N/a","ouverture_jour":"{Jeudi,Mardi,Mercredi,Vendredi,lundi}","ministere_tutelle":"MEF"}},{"type":"Feature","id":"_mview_admi_etablissements_administration.fid--1b6ae3e2_1a0db278384_-38bb","geometry":{"type":"Point","coordinates":[1.18315425,9.55946673]},"geometry_name":"geometry","properties":{"region_nom_bdd":"Kara","prefecture_nom_bdd":"Kozah","commune_nom_bdd":"Kozah 1","canton_nom_bdd":"Commune De Kara","nom_localite":"Lama","etablissement_nom":"Caisse de retraite du Togo (CRT) Kara","etab_adr":"N/a","ouverture_jour":null,"ministere_tutelle":"MEF"}},{"type":"Feature","id":"_mview_admi_etablissements_administration.fid--1b6ae3e2_1a0db278384_-38ba","geometry":{"type":"Point","coordinates":[1.13530404,8.9776878]},"geometry_name":"geometry","properties":{"region_nom_bdd":"Centrale","prefecture_nom_bdd":"Tchaoudjo","commune_nom_bdd":"Tchaoudjo 1","canton_nom_bdd":"Sokodè (Komah)","nom_localite":"Sokode","etablissement_nom":"Caisse de retraite du Togo (CRT) Sokode","etab_adr":"N/a","ouverture_jour":null,"ministere_tutelle":"MEF"}},{"type":"Feature","id":"_mview_admi_etablissements_administration.fid--1b6ae3e2_1a0db278384_-38b9","geometry":{"type":"Point","coordinates":[1.20414796,6.17314399]},"geometry_name":"geometry","properties":{"region_nom_bdd":"Maritime","prefecture_nom_bdd":"Golfe","commune_nom_bdd":"Golfe 3","canton_nom_bdd":"Bè-Ouest","nom_localite":"Klikamé","etablissement_nom":"Caisse de Retraite du Togo (CRT) Klikamé","etab_adr":"Bè-klikmé","ouverture_jour":null,"ministere_tutelle":"MEF"}},{"type":"Feature","id":"_mview_admi_etablissements_administration.fid--1b6ae3e2_1a0db278384_-38b8","geometry":{"type":"Point","coordinates":[1.20887455,6.18794446]},"geometry_name":"geometry","properties":{"region_nom_bdd":"Maritime","prefecture_nom_bdd":"Golfe","commune_nom_bdd":"Golfe 3","canton_nom_bdd":"Bè-Ouest","nom_localite":"Campus Nord","etablissement_nom":"Caisse de retraite du Togo Direction générale Lomé","etab_adr":"Campus Nord","ouverture_jour":null,"ministere_tutelle":"MEF"}}],"totalFeatures":117,"numberMatched":117,"numberReturned":117,"timeStamp":"2026-09-26T00:40:31.004Z","crs":{"type":"name","properties":{"name":"urn:ogc:def:crs:EPSG::4326"}}}