{"type":"FeatureCollection","features":[{"type":"Feature","id":"_mview_admi_etablissements_administration.fid--1b6ae3e2_1a0db278384_-382e","geometry":{"type":"Point","coordinates":[1.19880167,9.55003333]},"geometry_name":"geometry","properties":{"region_nom_bdd":"Kara","prefecture_nom_bdd":"Kozah","commune_nom_bdd":"Kozah 1","canton_nom_bdd":"Commune De Kara","nom_localite":"Tomde","etablissement_nom":"Chambre Régionale de Métiers et de l'Artisanat (CRMA) - Région Kara","etab_adr":"BP:354","ouverture_jour":"{Jeudi,Mardi,Mercredi,Vendredi,lundi}","ministere_tutelle":"META"}},{"type":"Feature","id":"_mview_admi_etablissements_administration.fid--1b6ae3e2_1a0db278384_-382d","geometry":{"type":"Point","coordinates":[1.14285318,8.99053185]},"geometry_name":"geometry","properties":{"region_nom_bdd":"Centrale","prefecture_nom_bdd":"Tchaoudjo","commune_nom_bdd":"Tchaoudjo 1","canton_nom_bdd":"Sokodè (Komah)","nom_localite":"Kpalokpalo","etablissement_nom":"Chambre Régionale de Métiers et de l'Artisanat (CRMA) - Centrale","etab_adr":"Chambre Regionale des Metiers et de l'Artisanat (CRMA) - Centrale, Kpalokpalo, Sokodè (Komah), Tchaoudjo 1","ouverture_jour":"{lundi,Mardi,Mercredi,Jeudi,Vendredi}","ministere_tutelle":"META"}},{"type":"Feature","id":"_mview_admi_etablissements_administration.fid--1b6ae3e2_1a0db278384_-382c","geometry":{"type":"Point","coordinates":[1.12420717,7.53003122]},"geometry_name":"geometry","properties":{"region_nom_bdd":"Plateaux","prefecture_nom_bdd":"Ogou","commune_nom_bdd":"Ogou 1","canton_nom_bdd":"Gnagna","nom_localite":"Agadome","etablissement_nom":"Chambre Régionale de Métiers et de l'Artisanat (CRMA) - Plateaux","etab_adr":"Chambre Regionale des Metiers et de l'Artisanat (CRMA) - Plateaux, Agadome, Gnagna, Ogou 1, BP447 Atakpame","ouverture_jour":"{lundi,Mardi,Mercredi,Jeudi,Vendredi}","ministere_tutelle":"META"}},{"type":"Feature","id":"_mview_admi_etablissements_administration.fid--1b6ae3e2_1a0db278384_-382b","geometry":{"type":"Point","coordinates":[1.21541059,6.43192401]},"geometry_name":"geometry","properties":{"region_nom_bdd":"Maritime","prefecture_nom_bdd":"Zio","commune_nom_bdd":"Zio 1","canton_nom_bdd":"Tsévié","nom_localite":"Tsevié","etablissement_nom":"Chambre Régionale de Métiers et de l'Artisanat (CRMA) - Maritime","etab_adr":"Chambre Regionale des Metiers et de l'Artisanat (CRMA) - Maritime, Tsevié, Tsévié, Zio 1, BP286 Tsevie","ouverture_jour":"{lundi,Mercredi,Mardi,Jeudi,Vendredi}","ministere_tutelle":"META"}},{"type":"Feature","id":"_mview_admi_etablissements_administration.fid--1b6ae3e2_1a0db278384_-382a","geometry":{"type":"Point","coordinates":[0.20136667,10.87365667]},"geometry_name":"geometry","properties":{"region_nom_bdd":"Savanes","prefecture_nom_bdd":"Tône","commune_nom_bdd":"Tône 1","canton_nom_bdd":"Dapaong","nom_localite":"Bodjopal","etablissement_nom":"Chambre Régionale de Métiers et de l'Artisanat (CRMA) - Savanes","etab_adr":"Chambre Regionale des Metiers et de l'Artisanat (CRMA) - Savanes, Bodjopal, Dapaong, Tône 1","ouverture_jour":"{lundi,Mardi,Mercredi,Jeudi,Vendredi}","ministere_tutelle":"META"}},{"type":"Feature","id":"_mview_admi_etablissements_administration.fid--1b6ae3e2_1a0db278384_-3829","geometry":{"type":"Point","coordinates":[0.73360167,7.135485]},"geometry_name":"geometry","properties":{"region_nom_bdd":"Plateaux","prefecture_nom_bdd":"Kpélé","commune_nom_bdd":"Kpélé 1","canton_nom_bdd":"Kpélé-Novivé","nom_localite":"Kpele Adeta","etablissement_nom":"Chambre Préfectorale des Métiers (CPM) - Kpélé","etab_adr":"Kpélé Adéta","ouverture_jour":"{lundi,Vendredi,Mercredi,Mardi,Jeudi}","ministere_tutelle":"META"}},{"type":"Feature","id":"_mview_admi_etablissements_administration.fid--1b6ae3e2_1a0db278384_-3828","geometry":{"type":"Point","coordinates":[0.69536,7.19523167]},"geometry_name":"geometry","properties":{"region_nom_bdd":"Plateaux","prefecture_nom_bdd":"Danyi","commune_nom_bdd":"Danyi 1","canton_nom_bdd":"Danyi-Atigba","nom_localite":"Danyi Apehemé","etablissement_nom":"Chambre Préfectorale des Métiers (CPM) - Danyi","etab_adr":"Danyi Apehemé","ouverture_jour":"{lundi,Mercredi,Samedi,Mardi,Jeudi}","ministere_tutelle":"META"}},{"type":"Feature","id":"_mview_admi_etablissements_administration.fid--1b6ae3e2_1a0db278384_-3827","geometry":{"type":"Point","coordinates":[0.20135575,10.8735565]},"geometry_name":"geometry","properties":{"region_nom_bdd":"Savanes","prefecture_nom_bdd":"Tône","commune_nom_bdd":"Tône 1","canton_nom_bdd":"Dapaong","nom_localite":"Bodjopal","etablissement_nom":"Chambre Préfectorale des Métiers (CPM) - Tones","etab_adr":"Bodjopal","ouverture_jour":null,"ministere_tutelle":"META"}},{"type":"Feature","id":"_mview_admi_etablissements_administration.fid--1b6ae3e2_1a0db278384_-3826","geometry":{"type":"Point","coordinates":[1.04281861,9.96064568]},"geometry_name":"geometry","properties":{"region_nom_bdd":"Kara","prefecture_nom_bdd":"Kéran","commune_nom_bdd":"Kéran 1","canton_nom_bdd":"Kantè","nom_localite":"Atékanté","etablissement_nom":"Chambre Préfectorale des Métiers (CPM) - Kéran","etab_adr":"Sc la direction Régionale","ouverture_jour":"{Jeudi,Mardi,Samedi,Mercredi,Vendredi,lundi}","ministere_tutelle":"META"}},{"type":"Feature","id":"_mview_admi_etablissements_administration.fid--1b6ae3e2_1a0db278384_-3825","geometry":{"type":"Point","coordinates":[1.53170848,6.33473337]},"geometry_name":"geometry","properties":{"region_nom_bdd":"Maritime","prefecture_nom_bdd":"Vo","commune_nom_bdd":"Vo 1","canton_nom_bdd":"Vogan","nom_localite":"Commandant Kondji","etablissement_nom":"Chambre Préfectorale des Métiers (CPM) - Vo","etab_adr":"Commandant Kondji, près de l'ancienne CEET","ouverture_jour":"{lundi,Vendredi,Mercredi,Mardi,Jeudi}","ministere_tutelle":"META"}},{"type":"Feature","id":"_mview_admi_etablissements_administration.fid--1b6ae3e2_1a0db278384_-3824","geometry":{"type":"Point","coordinates":[1.10947758,9.75088192]},"geometry_name":"geometry","properties":{"region_nom_bdd":"Kara","prefecture_nom_bdd":"Doufelgou","commune_nom_bdd":"Doufelgou 1","canton_nom_bdd":"Niamtougou","nom_localite":"Yaka","etablissement_nom":"Chambre Préfectorale des Métiers (CPM) - Doufelgou","etab_adr":"Sc la direction Régionale","ouverture_jour":"{Jeudi,Mardi,Mercredi,Vendredi,lundi}","ministere_tutelle":"META"}},{"type":"Feature","id":"_mview_admi_etablissements_administration.fid--1b6ae3e2_1a0db278384_-3823","geometry":{"type":"Point","coordinates":[1.60986022,7.02407384]},"geometry_name":"geometry","properties":{"region_nom_bdd":"Plateaux","prefecture_nom_bdd":"Moyen-Mono","commune_nom_bdd":"Moyen-Mono 1","canton_nom_bdd":"Tohoun","nom_localite":"Tohoun","etablissement_nom":"Chambre Préfectorale des métiers (CPM) - Moyen Mono","etab_adr":"Tohoun","ouverture_jour":null,"ministere_tutelle":"META"}},{"type":"Feature","id":"_mview_admi_etablissements_administration.fid--1b6ae3e2_1a0db278384_-3822","geometry":{"type":"Point","coordinates":[1.24731738,6.13699517]},"geometry_name":"geometry","properties":{"region_nom_bdd":"Maritime","prefecture_nom_bdd":"Golfe","commune_nom_bdd":"Golfe 1","canton_nom_bdd":"Bè-Est","nom_localite":"Bè Plage","etablissement_nom":"Chambre Régionale de Métiers et de l'Artisanat (CRMA) - Lomé (DAGL)","etab_adr":"Bè plage","ouverture_jour":null,"ministere_tutelle":"META"}},{"type":"Feature","id":"_mview_admi_etablissements_administration.fid--1b6ae3e2_1a0db278384_-3821","geometry":{"type":"Point","coordinates":[1.21516667,6.41889333]},"geometry_name":"geometry","properties":{"region_nom_bdd":"Maritime","prefecture_nom_bdd":"Zio","commune_nom_bdd":"Zio 1","canton_nom_bdd":"Tsévié","nom_localite":"Tsevié Assiama","etablissement_nom":"Chambre Préfectorale des Métiers (CPM) Tsevié","etab_adr":"Tsevié","ouverture_jour":"{lundi,Mardi,Jeudi,Vendredi,Mercredi}","ministere_tutelle":"META"}},{"type":"Feature","id":"_mview_admi_etablissements_administration.fid--1b6ae3e2_1a0db278384_-3820","geometry":{"type":"Point","coordinates":[1.41853178,9.02000795]},"geometry_name":"geometry","properties":{"region_nom_bdd":"Centrale","prefecture_nom_bdd":"Tchamba","commune_nom_bdd":"Tchamba 1","canton_nom_bdd":"Tchamba","nom_localite":"N/a","etablissement_nom":"Chambre Préfectorale des Métiers (CPM) - Tchamba","etab_adr":"N/a","ouverture_jour":"N/a","ministere_tutelle":"META"}},{"type":"Feature","id":"_mview_admi_etablissements_administration.fid--1b6ae3e2_1a0db278384_-381f","geometry":{"type":"Point","coordinates":[1.13377616,8.97446267]},"geometry_name":"geometry","properties":{"region_nom_bdd":"Centrale","prefecture_nom_bdd":"Tchaoudjo","commune_nom_bdd":"Tchaoudjo 1","canton_nom_bdd":"Sokodè (Komah)","nom_localite":"Komah","etablissement_nom":"Inspection de l'Enseignement Technique et de la Formation Professionnelle (IESTFP-C) - Région Centrale","etab_adr":"Inspection de l'Enseignement Technique et de la Formation Professionnelle (IESTFP) - Région Centrale, Komah, Sokodè (Komah), Tchaoudjo 1, 300BP30","ouverture_jour":"{lundi,Mardi,Mercredi,Jeudi,Vendredi,Samedi}","ministere_tutelle":"META"}},{"type":"Feature","id":"_mview_admi_etablissements_administration.fid--1b6ae3e2_1a0db278384_-381e","geometry":{"type":"Point","coordinates":[1.211445,6.1239]},"geometry_name":"geometry","properties":{"region_nom_bdd":"Maritime","prefecture_nom_bdd":"Golfe","commune_nom_bdd":"Golfe 4","canton_nom_bdd":"Amoutivé","nom_localite":"Quartier Administratif","etablissement_nom":"Direction des Examens, Concours et Certification (META/DECC)","etab_adr":"Direction des Examens, Concours et Certification (META/DECC), Quartier Administratif, Amoutivé, Golfe 4, BP4868 Lomé","ouverture_jour":"{lundi,Mardi,Mercredi,Jeudi,Vendredi}","ministere_tutelle":"META"}},{"type":"Feature","id":"_mview_admi_etablissements_administration.fid--1b6ae3e2_1a0db278384_-381d","geometry":{"type":"Point","coordinates":[1.157855,6.935835]},"geometry_name":"geometry","properties":{"region_nom_bdd":"Plateaux","prefecture_nom_bdd":"Haho","commune_nom_bdd":"Haho 1","canton_nom_bdd":"Notsé","nom_localite":"Wotsegbome(alinou)","etablissement_nom":"Centre Professionnel Mécanique Auto (CPMA)","etab_adr":"Centre Professionnel Mécanique Auto (CPMA), Wotsegbome(Alinou), Notsé, Haho 1","ouverture_jour":"{lundi,Mardi,Mercredi,Jeudi,Vendredi}","ministere_tutelle":"META"}},{"type":"Feature","id":"_mview_admi_etablissements_administration.fid--1b6ae3e2_1a0db278384_-381c","geometry":{"type":"Point","coordinates":[1.60342278,7.02257708]},"geometry_name":"geometry","properties":{"region_nom_bdd":"Plateaux","prefecture_nom_bdd":"Moyen-Mono","commune_nom_bdd":"Moyen-Mono 1","canton_nom_bdd":"Tohoun","nom_localite":"Nyekonakpoe","etablissement_nom":"Direction de la Cpma","etab_adr":"Direction de la Cpma, Nyekonakpoe, Tohoun, Moyen-Mono 1","ouverture_jour":"{lundi,Mardi,Mercredi,Jeudi,Vendredi}","ministere_tutelle":"META"}},{"type":"Feature","id":"_mview_admi_etablissements_administration.fid--1b6ae3e2_1a0db278384_-381b","geometry":{"type":"Point","coordinates":[1.213225,6.12220833]},"geometry_name":"geometry","properties":{"region_nom_bdd":"Maritime","prefecture_nom_bdd":"Golfe","commune_nom_bdd":"Golfe 4","canton_nom_bdd":"Amoutivé","nom_localite":"Quartier Administratif","etablissement_nom":"Direction des Statistiques de la Recherche et de la Planification (META/DSRP)","etab_adr":"Direction des Statistiques de la Recherche et de la Planification (META/DSRP), Quartier Administratif, Amoutivé, Golfe 4, 97BP12769 Lomé","ouverture_jour":"{lundi,Mercredi,Mardi,Jeudi,Vendredi}","ministere_tutelle":"META"}},{"type":"Feature","id":"_mview_admi_etablissements_administration.fid--1b6ae3e2_1a0db278384_-381a","geometry":{"type":"Point","coordinates":[1.21629705,6.18307808]},"geometry_name":"geometry","properties":{"region_nom_bdd":"Maritime","prefecture_nom_bdd":"Golfe","commune_nom_bdd":"Golfe 3","canton_nom_bdd":"Bè-Ouest","nom_localite":"Cité Oua","etablissement_nom":"Direction de l'Artisanat (META/DA)","etab_adr":"Direction de l'Artisanat (META/DA), Cité Oua, Bè-Ouest, Golfe 3, BP3008 Lomé","ouverture_jour":"{lundi,Mardi,Mercredi,Jeudi,Vendredi}","ministere_tutelle":"META"}},{"type":"Feature","id":"_mview_admi_etablissements_administration.fid--1b6ae3e2_1a0db278384_-3819","geometry":{"type":"Point","coordinates":[1.21172672,6.12355135]},"geometry_name":"geometry","properties":{"region_nom_bdd":"Maritime","prefecture_nom_bdd":"Golfe","commune_nom_bdd":"Golfe 4","canton_nom_bdd":"Amoutivé","nom_localite":"Quartier Administratif","etablissement_nom":"Secrétariat Permanent du Conseil Supérieur de l'Enseignement. Technique et de la Formation Professionnelle (SP/CSETFP)","etab_adr":"Secrétariat Permanent du Conseil Supérieur de l'Enseignement. Technique et de la Formation Professionnelle (SP/CSETFP), Quartier Administratif, Amoutivé, Golfe 4","ouverture_jour":"{lundi,Mardi,Mercredi,Jeudi,Vendredi}","ministere_tutelle":"META"}},{"type":"Feature","id":"_mview_admi_etablissements_administration.fid--1b6ae3e2_1a0db278384_-3818","geometry":{"type":"Point","coordinates":[1.20366774,6.16026141]},"geometry_name":"geometry","properties":{"region_nom_bdd":"Maritime","prefecture_nom_bdd":"Golfe","commune_nom_bdd":"Golfe 4","canton_nom_bdd":"Amoutivé","nom_localite":"Tokoin Casablanca","etablissement_nom":"Union des Chambres Régionales de Métiers (UCRM) du Togo","etab_adr":"Union des Chambres Régionales de Métiers (UCRM) du Togo, Tokoin Casablanca, Amoutivé, Golfe 4, 22BP382 Lomé","ouverture_jour":"{lundi,Mardi,Mercredi,Jeudi,Vendredi}","ministere_tutelle":"META"}},{"type":"Feature","id":"_mview_admi_etablissements_administration.fid--1b6ae3e2_1a0db278384_-3817","geometry":{"type":"Point","coordinates":[1.21890468,6.12827072]},"geometry_name":"geometry","properties":{"region_nom_bdd":"Maritime","prefecture_nom_bdd":"Golfe","commune_nom_bdd":"Golfe 4","canton_nom_bdd":"Amoutivé","nom_localite":"Nsp","etablissement_nom":"Direction des Affaires Financières (META/DAF)","etab_adr":"Nsp","ouverture_jour":"Nsp","ministere_tutelle":"META"}},{"type":"Feature","id":"_mview_admi_etablissements_administration.fid--1b6ae3e2_1a0db278384_-3816","geometry":{"type":"Point","coordinates":[1.14717201,7.53420196]},"geometry_name":"geometry","properties":{"region_nom_bdd":"Plateaux","prefecture_nom_bdd":"Ogou","commune_nom_bdd":"Ogou 1","canton_nom_bdd":"Djama","nom_localite":"Sada","etablissement_nom":"Inspection de l'Enseignement Technique et de la Formation Professionnelle (IESTFP-P) - Région Plateaux Est","etab_adr":"Inspection de l'Enseignement Technique et de la Formation Professionnelle (IESTFP) - Région Plateaux Est, Sada, Djama, Ogou 1","ouverture_jour":"{lundi,Mardi,Mercredi,Jeudi,Vendredi}","ministere_tutelle":"META"}},{"type":"Feature","id":"_mview_admi_etablissements_administration.fid--1b6ae3e2_1a0db278384_-3815","geometry":{"type":"Point","coordinates":[1.21887923,6.12828599]},"geometry_name":"geometry","properties":{"region_nom_bdd":"Maritime","prefecture_nom_bdd":"Golfe","commune_nom_bdd":"Golfe 4","canton_nom_bdd":"Amoutivé","nom_localite":"Nsp","etablissement_nom":"Direction des Ressources Humaines (META/DRH)","etab_adr":"Nsp","ouverture_jour":"Nsp","ministere_tutelle":"META"}},{"type":"Feature","id":"_mview_admi_etablissements_administration.fid--1b6ae3e2_1a0db278384_-3814","geometry":{"type":"Point","coordinates":[1.21885653,6.12823512]},"geometry_name":"geometry","properties":{"region_nom_bdd":"Maritime","prefecture_nom_bdd":"Golfe","commune_nom_bdd":"Golfe 4","canton_nom_bdd":"Amoutivé","nom_localite":"Nsp","etablissement_nom":"Ministère chargé de l'Enseignement Technique et de l'Artisanat (META)","etab_adr":"Ministère chargé de l'Enseignement Technique et de l'Artisanat (META), , Amoutivé, Golfe 4","ouverture_jour":"Nsp","ministere_tutelle":"META"}},{"type":"Feature","id":"_mview_admi_etablissements_administration.fid--1b6ae3e2_1a0db278384_-3813","geometry":{"type":"Point","coordinates":[0.19492833,10.88159833]},"geometry_name":"geometry","properties":{"region_nom_bdd":"Savanes","prefecture_nom_bdd":"Tône","commune_nom_bdd":"Tône 1","canton_nom_bdd":"Dapaong","nom_localite":"Dapaong","etablissement_nom":"Inspection de l'Enseignement Technique et de la Formation Professionnelle (IESTFP-S) - Région Savanes","etab_adr":"Nsp","ouverture_jour":"{Jeudi,Mardi,Samedi,Mercredi,Vendredi}","ministere_tutelle":"META"}},{"type":"Feature","id":"_mview_admi_etablissements_administration.fid--1b6ae3e2_1a0db278384_-3812","geometry":{"type":"Point","coordinates":[1.189025,9.54786167]},"geometry_name":"geometry","properties":{"region_nom_bdd":"Kara","prefecture_nom_bdd":"Kozah","commune_nom_bdd":"Kozah 1","canton_nom_bdd":"Commune De Kara","nom_localite":"Kara","etablissement_nom":"Inspection de l'Enseignement Technique et de la Formation Professionnelle (IESTFP-K) - Région Kara","etab_adr":"Néant","ouverture_jour":"{Jeudi,Mardi,Mercredi,Vendredi,lundi}","ministere_tutelle":"META"}},{"type":"Feature","id":"_mview_admi_etablissements_administration.fid--1b6ae3e2_1a0db278384_-3811","geometry":{"type":"Point","coordinates":[1.23498,6.15273667]},"geometry_name":"geometry","properties":{"region_nom_bdd":"Maritime","prefecture_nom_bdd":"Golfe","commune_nom_bdd":"Golfe 2","canton_nom_bdd":"Bè-Centre","nom_localite":"Nukafu","etablissement_nom":"Inspection de l'Enseignement Technique et de la Formation Professionnelle (IESTFP-M) - Région Maritime","etab_adr":"Nsp","ouverture_jour":"{Jeudi,Mardi,Mercredi,Vendredi,lundi}","ministere_tutelle":"META"}},{"type":"Feature","id":"_mview_admi_etablissements_administration.fid--1b6ae3e2_1a0db278384_-3810","geometry":{"type":"Point","coordinates":[1.23496526,6.17220938]},"geometry_name":"geometry","properties":{"region_nom_bdd":"Maritime","prefecture_nom_bdd":"Golfe","commune_nom_bdd":"Golfe 2","canton_nom_bdd":"Bè-Centre","nom_localite":"Novissi","etablissement_nom":"Inspection de l'Enseignement Technique et de la Formation Professionnelle Lome-Commune","etab_adr":"Nsp","ouverture_jour":"{Jeudi,Mardi,Mercredi,Vendredi,lundi}","ministere_tutelle":"META"}},{"type":"Feature","id":"_mview_admi_etablissements_administration.fid--1b6ae3e2_1a0db278384_-380f","geometry":{"type":"Point","coordinates":[1.1900877,6.1759945]},"geometry_name":"geometry","properties":{"region_nom_bdd":"Maritime","prefecture_nom_bdd":"Golfe","commune_nom_bdd":"Golfe 5","canton_nom_bdd":"Aflao-Gakli","nom_localite":"Avenou","etablissement_nom":"Fonds National d'Apprentissage, de la Formation et de Perfectionnement Professionnels (FNAFPP)","etab_adr":"N/a","ouverture_jour":"{Jeudi,Mardi,Mercredi,Vendredi,lundi}","ministere_tutelle":"META"}},{"type":"Feature","id":"_mview_admi_etablissements_administration.fid--1b6ae3e2_1a0db278384_-380e","geometry":{"type":"Point","coordinates":[1.39105294,6.18595693]},"geometry_name":"geometry","properties":{"region_nom_bdd":"Maritime","prefecture_nom_bdd":"Lacs","commune_nom_bdd":"Lacs 3","canton_nom_bdd":"Gbodjomé","nom_localite":"Kpogan-agbetiko","etablissement_nom":"Institut Supérieur Bilingue Libre du Togo","etab_adr":"N/a","ouverture_jour":"{Jeudi,lundi,Mercredi,Samedi,Mardi}","ministere_tutelle":"META"}},{"type":"Feature","id":"_mview_admi_etablissements_administration.fid--1b6ae3e2_1a0db278384_-380d","geometry":{"type":"Point","coordinates":[0.21365667,10.86213]},"geometry_name":"geometry","properties":{"region_nom_bdd":"Savanes","prefecture_nom_bdd":"Tône","commune_nom_bdd":"Tône 1","canton_nom_bdd":"Dapaong","nom_localite":"Kporgou","etablissement_nom":"Centre des Métiers de Dapaong Bonita Haus","etab_adr":"Nsp","ouverture_jour":"{Jeudi,Mardi,Mercredi,Vendredi,lundi}","ministere_tutelle":"META"}},{"type":"Feature","id":"_mview_admi_etablissements_administration.fid--1b6ae3e2_1a0db278384_-380c","geometry":{"type":"Point","coordinates":[1.21180322,6.12358885]},"geometry_name":"geometry","properties":{"region_nom_bdd":"Maritime","prefecture_nom_bdd":"Golfe","commune_nom_bdd":"Golfe 4","canton_nom_bdd":"Amoutivé","nom_localite":"Nsp","etablissement_nom":"Conseil Supérieur de l'Enseignement Technique et de la Formation Professionnelle (CSETFP)","etab_adr":"Nsp","ouverture_jour":"{Jeudi,Mardi,Mercredi,Vendredi,lundi}","ministere_tutelle":"META"}},{"type":"Feature","id":"_mview_admi_etablissements_administration.fid--1b6ae3e2_1a0db278384_-380b","geometry":{"type":"Point","coordinates":[1.21888438,6.12819742]},"geometry_name":"geometry","properties":{"region_nom_bdd":"Maritime","prefecture_nom_bdd":"Golfe","commune_nom_bdd":"Golfe 4","canton_nom_bdd":"Amoutivé","nom_localite":"Nsp","etablissement_nom":"Direction de l’Enseignement Secondaire Technique (META/DEST)","etab_adr":"Nsp","ouverture_jour":"Nsp","ministere_tutelle":"META"}},{"type":"Feature","id":"_mview_admi_etablissements_administration.fid--1b6ae3e2_1a0db278384_-380a","geometry":{"type":"Point","coordinates":[1.21877941,6.12829655]},"geometry_name":"geometry","properties":{"region_nom_bdd":"Maritime","prefecture_nom_bdd":"Golfe","commune_nom_bdd":"Golfe 4","canton_nom_bdd":"Amoutivé","nom_localite":"Nsp","etablissement_nom":"Direction de la Formation Professionnel et de l’Apprentissage (META/DFPA)","etab_adr":"Nsp","ouverture_jour":"Nsp","ministere_tutelle":"META"}},{"type":"Feature","id":"_mview_admi_etablissements_administration.fid--1b6ae3e2_1a0db278384_-3809","geometry":{"type":"Point","coordinates":[1.21885377,6.12829108]},"geometry_name":"geometry","properties":{"region_nom_bdd":"Maritime","prefecture_nom_bdd":"Golfe","commune_nom_bdd":"Golfe 4","canton_nom_bdd":"Amoutivé","nom_localite":"Nsp","etablissement_nom":"Direction de la Pédagogie et des Programmes (META/DPP)","etab_adr":"Nsp","ouverture_jour":"Nsp","ministere_tutelle":"META"}}],"totalFeatures":38,"numberMatched":38,"numberReturned":38,"timeStamp":"2026-09-26T00:40:38.005Z","crs":{"type":"name","properties":{"name":"urn:ogc:def:crs:EPSG::4326"}}}