{"type":"FeatureCollection","features":[{"type":"Feature","id":"_mview_admi_etablissements_administration.fid--1b6ae3e2_1a0db278384_-37e9","geometry":{"type":"Point","coordinates":[1.13505788,8.97256919]},"geometry_name":"geometry","properties":{"region_nom_bdd":"Centrale","prefecture_nom_bdd":"Tchaoudjo","commune_nom_bdd":"Tchaoudjo 1","canton_nom_bdd":"Sokodè (Komah)","nom_localite":"N/a","etablissement_nom":"Institut National de la Statistique et des etudes Economiques et démographiques (INSEED) - Direction régionale Centrale","etab_adr":"N/a","ouverture_jour":"N/a","ministere_tutelle":"MPDC"}},{"type":"Feature","id":"_mview_admi_etablissements_administration.fid--1b6ae3e2_1a0db278384_-37e8","geometry":{"type":"Point","coordinates":[1.21737217,6.12587078]},"geometry_name":"geometry","properties":{"region_nom_bdd":"Maritime","prefecture_nom_bdd":"Golfe","commune_nom_bdd":"Golfe 4","canton_nom_bdd":"Amoutivé","nom_localite":"Amoutive","etablissement_nom":"Organisation Mondiale de la Santé - Administration","etab_adr":"Quartier administratif","ouverture_jour":"N/a","ministere_tutelle":"MPDC"}},{"type":"Feature","id":"_mview_admi_etablissements_administration.fid--1b6ae3e2_1a0db278384_-37e7","geometry":{"type":"Point","coordinates":[1.13710333,7.52436]},"geometry_name":"geometry","properties":{"region_nom_bdd":"Plateaux","prefecture_nom_bdd":"Ogou","commune_nom_bdd":"Ogou 1","canton_nom_bdd":"Gnagna","nom_localite":"Nyekonakpoe","etablissement_nom":"Ministère auprès du Président de la République chargé de la Planification du Développement et de la Coopération (MPDC)","etab_adr":"Ministère auprès du Président de la République chargé de la Planification du Développement et de la Coopération (MPDC), Nyekonakpoe, Gnagna, Ogou 1, BP312 Atakpame","ouverture_jour":"{lundi,Mardi,Mercredi,Jeudi,Vendredi}","ministere_tutelle":"MPDC"}},{"type":"Feature","id":"_mview_admi_etablissements_administration.fid--1b6ae3e2_1a0db278384_-37e6","geometry":{"type":"Point","coordinates":[0.19948524,10.84591498]},"geometry_name":"geometry","properties":{"region_nom_bdd":"Savanes","prefecture_nom_bdd":"Tône","commune_nom_bdd":"Tône 1","canton_nom_bdd":"Dapaong","nom_localite":"Worgou","etablissement_nom":"Direction Régionale de la Planification, du Développement et de l'Aménagement du Territoire (DRPDAT-S) - Région Savanes","etab_adr":"Direction Régionale de la Planification, du Développement et de l'Aménagement du Territoire (DRPDAT-S) - Région Savanes, Worgou, Dapaong, Tône 1, BP04","ouverture_jour":"{lundi,Mardi,Mercredi,Jeudi,Vendredi}","ministere_tutelle":"MPDC"}},{"type":"Feature","id":"_mview_admi_etablissements_administration.fid--1b6ae3e2_1a0db278384_-37e5","geometry":{"type":"Point","coordinates":[1.2065874,6.40659497]},"geometry_name":"geometry","properties":{"region_nom_bdd":"Maritime","prefecture_nom_bdd":"Zio","commune_nom_bdd":"Zio 1","canton_nom_bdd":"Tsévié","nom_localite":"Daviemondji","etablissement_nom":"Institut National de la Statistique et des etudes Economiques et démographiques (INSEED) - Direction régionale Maritime","etab_adr":"Institut National de la Statistique et des etudes Economiques et démographiques (INSEED) - Direction régionale Maritime, Daviemondji, Tsévié, Zio 1, 160BP207 Tsevie","ouverture_jour":"{lundi,Mardi,Mercredi,Jeudi,Vendredi}","ministere_tutelle":"MPDC"}},{"type":"Feature","id":"_mview_admi_etablissements_administration.fid--1b6ae3e2_1a0db278384_-37e4","geometry":{"type":"Point","coordinates":[1.14226595,7.52309188]},"geometry_name":"geometry","properties":{"region_nom_bdd":"Plateaux","prefecture_nom_bdd":"Ogou","commune_nom_bdd":"Ogou 1","canton_nom_bdd":"Gnagna","nom_localite":"Nsp","etablissement_nom":"Direction Régionale de la Croix Rouge Togolaise - Plateaux","etab_adr":"Direction Régionale de la Croix Rouge Togolaise - Plateaux, , Gnagna, Ogou 1, BP342 Atakpame","ouverture_jour":"{lundi,Mardi,Mercredi,Jeudi,Vendredi}","ministere_tutelle":"MPDC"}},{"type":"Feature","id":"_mview_admi_etablissements_administration.fid--1b6ae3e2_1a0db278384_-37e3","geometry":{"type":"Point","coordinates":[1.12988839,7.52658311]},"geometry_name":"geometry","properties":{"region_nom_bdd":"Plateaux","prefecture_nom_bdd":"Ogou","commune_nom_bdd":"Ogou 1","canton_nom_bdd":"Gnagna","nom_localite":"Netime","etablissement_nom":"Conseil des ONG et Associations de Développement de la Region des Plateaux (COADEP)","etab_adr":"Conseil des ONG et Associations de Développement de la Region des Plateaux (COADEP), Rue Illochou, Quartier Gnagna-Netime, Netime, Gnagna, Ogou 1, BP370 Atakpame","ouverture_jour":"{lundi,Mardi,Mercredi,Jeudi,Vendredi}","ministere_tutelle":"MPDC"}},{"type":"Feature","id":"_mview_admi_etablissements_administration.fid--1b6ae3e2_1a0db278384_-37e2","geometry":{"type":"Point","coordinates":[1.13715293,7.52434145]},"geometry_name":"geometry","properties":{"region_nom_bdd":"Plateaux","prefecture_nom_bdd":"Ogou","commune_nom_bdd":"Ogou 1","canton_nom_bdd":"Gnagna","nom_localite":"Nsp","etablissement_nom":"Institut National de la Statistique et des etudes Economiques et démographiques (INSEED) - Direction régionale Plateaux","etab_adr":"Institut National de la Statistique et des etudes Economiques et démographiques (INSEED) - Direction régionale Plateaux, , Gnagna, Ogou 1","ouverture_jour":"{lundi,Mardi,Mercredi,Jeudi,Vendredi}","ministere_tutelle":"MPDC"}},{"type":"Feature","id":"_mview_admi_etablissements_administration.fid--1b6ae3e2_1a0db278384_-37e1","geometry":{"type":"Point","coordinates":[1.13340601,8.98800066]},"geometry_name":"geometry","properties":{"region_nom_bdd":"Centrale","prefecture_nom_bdd":"Tchaoudjo","commune_nom_bdd":"Tchaoudjo 1","canton_nom_bdd":"Sokodè (Komah)","nom_localite":"Tchandana","etablissement_nom":"Institut National de la Statistique et des etudes Economiques et démographiques (INSEED) - Direction régionale Centrale","etab_adr":"Institut National de la Statistique et des etudes Economiques et démographiques (INSEED) - Direction régionale Centrale, Tchandana, Sokodè (Komah), Tchaoudjo 1, BP105 Sokode","ouverture_jour":"{lundi,Mardi,Mercredi,Jeudi,Vendredi}","ministere_tutelle":"MPDC"}},{"type":"Feature","id":"_mview_admi_etablissements_administration.fid--1b6ae3e2_1a0db278384_-37e0","geometry":{"type":"Point","coordinates":[1.20649548,6.40650311]},"geometry_name":"geometry","properties":{"region_nom_bdd":"Maritime","prefecture_nom_bdd":"Zio","commune_nom_bdd":"Zio 1","canton_nom_bdd":"Tsévié","nom_localite":"Daviemondji","etablissement_nom":"Direction Régionale de la Planification, du Développement et de l'Aménagement du Territoire (DRPDAT-M) - Région Maritime","etab_adr":"Direction Régionale de la Planification, du Développement et de l'Aménagement du Territoire (DRPDAT-M) - Région Maritime, Daviemondji, Tsévié, Zio 1, 160BP60 Tsevie","ouverture_jour":"{lundi,Mardi,Mercredi,Jeudi,Vendredi}","ministere_tutelle":"MPDC"}},{"type":"Feature","id":"_mview_admi_etablissements_administration.fid--1b6ae3e2_1a0db278384_-37df","geometry":{"type":"Point","coordinates":[1.13794667,7.52365833]},"geometry_name":"geometry","properties":{"region_nom_bdd":"Plateaux","prefecture_nom_bdd":"Ogou","commune_nom_bdd":"Ogou 1","canton_nom_bdd":"Gnagna","nom_localite":"Nyekonakpoe","etablissement_nom":"Direction Régionale de la Planification, du Développement et de l'Aménagement du Territoire (DRPDAT-P) - Région Plateaux","etab_adr":"Direction Régionale de la Planification, du Développement et de l'Aménagement du Territoire (DRPDAT-P) - Région Plateaux, Nyekonakpoe, Gnagna, Ogou 1, BP270 Atakpame","ouverture_jour":"{lundi,Mardi,Mercredi,Jeudi,Vendredi}","ministere_tutelle":"MPDC"}},{"type":"Feature","id":"_mview_admi_etablissements_administration.fid--1b6ae3e2_1a0db278384_-37de","geometry":{"type":"Point","coordinates":[1.21036881,6.12568875]},"geometry_name":"geometry","properties":{"region_nom_bdd":"Maritime","prefecture_nom_bdd":"Golfe","commune_nom_bdd":"Golfe 4","canton_nom_bdd":"Amoutivé","nom_localite":"Quartier Administratif","etablissement_nom":"Centre National d'Etude et de Traitements Informatiques (CENETI)","etab_adr":"Quartier administratif, 15 Rue de la Kozah, Immeuble CENETI 1er étage, 07 BP 7335 E-mail ceneti@yahoo.fr, Lomé","ouverture_jour":"{lundi,Mardi,Mercredi,Jeudi,Vendredi}","ministere_tutelle":"MPDC"}},{"type":"Feature","id":"_mview_admi_etablissements_administration.fid--1b6ae3e2_1a0db278384_-37dd","geometry":{"type":"Point","coordinates":[0.19979667,10.84564833]},"geometry_name":"geometry","properties":{"region_nom_bdd":"Savanes","prefecture_nom_bdd":"Tône","commune_nom_bdd":"Tône 1","canton_nom_bdd":"Dapaong","nom_localite":"Worgou","etablissement_nom":"Institut National de la Statistique et des etudes Economiques et démographiques (INSEED) - Direction régionale Savanes","etab_adr":"Institut National de la Statistique et des etudes Economiques et démographiques (INSEED) - Direction régionale Savanes, Worgou, Dapaong, Tône 1, BP154","ouverture_jour":"{lundi,Mardi,Mercredi,Jeudi,Vendredi}","ministere_tutelle":"MPDC"}},{"type":"Feature","id":"_mview_admi_etablissements_administration.fid--1b6ae3e2_1a0db278384_-37dc","geometry":{"type":"Point","coordinates":[1.21763861,6.12828837]},"geometry_name":"geometry","properties":{"region_nom_bdd":"Maritime","prefecture_nom_bdd":"Golfe","commune_nom_bdd":"Golfe 4","canton_nom_bdd":"Amoutivé","nom_localite":"Quartier Administratif","etablissement_nom":"Direction Générale de la Planification et du Développement (MPDC/DGPD)","etab_adr":"Direction Générale de la Planification et du Développement (MPDC/DGPN), Quartier Administratif, Amoutivé, Golfe 4, BP1667 Lomé","ouverture_jour":"{lundi,Mardi,Mercredi,Jeudi,Vendredi}","ministere_tutelle":"MPDC"}},{"type":"Feature","id":"_mview_admi_etablissements_administration.fid--1b6ae3e2_1a0db278384_-37db","geometry":{"type":"Point","coordinates":[1.18324833,9.56380333]},"geometry_name":"geometry","properties":{"region_nom_bdd":"Kara","prefecture_nom_bdd":"Kozah","commune_nom_bdd":"Kozah 1","canton_nom_bdd":"Commune De Kara","nom_localite":"Kpimboua","etablissement_nom":"Direction Régionale de la Planification, du Développement et de l'Aménagement du Territoire (DRPDAT-K) - Région Kara","etab_adr":"Direction Régionale de la Planification, du Développement et de l'Aménagement du Territoire (DRPDAT-K) - Région Kara, Kpimboua, Commune De Kara, Kozah 1, BP104 Kara","ouverture_jour":"{lundi,Mardi,Mercredi,Jeudi,Vendredi}","ministere_tutelle":"MPDC"}},{"type":"Feature","id":"_mview_admi_etablissements_administration.fid--1b6ae3e2_1a0db278384_-37da","geometry":{"type":"Point","coordinates":[1.18304667,9.563945]},"geometry_name":"geometry","properties":{"region_nom_bdd":"Kara","prefecture_nom_bdd":"Kozah","commune_nom_bdd":"Kozah 1","canton_nom_bdd":"Commune De Kara","nom_localite":"Kpimboua","etablissement_nom":"Institut National de la Statistique et des etudes Economiques et démographiques (INSEED) - Direction régionale Kara","etab_adr":"Institut National de la Statistique et des etudes Economiques et démographiques (INSEED) - Direction régionale Kara, Kpimboua, Commune De Kara, Kozah 1, BP118 Kara","ouverture_jour":"{lundi,Mardi,Mercredi,Jeudi,Vendredi}","ministere_tutelle":"MPDC"}},{"type":"Feature","id":"_mview_admi_etablissements_administration.fid--1b6ae3e2_1a0db278384_-37d9","geometry":{"type":"Point","coordinates":[1.21763951,6.12830385]},"geometry_name":"geometry","properties":{"region_nom_bdd":"Maritime","prefecture_nom_bdd":"Golfe","commune_nom_bdd":"Golfe 4","canton_nom_bdd":"Amoutivé","nom_localite":"Quartier Administratif","etablissement_nom":"Direction Générale de la Mobilisation de l'Aide et du Partenariat (MPDC/DGMAP)","etab_adr":"Direction Générale de la Mobilisation de l'Aide et du Partenariat (MPDC/DGMAP), Quartier Administratif, Amoutivé, Golfe 4, BP1667 Lomé","ouverture_jour":"{lundi,Mardi,Mercredi,Jeudi,Vendredi}","ministere_tutelle":"MPDC"}},{"type":"Feature","id":"_mview_admi_etablissements_administration.fid--1b6ae3e2_1a0db278384_-37d8","geometry":{"type":"Point","coordinates":[1.21689391,6.12486986]},"geometry_name":"geometry","properties":{"region_nom_bdd":"Maritime","prefecture_nom_bdd":"Golfe","commune_nom_bdd":"Golfe 4","canton_nom_bdd":"Amoutivé","nom_localite":"Quartier Administratif","etablissement_nom":"Bureau National de l'Organisation des Nations Unies Pour le développement (PNUD)","etab_adr":"Bureau National de l'Organisation des Nations Unies Pour le développement (PNUD), Quartier Administratif, Amoutivé, Golfe 4","ouverture_jour":"Nsp","ministere_tutelle":"MPDC"}},{"type":"Feature","id":"_mview_admi_etablissements_administration.fid--1b6ae3e2_1a0db278384_-37d7","geometry":{"type":"Point","coordinates":[1.21721501,6.12829662]},"geometry_name":"geometry","properties":{"region_nom_bdd":"Maritime","prefecture_nom_bdd":"Golfe","commune_nom_bdd":"Golfe 4","canton_nom_bdd":"Amoutivé","nom_localite":"Nyekonakpoe","etablissement_nom":"Cellule D'Appui à l'Ordonnateur National du Fond Europeen de Développement (COFED)","etab_adr":"Cellule D'Appui à l'Ordonnateur National du Fond Europeen de Développement (COFED), Nyekonakpoe, Amoutivé, Golfe 4","ouverture_jour":"Nsp","ministere_tutelle":"MPDC"}},{"type":"Feature","id":"_mview_admi_etablissements_administration.fid--1b6ae3e2_1a0db278384_-37d6","geometry":{"type":"Point","coordinates":[1.22461051,6.16184798]},"geometry_name":"geometry","properties":{"region_nom_bdd":"Maritime","prefecture_nom_bdd":"Golfe","commune_nom_bdd":"Golfe 3","canton_nom_bdd":"Bè-Ouest","nom_localite":"Witi","etablissement_nom":"Fonds des Nations Unies pour la Population (UNFPA)","etab_adr":"Fonds des Nations Unies pour la Population (UNFPA), Witi, Bè-Ouest, Golfe 3","ouverture_jour":"{lundi,Mardi,Mercredi,Jeudi,Vendredi}","ministere_tutelle":"MPDC"}},{"type":"Feature","id":"_mview_admi_etablissements_administration.fid--1b6ae3e2_1a0db278384_-37d5","geometry":{"type":"Point","coordinates":[1.2326041,6.15212396]},"geometry_name":"geometry","properties":{"region_nom_bdd":"Maritime","prefecture_nom_bdd":"Golfe","commune_nom_bdd":"Golfe 2","canton_nom_bdd":"Bè-Centre","nom_localite":"Nsp","etablissement_nom":"Haut Commissariat des Nations unies pour les réfugiés (UNHCR)","etab_adr":"Haut Commissariat des Nations unies pour les réfugiés (UNHCR), , Bè-Centre, Golfe 2, BP911 Lomé","ouverture_jour":"{lundi,Mardi,Mercredi,Jeudi,Vendredi}","ministere_tutelle":"MPDC"}},{"type":"Feature","id":"_mview_admi_etablissements_administration.fid--1b6ae3e2_1a0db278384_-37d4","geometry":{"type":"Point","coordinates":[1.21498873,6.12509456]},"geometry_name":"geometry","properties":{"region_nom_bdd":"Maritime","prefecture_nom_bdd":"Golfe","commune_nom_bdd":"Golfe 4","canton_nom_bdd":"Amoutivé","nom_localite":"Quartier Administratif","etablissement_nom":"Agence Française de Développement (AFD)","etab_adr":"Agence Française de Développement (AFD), Avenue Sarakawa, Quartier Administratif, Amoutivé, Golfe 4, BP437 Lomé","ouverture_jour":"{Vendredi,Jeudi,Mercredi,Mardi,lundi}","ministere_tutelle":"MPDC"}},{"type":"Feature","id":"_mview_admi_etablissements_administration.fid--1b6ae3e2_1a0db278384_-37d3","geometry":{"type":"Point","coordinates":[0.19976333,10.84588167]},"geometry_name":"geometry","properties":{"region_nom_bdd":"Savanes","prefecture_nom_bdd":"Tône","commune_nom_bdd":"Tône 1","canton_nom_bdd":"Dapaong","nom_localite":"Dapaong","etablissement_nom":"Institut National de la Statistique et des Etudes Economiques et Demographiques (INSEED) Dapaong","etab_adr":"BP:154 DAPAONG-LOME","ouverture_jour":"{Jeudi,Mardi,Samedi,Mercredi,Vendredi}","ministere_tutelle":"MPDC"}},{"type":"Feature","id":"_mview_admi_etablissements_administration.fid--1b6ae3e2_1a0db278384_-37d2","geometry":{"type":"Point","coordinates":[1.21761506,6.12820853]},"geometry_name":"geometry","properties":{"region_nom_bdd":"Maritime","prefecture_nom_bdd":"Golfe","commune_nom_bdd":"Golfe 4","canton_nom_bdd":"Amoutivé","nom_localite":"Quartier Administratif","etablissement_nom":"Cellule d'Appui à l'ordonnateur National du FED (CAON)","etab_adr":"Quartier administratif, immeuble Casef","ouverture_jour":"{Jeudi,Mardi,Mercredi,Vendredi,lundi}","ministere_tutelle":"MPDC"}},{"type":"Feature","id":"_mview_admi_etablissements_administration.fid--1b6ae3e2_1a0db278384_-37d1","geometry":{"type":"Point","coordinates":[1.13128433,8.96947694]},"geometry_name":"geometry","properties":{"region_nom_bdd":"Centrale","prefecture_nom_bdd":"Tchaoudjo","commune_nom_bdd":"Tchaoudjo 1","canton_nom_bdd":"Sokodè (Komah)","nom_localite":"Komah","etablissement_nom":"Direction Régionale de la Planification, du Développement et de l'Aménagement du Territoire (DRPDAT-P) - Région Centrale","etab_adr":"B.P:105 sokodé","ouverture_jour":"{Jeudi,Mardi,Mercredi,Vendredi,lundi}","ministere_tutelle":"MPDC"}},{"type":"Feature","id":"_mview_admi_etablissements_administration.fid--1b6ae3e2_1a0db278384_-37d0","geometry":{"type":"Point","coordinates":[1.22861696,6.1688995]},"geometry_name":"geometry","properties":{"region_nom_bdd":"Maritime","prefecture_nom_bdd":"Golfe","commune_nom_bdd":"Golfe 3","canton_nom_bdd":"Bè-Ouest","nom_localite":"Novissi","etablissement_nom":"Centre Autonome d’Etudes et de Renforcement des Capacités pour le Développement au Togo (CADERDT)","etab_adr":"Quartier Novissi, Non loin du supermarché Champion","ouverture_jour":"{Jeudi,Mardi,Mercredi,Vendredi,lundi}","ministere_tutelle":"MPDC"}}],"totalFeatures":26,"numberMatched":26,"numberReturned":26,"timeStamp":"2026-09-26T00:40:42.797Z","crs":{"type":"name","properties":{"name":"urn:ogc:def:crs:EPSG::4326"}}}