{"type":"FeatureCollection","features":[{"type":"Feature","id":"_mview_admi_etablissements_administration.fid--1b6ae3e2_1a0db278384_-3808","geometry":{"type":"Point","coordinates":[0.20023015,10.86878245]},"geometry_name":"geometry","properties":{"region_nom_bdd":"Savanes","prefecture_nom_bdd":"Tône","commune_nom_bdd":"Tône 1","canton_nom_bdd":"Dapaong","nom_localite":"Kpegui","etablissement_nom":"Agence de la Délégation à l'Organisation du Secteur Informel (DOSI) - Région Savanes","etab_adr":"Agence de la Délégation à l'Organisation du Secteur Informel (DOSI) - Région Savanes, Kpegui, Dapaong, Tône 1","ouverture_jour":"{lundi,Mardi,Mercredi,Jeudi,Vendredi}","ministere_tutelle":"MIFSI"}},{"type":"Feature","id":"_mview_admi_etablissements_administration.fid--1b6ae3e2_1a0db278384_-3807","geometry":{"type":"Point","coordinates":[1.20955985,6.41352196]},"geometry_name":"geometry","properties":{"region_nom_bdd":"Maritime","prefecture_nom_bdd":"Zio","commune_nom_bdd":"Zio 1","canton_nom_bdd":"Tsévié","nom_localite":"Daviemondji","etablissement_nom":"Agence de la Délégation à l'Organisation du Secteur Informel (DOSI) - Région Maritime","etab_adr":"Agence de la Délégation à l'Organisation du Secteur Informel (DOSI) - Région Maritime, Daviemondji, Tsévié, Zio 1, BP2298 Lomé","ouverture_jour":"{lundi,Mardi,Mercredi,Jeudi,Vendredi}","ministere_tutelle":"MIFSI"}},{"type":"Feature","id":"_mview_admi_etablissements_administration.fid--1b6ae3e2_1a0db278384_-3806","geometry":{"type":"Point","coordinates":[1.14228394,7.51940248]},"geometry_name":"geometry","properties":{"region_nom_bdd":"Plateaux","prefecture_nom_bdd":"Ogou","commune_nom_bdd":"Ogou 1","canton_nom_bdd":"Gnagna","nom_localite":"Quartier Des Étoiles","etablissement_nom":"Agence de la Délégation à l'Organisation du Secteur Informel (DOSI) - Region Plateaux Est/Atakpamé","etab_adr":"Agence de la Délégation à l'Organisation du Secteur Informel (DOSI) - Region Plateaux Est/Atakpamé, Quartier des Étoiles, Gnagna, Ogou 1","ouverture_jour":"{lundi,Mardi,Mercredi,Jeudi,Vendredi}","ministere_tutelle":"MIFSI"}},{"type":"Feature","id":"_mview_admi_etablissements_administration.fid--1b6ae3e2_1a0db278384_-3805","geometry":{"type":"Point","coordinates":[0.72044167,6.84627333]},"geometry_name":"geometry","properties":{"region_nom_bdd":"Plateaux","prefecture_nom_bdd":"Agou","commune_nom_bdd":"Agou 1","canton_nom_bdd":"Agou-Tavié","nom_localite":"Agou","etablissement_nom":"Agence de la délégation a l'organisation du secteur informel (DOSI)-Region Plateaux Ouest","etab_adr":"Néant","ouverture_jour":"Nsp","ministere_tutelle":"MIFSI"}},{"type":"Feature","id":"_mview_admi_etablissements_administration.fid--1b6ae3e2_1a0db278384_-3804","geometry":{"type":"Point","coordinates":[1.22290838,6.16809558]},"geometry_name":"geometry","properties":{"region_nom_bdd":"Maritime","prefecture_nom_bdd":"Golfe","commune_nom_bdd":"Golfe 3","canton_nom_bdd":"Bè-Ouest","nom_localite":"Nsp","etablissement_nom":"Ministère chargé de l'Inclusion Financière et de l'Organisation du Secteur Informel (MIFSI)","etab_adr":"Ministère chargé de l'Inclusion Financière et de l'Organisation du Secteur Informel (MIFSI), , Bè-Ouest, Golfe 3","ouverture_jour":"{lundi,Mercredi,Jeudi,Vendredi,Mardi}","ministere_tutelle":"MIFSI"}},{"type":"Feature","id":"_mview_admi_etablissements_administration.fid--1b6ae3e2_1a0db278384_-3803","geometry":{"type":"Point","coordinates":[1.13703667,9.00985333]},"geometry_name":"geometry","properties":{"region_nom_bdd":"Centrale","prefecture_nom_bdd":"Tchaoudjo","commune_nom_bdd":"Tchaoudjo 1","canton_nom_bdd":"Kpangalam","nom_localite":"Kedia","etablissement_nom":"Agence de la Délégation à l'Organisation du Secteur Informel (DOSI) - Région Centrale","etab_adr":"Agence de la Délégation à l'Organisation du Secteur Informel (DOSI) - Région Centrale, Kedia, Kpangalam, Tchaoudjo 1","ouverture_jour":"{lundi,Mardi,Mercredi,Vendredi,Jeudi}","ministere_tutelle":"MIFSI"}},{"type":"Feature","id":"_mview_admi_etablissements_administration.fid--1b6ae3e2_1a0db278384_-3802","geometry":{"type":"Point","coordinates":[1.22475979,6.17374082]},"geometry_name":"geometry","properties":{"region_nom_bdd":"Maritime","prefecture_nom_bdd":"Golfe","commune_nom_bdd":"Golfe 3","canton_nom_bdd":"Bè-Ouest","nom_localite":"Lome 2","etablissement_nom":"Direction à l’Organisation du Secteur Informel (MIFSI/DOSI)","etab_adr":"Délégation à l'organisation du Secteur Informel (DOSI), Lome 2, Bè-Ouest, Golfe 3","ouverture_jour":"Nsp","ministere_tutelle":"MIFSI"}},{"type":"Feature","id":"_mview_admi_etablissements_administration.fid--1b6ae3e2_1a0db278384_-3801","geometry":{"type":"Point","coordinates":[1.19098999,9.54841169]},"geometry_name":"geometry","properties":{"region_nom_bdd":"Kara","prefecture_nom_bdd":"Kozah","commune_nom_bdd":"Kozah 1","canton_nom_bdd":"Commune De Kara","nom_localite":"Ewowou","etablissement_nom":"Fonds national de la finance inclusive (FNFI) - Kara","etab_adr":"Fonds national de la finance inclusive (FNFI) - Kara, Ewowou, Commune De Kara, Kozah 1, 02BP20889","ouverture_jour":"{Mardi,lundi,Mercredi,Jeudi,Vendredi}","ministere_tutelle":"MIFSI"}},{"type":"Feature","id":"_mview_admi_etablissements_administration.fid--1b6ae3e2_1a0db278384_-3800","geometry":{"type":"Point","coordinates":[1.19084144,9.548483]},"geometry_name":"geometry","properties":{"region_nom_bdd":"Kara","prefecture_nom_bdd":"Kozah","commune_nom_bdd":"Kozah 1","canton_nom_bdd":"Commune De Kara","nom_localite":"Ewowou","etablissement_nom":"Agence de la Délégation à l'Organisation du Secteur Informel (DOSI) - Région Kara","etab_adr":"Agence de la Délégation à l'Organisation du Secteur Informel (DOSI) - Région Kara, Ewowou, Commune De Kara, Kozah 1","ouverture_jour":"{Vendredi,Jeudi,Mercredi,Mardi,lundi}","ministere_tutelle":"MIFSI"}},{"type":"Feature","id":"_mview_admi_etablissements_administration.fid--1b6ae3e2_1a0db278384_-37ff","geometry":{"type":"Point","coordinates":[1.21094787,6.19151999]},"geometry_name":"geometry","properties":{"region_nom_bdd":"Maritime","prefecture_nom_bdd":"Golfe","commune_nom_bdd":"Golfe 3","canton_nom_bdd":"Bè-Ouest","nom_localite":"Universite Lome","etablissement_nom":"Fonds national de la finance inclusive (FNFI) - Lomé Sanlam","etab_adr":"Fonds national de la finance inclusive (FNFI) - Lomé Sanlam, Universite Lome, Bè-Ouest, Golfe 3","ouverture_jour":"{lundi,Mardi,Mercredi,Jeudi,Vendredi}","ministere_tutelle":"MIFSI"}},{"type":"Feature","id":"_mview_admi_etablissements_administration.fid--1b6ae3e2_1a0db278384_-37fe","geometry":{"type":"Point","coordinates":[1.22505301,6.17406751]},"geometry_name":"geometry","properties":{"region_nom_bdd":"Maritime","prefecture_nom_bdd":"Golfe","commune_nom_bdd":"Golfe 3","canton_nom_bdd":"Bè-Ouest","nom_localite":"Hedzranawe","etablissement_nom":"Agence de la Délégation à l'Organisation du Secteur Informel (DOSI) - Commune de Lomé","etab_adr":"N/a","ouverture_jour":"Nsp","ministere_tutelle":"MIFSI"}}],"totalFeatures":11,"numberMatched":11,"numberReturned":11,"timeStamp":"2026-09-26T00:40:39.301Z","crs":{"type":"name","properties":{"name":"urn:ogc:def:crs:EPSG::4326"}}}