{"type":"FeatureCollection","features":[{"type":"Feature","id":"_mview_admi_etablissements_administration.fid--1b6ae3e2_1a0db278384_-37fd","geometry":{"type":"Point","coordinates":[1.21006198,6.12413834]},"geometry_name":"geometry","properties":{"region_nom_bdd":"Maritime","prefecture_nom_bdd":"Golfe","commune_nom_bdd":"Golfe 4","canton_nom_bdd":"Amoutivé","nom_localite":"Quartier Administratif","etablissement_nom":"Direction de l’Administration Pénitentiaire et de la Réinsertion (MJL/DAPR)","etab_adr":"Direction de l’Administration Pénitentiaire et de la Réinsertion (MJL/DAPR), Quartier Administratif, Amoutivé, Golfe 4, BP217 Lomé","ouverture_jour":"{lundi,Mardi,Mercredi,Jeudi,Vendredi}","ministere_tutelle":"MJL"}},{"type":"Feature","id":"_mview_admi_etablissements_administration.fid--1b6ae3e2_1a0db278384_-37fc","geometry":{"type":"Point","coordinates":[1.21185118,6.17290553]},"geometry_name":"geometry","properties":{"region_nom_bdd":"Maritime","prefecture_nom_bdd":"Golfe","commune_nom_bdd":"Golfe 3","canton_nom_bdd":"Bè-Ouest","nom_localite":"Agbalepedo","etablissement_nom":"Centre de formation des professions de justice CFPF","etab_adr":"15 BP 280","ouverture_jour":"{Jeudi,Mardi,Mercredi,Vendredi,lundi}","ministere_tutelle":"MJL"}},{"type":"Feature","id":"_mview_admi_etablissements_administration.fid--1b6ae3e2_1a0db278384_-37fb","geometry":{"type":"Point","coordinates":[1.24352667,6.13036333]},"geometry_name":"geometry","properties":{"region_nom_bdd":"Maritime","prefecture_nom_bdd":"Golfe","commune_nom_bdd":"Golfe 1","canton_nom_bdd":"Bè-Est","nom_localite":"Anthonio Netime","etablissement_nom":"Inspection Générale des Services Juridictionnels et Pénitentiaires (IGSJP)","etab_adr":"Inspection Générale des Services Juridictionnels et Pénitentiaires (IGSJP), 596, Rue de l'Attente, Anthonio Netime, Bè-Est, Golfe 1","ouverture_jour":"{lundi,Mardi,Mercredi,Jeudi,Vendredi}","ministere_tutelle":"MJL"}},{"type":"Feature","id":"_mview_admi_etablissements_administration.fid--1b6ae3e2_1a0db278384_-37fa","geometry":{"type":"Point","coordinates":[1.2426293,6.13005322]},"geometry_name":"geometry","properties":{"region_nom_bdd":"Maritime","prefecture_nom_bdd":"Golfe","commune_nom_bdd":"Golfe 1","canton_nom_bdd":"Bè-Est","nom_localite":"Be","etablissement_nom":"Direction de l'Accès au Droit et à la Justice (MJL/DADJ)","etab_adr":"Direction de l'Accès au Droit et à la Justice (MJL/DADJ), Be, Bè-Est, Golfe 1","ouverture_jour":"{lundi,Mardi,Mercredi,Jeudi,Vendredi}","ministere_tutelle":"MJL"}},{"type":"Feature","id":"_mview_admi_etablissements_administration.fid--1b6ae3e2_1a0db278384_-37f9","geometry":{"type":"Point","coordinates":[1.21349535,6.19372095]},"geometry_name":"geometry","properties":{"region_nom_bdd":"Maritime","prefecture_nom_bdd":"Golfe","commune_nom_bdd":"Golfe 3","canton_nom_bdd":"Bè-Ouest","nom_localite":"Gta","etablissement_nom":"Ministère de la Justice et de la Légalisation (MJL)","etab_adr":"Ministère de la Justice et de la Légalisation (MJL), GTA, Bè-Ouest, Golfe 3, BP121 Lomé","ouverture_jour":"{Vendredi,Jeudi,Mercredi,Mardi,lundi}","ministere_tutelle":"MJL"}},{"type":"Feature","id":"_mview_admi_etablissements_administration.fid--1b6ae3e2_1a0db278384_-37f8","geometry":{"type":"Point","coordinates":[1.04171028,9.95866237]},"geometry_name":"geometry","properties":{"region_nom_bdd":"Kara","prefecture_nom_bdd":"Kéran","commune_nom_bdd":"Kéran 1","canton_nom_bdd":"Kantè","nom_localite":"Kante","etablissement_nom":"Commission Electorale Locale Indépendante (CELI) - Kéran","etab_adr":"Nsp","ouverture_jour":"{Jeudi,Mardi,Mercredi,Vendredi,lundi}","ministere_tutelle":"MJL"}},{"type":"Feature","id":"_mview_admi_etablissements_administration.fid--1b6ae3e2_1a0db278384_-37f7","geometry":{"type":"Point","coordinates":[1.21337343,6.19352962]},"geometry_name":"geometry","properties":{"region_nom_bdd":"Maritime","prefecture_nom_bdd":"Golfe","commune_nom_bdd":"Golfe 3","canton_nom_bdd":"Bè-Ouest","nom_localite":"Gta","etablissement_nom":"Direction des Affaires Civiles, Sociales et Commerciales (MJL/DASC)","etab_adr":"Direction des Affaires Civiles, Sociales et Commerciales (MJL/DASC), GTA, Bè-Ouest, Golfe 3, BP121 Lomé","ouverture_jour":"{lundi,Mardi,Mercredi,Jeudi,Vendredi}","ministere_tutelle":"MJL"}},{"type":"Feature","id":"_mview_admi_etablissements_administration.fid--1b6ae3e2_1a0db278384_-37f6","geometry":{"type":"Point","coordinates":[1.21345208,6.19354307]},"geometry_name":"geometry","properties":{"region_nom_bdd":"Maritime","prefecture_nom_bdd":"Golfe","commune_nom_bdd":"Golfe 3","canton_nom_bdd":"Bè-Ouest","nom_localite":"Gta","etablissement_nom":"Direction des Affaires Pénales et des Grâces (MJL/DAPG)","etab_adr":"Direction des Affaires Pénales et des Grâces (MJL/DAPG), GTA, Bè-Ouest, Golfe 3, BP121 Lomé","ouverture_jour":"{Vendredi,Jeudi,Mercredi,Mardi,lundi}","ministere_tutelle":"MJL"}},{"type":"Feature","id":"_mview_admi_etablissements_administration.fid--1b6ae3e2_1a0db278384_-37f5","geometry":{"type":"Point","coordinates":[1.21352489,6.19353476]},"geometry_name":"geometry","properties":{"region_nom_bdd":"Maritime","prefecture_nom_bdd":"Golfe","commune_nom_bdd":"Golfe 3","canton_nom_bdd":"Bè-Ouest","nom_localite":"Gta","etablissement_nom":"Direction de la Législation (MJL/DL)","etab_adr":"Direction de la Législation (MJL/DL), GTA, Bè-Ouest, Golfe 3, BP121 Lomé","ouverture_jour":"{lundi,Mardi,Mercredi,Jeudi,Vendredi}","ministere_tutelle":"MJL"}},{"type":"Feature","id":"_mview_admi_etablissements_administration.fid--1b6ae3e2_1a0db278384_-37f4","geometry":{"type":"Point","coordinates":[1.221455,6.1222522]},"geometry_name":"geometry","properties":{"region_nom_bdd":"Maritime","prefecture_nom_bdd":"Golfe","commune_nom_bdd":"Golfe 4","canton_nom_bdd":"Amoutivé","nom_localite":"Nyekonakpoe","etablissement_nom":"Commission Nationale de l’Organisation pour l’Harmonisation en Afrique du Droit des Affaires (CNOHADA)","etab_adr":"Commission Nationale de l’Organisation pour l’Harmonisation en Afrique du Droit des Affaires (CNOHADA), Nyekonakpoe, Amoutivé, Golfe 4","ouverture_jour":"{Vendredi,Jeudi,Mercredi,Mardi,lundi}","ministere_tutelle":"MJL"}},{"type":"Feature","id":"_mview_admi_etablissements_administration.fid--1b6ae3e2_1a0db278384_-37f3","geometry":{"type":"Point","coordinates":[1.2188865,6.12191976]},"geometry_name":"geometry","properties":{"region_nom_bdd":"Maritime","prefecture_nom_bdd":"Golfe","commune_nom_bdd":"Golfe 4","canton_nom_bdd":"Amoutivé","nom_localite":"Quartier Administratif","etablissement_nom":"Corps des Surveillants de l'Administration Pénitentiaire (CSAP)","etab_adr":"Corps des Surveillants de l'Administration Pénitentiaire (CSAP), Quartier Administratif, Amoutivé, Golfe 4","ouverture_jour":"{lundi,Mardi,Mercredi,Jeudi,Vendredi}","ministere_tutelle":"MJL"}},{"type":"Feature","id":"_mview_admi_etablissements_administration.fid--1b6ae3e2_1a0db278384_-37f2","geometry":{"type":"Point","coordinates":[1.21347165,6.19387379]},"geometry_name":"geometry","properties":{"region_nom_bdd":"Maritime","prefecture_nom_bdd":"Golfe","commune_nom_bdd":"Golfe 3","canton_nom_bdd":"Bè-Ouest","nom_localite":"Gta","etablissement_nom":"Directions des Affaires Administratives et Financières (MJL/DAAF)","etab_adr":"Directions des Affaires Administratives et Financières (MJL/DAAF), GTA, Bè-Ouest, Golfe 3, BP121 Lomé","ouverture_jour":"{Mardi,lundi,Mercredi,Jeudi,Vendredi}","ministere_tutelle":"MJL"}},{"type":"Feature","id":"_mview_admi_etablissements_administration.fid--1b6ae3e2_1a0db278384_-37f1","geometry":{"type":"Point","coordinates":[1.21585637,6.18233148]},"geometry_name":"geometry","properties":{"region_nom_bdd":"Maritime","prefecture_nom_bdd":"Golfe","commune_nom_bdd":"Golfe 3","canton_nom_bdd":"Bè-Ouest","nom_localite":"Amoutive","etablissement_nom":"Cour constitutionnelle de Lomé","etab_adr":"BP 1331","ouverture_jour":"{Jeudi,Mardi,Samedi,Mercredi,Vendredi}","ministere_tutelle":"MJL"}},{"type":"Feature","id":"_mview_admi_etablissements_administration.fid--1b6ae3e2_1a0db278384_-37f0","geometry":{"type":"Point","coordinates":[1.22629383,6.16583777]},"geometry_name":"geometry","properties":{"region_nom_bdd":"Maritime","prefecture_nom_bdd":"Golfe","commune_nom_bdd":"Golfe 3","canton_nom_bdd":"Bè-Ouest","nom_localite":"Amoutive","etablissement_nom":"Cours des Comptes (CDC)","etab_adr":"BP 1336","ouverture_jour":"{Jeudi,Mardi,Mercredi,Vendredi,lundi}","ministere_tutelle":"MJL"}},{"type":"Feature","id":"_mview_admi_etablissements_administration.fid--1b6ae3e2_1a0db278384_-37ef","geometry":{"type":"Point","coordinates":[0.7832197,9.25929924]},"geometry_name":"geometry","properties":{"region_nom_bdd":"Kara","prefecture_nom_bdd":"Bassar","commune_nom_bdd":"Bassar 1","canton_nom_bdd":"Bassar","nom_localite":"Bassar","etablissement_nom":"Commission Electorale Locale Indépendante (CELI) - Bassar","etab_adr":"Nsp","ouverture_jour":"{Jeudi,Mardi,Mercredi,Vendredi,lundi}","ministere_tutelle":"MJL"}},{"type":"Feature","id":"_mview_admi_etablissements_administration.fid--1b6ae3e2_1a0db278384_-37ee","geometry":{"type":"Point","coordinates":[0.61247843,9.67250612]},"geometry_name":"geometry","properties":{"region_nom_bdd":"Kara","prefecture_nom_bdd":"Dankpen","commune_nom_bdd":"Dankpen 1","canton_nom_bdd":"Guérin-Kouka","nom_localite":"Kerin Kouka","etablissement_nom":"Commission Electorale Locale Indépendante (CELI) - Dankpen","etab_adr":"Nsp","ouverture_jour":"{Jeudi,Mardi,Mercredi,Vendredi,lundi}","ministere_tutelle":"MJL"}},{"type":"Feature","id":"_mview_admi_etablissements_administration.fid--1b6ae3e2_1a0db278384_-37ed","geometry":{"type":"Point","coordinates":[1.32495592,9.74501291]},"geometry_name":"geometry","properties":{"region_nom_bdd":"Kara","prefecture_nom_bdd":"Binah","commune_nom_bdd":"Binah 1","canton_nom_bdd":"Pagouda","nom_localite":"Pagouda","etablissement_nom":"Commission Electorale Locale Indépendante (CELI) - Binah","etab_adr":"Nsp","ouverture_jour":"{Jeudi,Mardi,Mercredi,Vendredi,lundi}","ministere_tutelle":"MJL"}},{"type":"Feature","id":"_mview_admi_etablissements_administration.fid--1b6ae3e2_1a0db278384_-37ec","geometry":{"type":"Point","coordinates":[1.24385167,9.35066833]},"geometry_name":"geometry","properties":{"region_nom_bdd":"Kara","prefecture_nom_bdd":"Assoli","commune_nom_bdd":"Assoli 1","canton_nom_bdd":"Bafilo","nom_localite":"Bafilo","etablissement_nom":"Commission Electorale Locale Indépendante (CELI) - Assoli","etab_adr":"Nsp","ouverture_jour":"{Jeudi,Mardi,Mercredi,Vendredi,lundi}","ministere_tutelle":"MJL"}},{"type":"Feature","id":"_mview_admi_etablissements_administration.fid--1b6ae3e2_1a0db278384_-37eb","geometry":{"type":"Point","coordinates":[1.182377,9.56046092]},"geometry_name":"geometry","properties":{"region_nom_bdd":"Kara","prefecture_nom_bdd":"Kozah","commune_nom_bdd":"Kozah 1","canton_nom_bdd":"Commune De Kara","nom_localite":"Lama","etablissement_nom":"Commission Electorale Locale Indépendante (CELI) - Kozah","etab_adr":"Nsp","ouverture_jour":"{Jeudi,Mardi,Mercredi,lundi,Vendredi}","ministere_tutelle":"MJL"}},{"type":"Feature","id":"_mview_admi_etablissements_administration.fid--1b6ae3e2_1a0db278384_-37ea","geometry":{"type":"Point","coordinates":[1.10853294,9.76279444]},"geometry_name":"geometry","properties":{"region_nom_bdd":"Kara","prefecture_nom_bdd":"Doufelgou","commune_nom_bdd":"Doufelgou 1","canton_nom_bdd":"Niamtougou","nom_localite":"Niamtougou","etablissement_nom":"Commission Electorale Locale Indépendante (CELI) - Doufelgou","etab_adr":"Nsp","ouverture_jour":"{Jeudi,Mardi,Mercredi,Vendredi,lundi}","ministere_tutelle":"MJL"}}],"totalFeatures":20,"numberMatched":20,"numberReturned":20,"timeStamp":"2026-09-26T00:40:40.577Z","crs":{"type":"name","properties":{"name":"urn:ogc:def:crs:EPSG::4326"}}}