{"type":"FeatureCollection","features":[{"type":"Feature","id":"_mview_admi_etablissements_administration.fid--1b6ae3e2_1a0db278384_-398e","geometry":{"type":"Point","coordinates":[1.22569925,6.13606337]},"geometry_name":"geometry","properties":{"region_nom_bdd":"Maritime","prefecture_nom_bdd":"Golfe","commune_nom_bdd":"Golfe 4","canton_nom_bdd":"Amoutivé","nom_localite":"Quartier Administratif","etablissement_nom":"Bureau National de l'Organisation des Nations Unies pour le Développement Industriel (ONUDI)","etab_adr":"Bureau National de l'Organisation des Nations Unies pour le Développement Industriel (ONUDI), Quartier Administratif, Amoutivé, Golfe 4, BP911 Lomé","ouverture_jour":"{lundi,Mardi,Mercredi,Jeudi,Vendredi}","ministere_tutelle":"MCICL"}},{"type":"Feature","id":"_mview_admi_etablissements_administration.fid--1b6ae3e2_1a0db278384_-398d","geometry":{"type":"Point","coordinates":[0.203855,10.875925]},"geometry_name":"geometry","properties":{"region_nom_bdd":"Savanes","prefecture_nom_bdd":"Tône","commune_nom_bdd":"Tône 1","canton_nom_bdd":"Dapaong","nom_localite":"Natbagou","etablissement_nom":"Direction Régionale du Commerce, de l'Industrie et de la Consommation locale (DRCICL) - Savanes","etab_adr":"Direction Régionale du Commerce, de l'Industrie et de la Consommation locale (DRCICL) - Savanes, Natbagou, Dapaong, Tône 1, BP383","ouverture_jour":"{lundi,Mardi,Mercredi,Jeudi,Vendredi}","ministere_tutelle":"MCICL"}},{"type":"Feature","id":"_mview_admi_etablissements_administration.fid--1b6ae3e2_1a0db278384_-398c","geometry":{"type":"Point","coordinates":[1.12512874,7.52864884]},"geometry_name":"geometry","properties":{"region_nom_bdd":"Plateaux","prefecture_nom_bdd":"Ogou","commune_nom_bdd":"Ogou 1","canton_nom_bdd":"Gnagna","nom_localite":"Adanlekpedji","etablissement_nom":"Direction Régionale du Commerce, de l'Industrie et de la Consommation locale (DRCICL) - Plateaux","etab_adr":"Direction Régionale du Commerce, de l'Industrie et de la Consommation locale (DRCICL) - Plateaux, Adanlekpedji, Gnagna, Ogou 1, BP290 Atakpame","ouverture_jour":"{lundi,Mardi,Mercredi,Jeudi,Vendredi}","ministere_tutelle":"MCICL"}},{"type":"Feature","id":"_mview_admi_etablissements_administration.fid--1b6ae3e2_1a0db278384_-398b","geometry":{"type":"Point","coordinates":[1.21120194,6.41763962]},"geometry_name":"geometry","properties":{"region_nom_bdd":"Maritime","prefecture_nom_bdd":"Zio","commune_nom_bdd":"Zio 1","canton_nom_bdd":"Tsévié","nom_localite":"Daviemondji","etablissement_nom":"Chambre de Commerce et de l'Industrie du Togo (CCIT Togo) - Délégation Maritime","etab_adr":"Chambre de Commerce et de l'Industrie du Togo (CCIT Togo) - Délégation Maritime, Daviemondji, Tsévié, Zio 1, 160BP85","ouverture_jour":"{lundi,Mardi,Mercredi,Vendredi,Jeudi}","ministere_tutelle":"MCICL"}},{"type":"Feature","id":"_mview_admi_etablissements_administration.fid--1b6ae3e2_1a0db278384_-398a","geometry":{"type":"Point","coordinates":[1.256566,6.18838044]},"geometry_name":"geometry","properties":{"region_nom_bdd":"Maritime","prefecture_nom_bdd":"Golfe","commune_nom_bdd":"Golfe 2","canton_nom_bdd":"Bè-Centre","nom_localite":"Aéroport De Lomé","etablissement_nom":"Centre Togolais des Expositions et Foires de Lomé (CETEF)","etab_adr":"Centre Togolais des Expositions et Foires (CETEF), Aéroport de Lomé, Bè-Centre, Golfe 2","ouverture_jour":"{lundi,Mardi,Mercredi,Jeudi,Vendredi}","ministere_tutelle":"MCICL"}},{"type":"Feature","id":"_mview_admi_etablissements_administration.fid--1b6ae3e2_1a0db278384_-3989","geometry":{"type":"Point","coordinates":[1.21892334,6.12992299]},"geometry_name":"geometry","properties":{"region_nom_bdd":"Maritime","prefecture_nom_bdd":"Golfe","commune_nom_bdd":"Golfe 4","canton_nom_bdd":"Amoutivé","nom_localite":"Quartier Administratif","etablissement_nom":"Ministère du Commerce, de l’industrie et de la Consommation Locale (MCICL)","etab_adr":"Ministère du Commerce, de l’industrie et de la Consommation Locale (MCICL), Quartier Administratif, Amoutivé, Golfe 4","ouverture_jour":"{lundi,Mardi,Mercredi,Jeudi,Vendredi}","ministere_tutelle":"MCICL"}},{"type":"Feature","id":"_mview_admi_etablissements_administration.fid--1b6ae3e2_1a0db278384_-3988","geometry":{"type":"Point","coordinates":[1.20269028,6.2052744]},"geometry_name":"geometry","properties":{"region_nom_bdd":"Maritime","prefecture_nom_bdd":"Agoè-Nyivé","commune_nom_bdd":"Agoè-Nyivé 1","canton_nom_bdd":"Agoè-Nyivé","nom_localite":"Agoe Nyive","etablissement_nom":"Haute Autorité de la Qualité et de l'Environnement (HAUQE)","etab_adr":"Haute Autorité de la Qualité et de l'Environnement (HAUQE), Agoe Nyive, Agoè-Nyivé, Agoè-Nyivé 1, 05BP832 Lomé","ouverture_jour":"{lundi,Mardi,Mercredi,Jeudi,Vendredi}","ministere_tutelle":"MCICL"}},{"type":"Feature","id":"_mview_admi_etablissements_administration.fid--1b6ae3e2_1a0db278384_-3987","geometry":{"type":"Point","coordinates":[1.23325323,6.15554709]},"geometry_name":"geometry","properties":{"region_nom_bdd":"Maritime","prefecture_nom_bdd":"Golfe","commune_nom_bdd":"Golfe 2","canton_nom_bdd":"Bè-Centre","nom_localite":"Nukafu","etablissement_nom":"Société SOMAYAF - Direction Générale","etab_adr":"Société SOMAYAF - Direction Générale, Nukafu, Bè-Centre, Golfe 2, BP3250 Lomé","ouverture_jour":"{lundi,Mardi,Mercredi,Jeudi,Vendredi,Samedi}","ministere_tutelle":"MDEM, MCICL"}},{"type":"Feature","id":"_mview_admi_etablissements_administration.fid--1b6ae3e2_1a0db278384_-3986","geometry":{"type":"Point","coordinates":[1.23151725,6.16579943]},"geometry_name":"geometry","properties":{"region_nom_bdd":"Maritime","prefecture_nom_bdd":"Golfe","commune_nom_bdd":"Golfe 3","canton_nom_bdd":"Bè-Ouest","nom_localite":"Tokoin Wuiti","etablissement_nom":"Bureau de Restructuration et de Mise à Niveau (BRMN)","etab_adr":"Bureau de Restructuration et de Mise à Niveau (BRMN), Tokoin Wuiti, Bè-Ouest, Golfe 3, BP352 Lomé","ouverture_jour":"{Mardi,lundi,Mercredi,Jeudi,Vendredi}","ministere_tutelle":"MCICL"}},{"type":"Feature","id":"_mview_admi_etablissements_administration.fid--1b6ae3e2_1a0db278384_-3985","geometry":{"type":"Point","coordinates":[1.21459773,6.18318109]},"geometry_name":"geometry","properties":{"region_nom_bdd":"Maritime","prefecture_nom_bdd":"Golfe","commune_nom_bdd":"Golfe 3","canton_nom_bdd":"Bè-Ouest","nom_localite":"Cite Oua","etablissement_nom":"Institut National de la Propriété Industrielle et de la Technologie (INPIT)","etab_adr":"Institut National de la Propriété Industrielle et de la Technologie (INPIT), Cite Oua, Bè-Ouest, Golfe 3, BP2329 Lomé","ouverture_jour":"{lundi,Mardi,Mercredi,Jeudi,Vendredi}","ministere_tutelle":"MCICL"}},{"type":"Feature","id":"_mview_admi_etablissements_administration.fid--1b6ae3e2_1a0db278384_-3984","geometry":{"type":"Point","coordinates":[1.21760598,6.12818617]},"geometry_name":"geometry","properties":{"region_nom_bdd":"Maritime","prefecture_nom_bdd":"Golfe","commune_nom_bdd":"Golfe 4","canton_nom_bdd":"Amoutivé","nom_localite":"Casef (quartier Administrative )","etablissement_nom":"Direction de la Planification de Statistiques et du Suivi Évaluation (MCICL/DPSE)","etab_adr":"Direction de la Planification de Statistiques et du Suivi Évaluation (MCICL/DPSE), Casef (Quartier Administrative ), Amoutivé, Golfe 4, BP383 Lomé","ouverture_jour":"{lundi,Mercredi,Mardi,Jeudi,Vendredi}","ministere_tutelle":"MCICL"}},{"type":"Feature","id":"_mview_admi_etablissements_administration.fid--1b6ae3e2_1a0db278384_-3983","geometry":{"type":"Point","coordinates":[1.13665506,8.98688776]},"geometry_name":"geometry","properties":{"region_nom_bdd":"Centrale","prefecture_nom_bdd":"Tchaoudjo","commune_nom_bdd":"Tchaoudjo 1","canton_nom_bdd":"Sokodè (Komah)","nom_localite":"Tchawonda","etablissement_nom":"Chambre de Commerce et de l'Industrie du Togo (CCIT Togo) - Délégation Centrale","etab_adr":"Chambre de Commerce et de l'Industrie du Togo (CCIT Togo) - Délégation Centrale, Tchawonda, Sokodè (Komah), Tchaoudjo 1","ouverture_jour":"{lundi,Mardi,Mercredi,Jeudi,Vendredi}","ministere_tutelle":"MCICL"}},{"type":"Feature","id":"_mview_admi_etablissements_administration.fid--1b6ae3e2_1a0db278384_-3982","geometry":{"type":"Point","coordinates":[1.24176765,6.1533067]},"geometry_name":"geometry","properties":{"region_nom_bdd":"Maritime","prefecture_nom_bdd":"Golfe","commune_nom_bdd":"Golfe 2","canton_nom_bdd":"Bè-Centre","nom_localite":"Noukafou","etablissement_nom":"Société Compagnie Africaine de Pétrole du Togo (CAP Togo) - Direction Générale","etab_adr":"Société Compagnie Africaine de Pétrole du Togo (CAP Togo) - Direction Générale, Noukafou, Bè-Centre, Golfe 2, 03BP31013 Lomé","ouverture_jour":"{lundi,Mardi,Mercredi,Jeudi,Vendredi}","ministere_tutelle":"MCICL"}},{"type":"Feature","id":"_mview_admi_etablissements_administration.fid--1b6ae3e2_1a0db278384_-3981","geometry":{"type":"Point","coordinates":[1.2154486,6.43196608]},"geometry_name":"geometry","properties":{"region_nom_bdd":"Maritime","prefecture_nom_bdd":"Zio","commune_nom_bdd":"Zio 1","canton_nom_bdd":"Tsévié","nom_localite":"Tsevie","etablissement_nom":"Direction Régionale du Commerce, de l'Industrie et de la Consommation locale (DRCICL) - Maritime","etab_adr":"Direction Régionale du Commerce, de l'Industrie et de la Consommation locale (DRCICL) - Maritime, Tsevie, Tsévié, Zio 1","ouverture_jour":"{lundi,Mardi,Mercredi,Jeudi,Vendredi}","ministere_tutelle":"MCICL"}},{"type":"Feature","id":"_mview_admi_etablissements_administration.fid--1b6ae3e2_1a0db278384_-3980","geometry":{"type":"Point","coordinates":[1.2174575,6.12798991]},"geometry_name":"geometry","properties":{"region_nom_bdd":"Maritime","prefecture_nom_bdd":"Golfe","commune_nom_bdd":"Golfe 4","canton_nom_bdd":"Amoutivé","nom_localite":"Casef","etablissement_nom":"Direction Générale l'Industrie (MCICL/DGI)","etab_adr":"Direction Générale l'Industrie (MCICL/DGI), Casef, Amoutivé, Golfe 4, BP831 Lomé","ouverture_jour":"{lundi,Mardi,Mercredi,Jeudi,Vendredi}","ministere_tutelle":"MCICL"}},{"type":"Feature","id":"_mview_admi_etablissements_administration.fid--1b6ae3e2_1a0db278384_-397f","geometry":{"type":"Point","coordinates":[1.22128428,6.12347184]},"geometry_name":"geometry","properties":{"region_nom_bdd":"Maritime","prefecture_nom_bdd":"Golfe","commune_nom_bdd":"Golfe 4","canton_nom_bdd":"Amoutivé","nom_localite":"Quartier Administratif","etablissement_nom":"Centre de Formalites des Entreprises (CFE)","etab_adr":"Centre de Formalites des Entreprises (CFE), Quartier Administratif, Amoutivé, Golfe 4, BP3210 Lomé","ouverture_jour":"{lundi,Mardi,Mercredi,Jeudi,Vendredi}","ministere_tutelle":"MCICL"}},{"type":"Feature","id":"_mview_admi_etablissements_administration.fid--1b6ae3e2_1a0db278384_-397e","geometry":{"type":"Point","coordinates":[1.1402102,8.97943954]},"geometry_name":"geometry","properties":{"region_nom_bdd":"Centrale","prefecture_nom_bdd":"Tchaoudjo","commune_nom_bdd":"Tchaoudjo 1","canton_nom_bdd":"Sokodè (Komah)","nom_localite":"Komah 1","etablissement_nom":"Direction Régionale du Commerce, de l'Industrie et de la Consommation locale (DRCICL) - Centrale","etab_adr":"Direction Régionale du Commerce, de l'Industrie et de la Consommation locale (DRCICL) - Centrale, Komah 1, Sokodè (Komah), Tchaoudjo 1, BP383 Sokode","ouverture_jour":"{lundi,Mardi,Mercredi,Jeudi,Vendredi}","ministere_tutelle":"MCICL"}},{"type":"Feature","id":"_mview_admi_etablissements_administration.fid--1b6ae3e2_1a0db278384_-397d","geometry":{"type":"Point","coordinates":[1.27631402,6.14157568]},"geometry_name":"geometry","properties":{"region_nom_bdd":"Maritime","prefecture_nom_bdd":"Golfe","commune_nom_bdd":"Golfe 1","canton_nom_bdd":"Bè-Est","nom_localite":"Port Autonome","etablissement_nom":"Comité de Coordination de la Filière Café Cacao (CCFCC)","etab_adr":"Comité de Coordination de la Filière Café Cacao (CCFCC), Port Autonome, Bè-Est, Golfe 1, 08BP8582 Lomé","ouverture_jour":"{Mardi,lundi,Mercredi,Jeudi,Vendredi}","ministere_tutelle":"MCICL"}},{"type":"Feature","id":"_mview_admi_etablissements_administration.fid--1b6ae3e2_1a0db278384_-397c","geometry":{"type":"Point","coordinates":[1.18952805,6.20555869]},"geometry_name":"geometry","properties":{"region_nom_bdd":"Maritime","prefecture_nom_bdd":"Golfe","commune_nom_bdd":"Golfe 5","canton_nom_bdd":"Aflao-Gakli","nom_localite":"Adidoadin","etablissement_nom":"Société SANOL - Direction Générale","etab_adr":"Société SANOL - Direction Générale, Adidoadin, Aflao-Gakli, Golfe 5, 04BP30 Lomé","ouverture_jour":"{Vendredi,Jeudi,Mercredi,Mardi,lundi}","ministere_tutelle":"MDEM, MCICL"}},{"type":"Feature","id":"_mview_admi_etablissements_administration.fid--1b6ae3e2_1a0db278384_-397b","geometry":{"type":"Point","coordinates":[1.21903075,6.130074]},"geometry_name":"geometry","properties":{"region_nom_bdd":"Maritime","prefecture_nom_bdd":"Golfe","commune_nom_bdd":"Golfe 4","canton_nom_bdd":"Amoutivé","nom_localite":"Quartier Administratif","etablissement_nom":"Comité de Suivi des Fluctuations des Prix des Produits Pétroliers (CSFPPP)","etab_adr":"Comité de Suivi des Fluctuations des Prix des Produits Pétroliers (CSFPPP), Quartier Administratif, Amoutivé, Golfe 4","ouverture_jour":"{lundi,Mardi,Mercredi,Jeudi,Vendredi}","ministere_tutelle":"MCICL, MDEM"}},{"type":"Feature","id":"_mview_admi_etablissements_administration.fid--1b6ae3e2_1a0db278384_-397a","geometry":{"type":"Point","coordinates":[1.19946567,9.55085541]},"geometry_name":"geometry","properties":{"region_nom_bdd":"Kara","prefecture_nom_bdd":"Kozah","commune_nom_bdd":"Kozah 1","canton_nom_bdd":"Commune De Kara","nom_localite":"Tomde","etablissement_nom":"Direction Régionale du Commerce, de l'Industrie et de la Consommation locale (DRCICL) - Kara","etab_adr":"Direction Régionale du Commerce, de l'Industrie et de la Consommation locale (DRCICL) - Kara, Tomde, Commune De Kara, Kozah 1, BP144 Kara","ouverture_jour":"{Vendredi,Jeudi,Mercredi,Mardi,lundi}","ministere_tutelle":"MCICL"}},{"type":"Feature","id":"_mview_admi_etablissements_administration.fid--1b6ae3e2_1a0db278384_-3979","geometry":{"type":"Point","coordinates":[1.22147,6.12323771]},"geometry_name":"geometry","properties":{"region_nom_bdd":"Maritime","prefecture_nom_bdd":"Golfe","commune_nom_bdd":"Golfe 4","canton_nom_bdd":"Amoutivé","nom_localite":"Quartier Administratif","etablissement_nom":"Bourse de Sous-Traitance et de Partenariat (BSTP)","etab_adr":"Bourse de Sous-Traitance et de Partenariat (BSTP), Quartier Administratif, Amoutivé, Golfe 4","ouverture_jour":"{lundi,Mardi,Mercredi,Jeudi,Vendredi,Samedi}","ministere_tutelle":"MCICL"}},{"type":"Feature","id":"_mview_admi_etablissements_administration.fid--1b6ae3e2_1a0db278384_-3978","geometry":{"type":"Point","coordinates":[1.3046,6.15966]},"geometry_name":"geometry","properties":{"region_nom_bdd":"Maritime","prefecture_nom_bdd":"Golfe","commune_nom_bdd":"Golfe 6","canton_nom_bdd":"Baguida","nom_localite":"Baguida","etablissement_nom":"Société T-Oil - Direction Générale","etab_adr":"Société T-Oil - Direction Générale, Raffinerie du Port de Lomé, Baguida, Baguida, Golfe 6","ouverture_jour":"{lundi,Mardi,Mercredi,Jeudi,Vendredi}","ministere_tutelle":"MDEM, MCICL"}},{"type":"Feature","id":"_mview_admi_etablissements_administration.fid--1b6ae3e2_1a0db278384_-3977","geometry":{"type":"Point","coordinates":[1.244324,6.16213651]},"geometry_name":"geometry","properties":{"region_nom_bdd":"Maritime","prefecture_nom_bdd":"Golfe","commune_nom_bdd":"Golfe 2","canton_nom_bdd":"Bè-Centre","nom_localite":"Hedzranaowé","etablissement_nom":"Société Total Energie Togo - Direction Générale","etab_adr":"Société Total Energie Togo - Direction Générale, Hedzranaowé, Bè-Centre, Golfe 2","ouverture_jour":"{lundi,Mardi,Mercredi,Jeudi,Vendredi}","ministere_tutelle":"MDEM, MCICL"}},{"type":"Feature","id":"_mview_admi_etablissements_administration.fid--1b6ae3e2_1a0db278384_-3976","geometry":{"type":"Point","coordinates":[1.29833395,6.15374438]},"geometry_name":"geometry","properties":{"region_nom_bdd":"Maritime","prefecture_nom_bdd":"Golfe","commune_nom_bdd":"Golfe 6","canton_nom_bdd":"Baguida","nom_localite":"Zone Portuaire","etablissement_nom":"SAZOF Zone portuaire","etab_adr":"Zone portuaire bâtiment OTR","ouverture_jour":null,"ministere_tutelle":"MCICL, MPI"}},{"type":"Feature","id":"_mview_admi_etablissements_administration.fid--1b6ae3e2_1a0db278384_-3975","geometry":{"type":"Point","coordinates":[1.252879,6.1335339]},"geometry_name":"geometry","properties":{"region_nom_bdd":"Maritime","prefecture_nom_bdd":"Golfe","commune_nom_bdd":"Golfe 1","canton_nom_bdd":"Bè-Est","nom_localite":"Bè","etablissement_nom":"Société d'exploitation du Guichet Unique pour le Commerce Extérieur (SEGUCE)","etab_adr":"Bè","ouverture_jour":"{Jeudi,Mardi,Mercredi,Vendredi,lundi,Samedi}","ministere_tutelle":"MCICL"}},{"type":"Feature","id":"_mview_admi_etablissements_administration.fid--1b6ae3e2_1a0db278384_-3974","geometry":{"type":"Point","coordinates":[1.21911144,6.12995634]},"geometry_name":"geometry","properties":{"region_nom_bdd":"Maritime","prefecture_nom_bdd":"Golfe","commune_nom_bdd":"Golfe 4","canton_nom_bdd":"Amoutivé","nom_localite":"Adawoulato","etablissement_nom":"Direction du Commerce Intérieur et de la Concurrence (MCICL/DCIC)","etab_adr":"N/a","ouverture_jour":"{Jeudi,lundi,Vendredi,Mercredi,Mardi}","ministere_tutelle":"MCICL"}},{"type":"Feature","id":"_mview_admi_etablissements_administration.fid--1b6ae3e2_1a0db278384_-3973","geometry":{"type":"Point","coordinates":[1.28536852,6.15017728]},"geometry_name":"geometry","properties":{"region_nom_bdd":"Maritime","prefecture_nom_bdd":"Golfe","commune_nom_bdd":"Golfe 1","canton_nom_bdd":"Bè-Est","nom_localite":"Bè","etablissement_nom":"Société Togolaise d'Entreposage (STE)","etab_adr":"BP 1178","ouverture_jour":"{Jeudi,Mardi,Mercredi,Vendredi,lundi}","ministere_tutelle":"MCICL"}},{"type":"Feature","id":"_mview_admi_etablissements_administration.fid--1b6ae3e2_1a0db278384_-3972","geometry":{"type":"Point","coordinates":[1.30466453,6.15963005]},"geometry_name":"geometry","properties":{"region_nom_bdd":"Maritime","prefecture_nom_bdd":"Golfe","commune_nom_bdd":"Golfe 6","canton_nom_bdd":"Baguida","nom_localite":"Bè","etablissement_nom":"Société Togolaise de Stockage de Lomé (STSL)","etab_adr":"Bè","ouverture_jour":"{Jeudi,Mardi,Mercredi,Vendredi,lundi}","ministere_tutelle":"MCICL"}},{"type":"Feature","id":"_mview_admi_etablissements_administration.fid--1b6ae3e2_1a0db278384_-3971","geometry":{"type":"Point","coordinates":[1.22150007,6.12335248]},"geometry_name":"geometry","properties":{"region_nom_bdd":"Maritime","prefecture_nom_bdd":"Golfe","commune_nom_bdd":"Golfe 4","canton_nom_bdd":"Amoutivé","nom_localite":"Adawlato","etablissement_nom":"Chambre de Commerce et de l'Industrie du Togo","etab_adr":"Adawolato","ouverture_jour":"{Jeudi,Mardi,Samedi,Mercredi,Vendredi,lundi}","ministere_tutelle":"MCICL"}},{"type":"Feature","id":"_mview_admi_etablissements_administration.fid--1b6ae3e2_1a0db278384_-3970","geometry":{"type":"Point","coordinates":[1.1907884,9.55419442]},"geometry_name":"geometry","properties":{"region_nom_bdd":"Kara","prefecture_nom_bdd":"Kozah","commune_nom_bdd":"Kozah 1","canton_nom_bdd":"Commune De Kara","nom_localite":"Quartier Chaminade","etablissement_nom":"CHAMBRE DE COMMERCE ET DE L'INDUSTRIE DU TOGO DE KARA","etab_adr":"Nsp","ouverture_jour":"{Jeudi,Mardi,Mercredi,Vendredi,lundi}","ministere_tutelle":"MCICL"}},{"type":"Feature","id":"_mview_admi_etablissements_administration.fid--1b6ae3e2_1a0db278384_-396f","geometry":{"type":"Point","coordinates":[0.21318189,10.8632787]},"geometry_name":"geometry","properties":{"region_nom_bdd":"Savanes","prefecture_nom_bdd":"Tône","commune_nom_bdd":"Tône 1","canton_nom_bdd":"Dapaong","nom_localite":"Kporgou","etablissement_nom":"Chambre de commerce et de l'industrie du Togo(CCIT Togo)-Délégation Dapaong","etab_adr":"N/a","ouverture_jour":"{Jeudi,Mardi,Mercredi,Vendredi,lundi}","ministere_tutelle":"MCICL"}},{"type":"Feature","id":"_mview_admi_etablissements_administration.fid--1b6ae3e2_1a0db278384_-396e","geometry":{"type":"Point","coordinates":[1.14013845,7.51959398]},"geometry_name":"geometry","properties":{"region_nom_bdd":"Plateaux","prefecture_nom_bdd":"Ogou","commune_nom_bdd":"Ogou 1","canton_nom_bdd":"Gnagna","nom_localite":"Atakpame","etablissement_nom":"Chambre de commerce et de l'industrie du Togo(CCIT Togo)-Delegation plateaux","etab_adr":"Néant","ouverture_jour":"{Jeudi,Mardi,Mercredi,Vendredi,lundi}","ministere_tutelle":"MCICL"}},{"type":"Feature","id":"_mview_admi_etablissements_administration.fid--1b6ae3e2_1a0db278384_-396d","geometry":{"type":"Point","coordinates":[1.21702954,6.31074094]},"geometry_name":"geometry","properties":{"region_nom_bdd":"Maritime","prefecture_nom_bdd":"Agoè-Nyivé","commune_nom_bdd":"Agoè-Nyivé 6","canton_nom_bdd":"Adétikopé","nom_localite":"Adetikope","etablissement_nom":"Direction Générale Plateforme Industrielle d'Adetikope(PIA)","etab_adr":"Adetikope","ouverture_jour":"{lundi,Vendredi,Mercredi,Samedi,Mardi,Jeudi}","ministere_tutelle":"MCICL, MPI"}}],"totalFeatures":34,"numberMatched":34,"numberReturned":34,"timeStamp":"2026-09-26T00:40:27.010Z","crs":{"type":"name","properties":{"name":"urn:ogc:def:crs:EPSG::4326"}}}