{"type":"FeatureCollection","features":[{"type":"Feature","id":"_mview_admi_etablissements_administration.fid--1b6ae3e2_1a0db278384_-3792","geometry":{"type":"Point","coordinates":[1.12726846,7.52018664]},"geometry_name":"geometry","properties":{"region_nom_bdd":"Plateaux","prefecture_nom_bdd":"Ogou","commune_nom_bdd":"Ogou 1","canton_nom_bdd":"Gnagna","nom_localite":"Lomnava","etablissement_nom":"Inspection Préfectorale des Sports et des Loisirs (IPSL) - Ogou","etab_adr":"Inspection Préfectorale des Sports et des Loisirs (IPSL) - Ogou, Lomnava, Gnagna, Ogou 1","ouverture_jour":"{lundi,Mardi,Mercredi,Jeudi,Vendredi}","ministere_tutelle":"MSL"}},{"type":"Feature","id":"_mview_admi_etablissements_administration.fid--1b6ae3e2_1a0db278384_-3791","geometry":{"type":"Point","coordinates":[1.11627543,9.76424]},"geometry_name":"geometry","properties":{"region_nom_bdd":"Kara","prefecture_nom_bdd":"Doufelgou","commune_nom_bdd":"Doufelgou 1","canton_nom_bdd":"Niamtougou","nom_localite":"Niamtougou","etablissement_nom":"Inspection Préfectorale des Sports et des Loisirs (IPSL) - Doufelgou","etab_adr":"Inspection Préfectorale des Sports et des Loisirs (IPSL) - Doufelgou, Niamtougou, Niamtougou, Doufelgou 1","ouverture_jour":"{lundi,Mardi,Mercredi,Jeudi,Vendredi}","ministere_tutelle":"MSL"}},{"type":"Feature","id":"_mview_admi_etablissements_administration.fid--1b6ae3e2_1a0db278384_-3790","geometry":{"type":"Point","coordinates":[0.63545867,6.91712304]},"geometry_name":"geometry","properties":{"region_nom_bdd":"Plateaux","prefecture_nom_bdd":"Kloto","commune_nom_bdd":"Kloto 1","canton_nom_bdd":"Agome-Kpalime","nom_localite":"Kpalimé","etablissement_nom":"Inspection Préfectorale des Sports et des Loisirs (IPSL) - Kloto","etab_adr":"Inspection Préfectorale des Sports et des Loisirs (IPSL) - Kloto, Kpalimé, Agome-Kpalime, Kloto 1","ouverture_jour":"{Vendredi,Jeudi,Mercredi,Mardi,lundi}","ministere_tutelle":"MSL"}},{"type":"Feature","id":"_mview_admi_etablissements_administration.fid--1b6ae3e2_1a0db278384_-378f","geometry":{"type":"Point","coordinates":[0.97891209,8.31778279]},"geometry_name":"geometry","properties":{"region_nom_bdd":"Centrale","prefecture_nom_bdd":"Blitta","commune_nom_bdd":"Blitta 1","canton_nom_bdd":"Blitta","nom_localite":"Zongo","etablissement_nom":"Inspection Préfectorale des Sports et des Loisirs (IPSL) - Blitta","etab_adr":"Inspection Préfectorale des Sports et des Loisirs (IPSL) - Blitta, Zongo, Blitta, Blitta 1","ouverture_jour":"{Jeudi,Mercredi,lundi,Mardi,Vendredi}","ministere_tutelle":"MSL"}},{"type":"Feature","id":"_mview_admi_etablissements_administration.fid--1b6ae3e2_1a0db278384_-378e","geometry":{"type":"Point","coordinates":[0.20349981,10.87249101]},"geometry_name":"geometry","properties":{"region_nom_bdd":"Savanes","prefecture_nom_bdd":"Tône","commune_nom_bdd":"Tône 1","canton_nom_bdd":"Dapaong","nom_localite":"Bogliagua","etablissement_nom":"Inspection Préfectorale des Sports et des Loisirs (IPSL) - Tone","etab_adr":"Inspection Préfectorale des Sports et des Loisirs (IPSL) - Tone, Bogliagua, Dapaong, Tône 1","ouverture_jour":"{lundi,Mardi,Mercredi,Jeudi,Vendredi}","ministere_tutelle":"MSL"}},{"type":"Feature","id":"_mview_admi_etablissements_administration.fid--1b6ae3e2_1a0db278384_-378d","geometry":{"type":"Point","coordinates":[1.21327836,6.12301523]},"geometry_name":"geometry","properties":{"region_nom_bdd":"Maritime","prefecture_nom_bdd":"Golfe","commune_nom_bdd":"Golfe 4","canton_nom_bdd":"Amoutivé","nom_localite":"Quartier Administratif","etablissement_nom":"League Regionale de Football Lomé Golfe","etab_adr":"League Regionale de Football Lomé Golfe, Quartier Administratif, Amoutivé, Golfe 4, BP467 Lomé","ouverture_jour":"{Mardi,lundi,Mercredi,Jeudi,Vendredi}","ministere_tutelle":"MSL"}},{"type":"Feature","id":"_mview_admi_etablissements_administration.fid--1b6ae3e2_1a0db278384_-378c","geometry":{"type":"Point","coordinates":[1.31338697,9.74265604]},"geometry_name":"geometry","properties":{"region_nom_bdd":"Kara","prefecture_nom_bdd":"Binah","commune_nom_bdd":"Binah 1","canton_nom_bdd":"Pagouda","nom_localite":"Wazoé","etablissement_nom":"Inspection Préfectorale des Sports et des Loisirs (IPSL) - Binah","etab_adr":"Inspection Préfectorale des Sports et des Loisirs (IPSL) - Binah, Wazoé, Pagouda, Binah 1","ouverture_jour":"{lundi,Mardi,Mercredi,Jeudi,Vendredi,Samedi}","ministere_tutelle":"MSL"}},{"type":"Feature","id":"_mview_admi_etablissements_administration.fid--1b6ae3e2_1a0db278384_-378b","geometry":{"type":"Point","coordinates":[0.78929877,7.65245412]},"geometry_name":"geometry","properties":{"region_nom_bdd":"Plateaux","prefecture_nom_bdd":"Akébou","commune_nom_bdd":"Akébou 1","canton_nom_bdd":"Kougnohou","nom_localite":"Kougnohou","etablissement_nom":"Inspection Préfectorale des Sports et des Loisirs (IPSL) - Akebou","etab_adr":"Inspection Préfectorale des Sports et des Loisirs (IPSL) - Akebou, Kougnohou, Kougnohou, Akébou 1","ouverture_jour":"{lundi,Mardi,Mercredi,Jeudi,Vendredi}","ministere_tutelle":"MSL"}},{"type":"Feature","id":"_mview_admi_etablissements_administration.fid--1b6ae3e2_1a0db278384_-378a","geometry":{"type":"Point","coordinates":[0.610485,9.68753]},"geometry_name":"geometry","properties":{"region_nom_bdd":"Kara","prefecture_nom_bdd":"Dankpen","commune_nom_bdd":"Dankpen 1","canton_nom_bdd":"Guérin-Kouka","nom_localite":"Guerin-kouka","etablissement_nom":"Inspection Préfectorale des Sports et des Loisirs (IPSL) - Dankpen","etab_adr":"Inspection Préfectorale des Sports et des Loisirs (IPSL) - Dankpen, Guerin-Kouka, Guérin-Kouka, Dankpen 1","ouverture_jour":"{lundi,Mardi,Mercredi,Jeudi,Vendredi}","ministere_tutelle":"MSL"}},{"type":"Feature","id":"_mview_admi_etablissements_administration.fid--1b6ae3e2_1a0db278384_-3789","geometry":{"type":"Point","coordinates":[0.98203376,8.5665568]},"geometry_name":"geometry","properties":{"region_nom_bdd":"Centrale","prefecture_nom_bdd":"Sotouboua","commune_nom_bdd":"Sotouboua 1","canton_nom_bdd":"Sotouboua","nom_localite":"Laouwaï","etablissement_nom":"Inspection Préfectorale des Sports et des Loisirs (IPSL) - Sotouboua","etab_adr":"Inspection Préfectorale des Sports et des Loisirs (IPSL) - Sotouboua, Laouwaï, Sotouboua, Sotouboua 1","ouverture_jour":"{lundi,Mardi,Mercredi,Jeudi,Vendredi}","ministere_tutelle":"MSL"}},{"type":"Feature","id":"_mview_admi_etablissements_administration.fid--1b6ae3e2_1a0db278384_-3788","geometry":{"type":"Point","coordinates":[1.21315667,6.12315]},"geometry_name":"geometry","properties":{"region_nom_bdd":"Maritime","prefecture_nom_bdd":"Golfe","commune_nom_bdd":"Golfe 4","canton_nom_bdd":"Amoutivé","nom_localite":"Quartier Administratif","etablissement_nom":"Direction Régionale des Sports et des Loisirs (DRSL-GL) - Lomé Golfe","etab_adr":"Direction Régionale des Sports et des Loisirs (DRSL-GL) - Lomé Golfe, Quartier Administratif, Amoutivé, Golfe 4","ouverture_jour":"{lundi,Mardi,Mercredi,Jeudi,Vendredi}","ministere_tutelle":"MSL"}},{"type":"Feature","id":"_mview_admi_etablissements_administration.fid--1b6ae3e2_1a0db278384_-3787","geometry":{"type":"Point","coordinates":[1.04527726,9.94883236]},"geometry_name":"geometry","properties":{"region_nom_bdd":"Kara","prefecture_nom_bdd":"Kéran","commune_nom_bdd":"Kéran 1","canton_nom_bdd":"Kantè","nom_localite":"Kantè","etablissement_nom":"Inspection Préfectorale des Sports et des Loisirs (IPSL) - Kéran","etab_adr":"Inspection Préfectorale des Sports et des Loisirs (IPSL) - Kéran, Kantè, Kantè, Kéran 1","ouverture_jour":"{lundi,Mardi,Mercredi,Jeudi,Vendredi}","ministere_tutelle":"MSL"}},{"type":"Feature","id":"_mview_admi_etablissements_administration.fid--1b6ae3e2_1a0db278384_-3786","geometry":{"type":"Point","coordinates":[0.01524497,11.09680164]},"geometry_name":"geometry","properties":{"region_nom_bdd":"Savanes","prefecture_nom_bdd":"Cinkassé","commune_nom_bdd":"Cinkassé 1","canton_nom_bdd":"Cinkassé","nom_localite":"Cinkasse","etablissement_nom":"Inspection Préfectorale des Sports et des Loisirs (IPSL) - Cinkasse","etab_adr":"Inspection Préfectorale des Sports et des Loisirs (IPSL) - Cinkasse, Cinkasse, Boadé, Cinkassé 1","ouverture_jour":"{lundi,Mardi,Mercredi,Jeudi,Vendredi}","ministere_tutelle":"MSL"}},{"type":"Feature","id":"_mview_admi_etablissements_administration.fid--1b6ae3e2_1a0db278384_-3785","geometry":{"type":"Point","coordinates":[0.47021498,10.35284952]},"geometry_name":"geometry","properties":{"region_nom_bdd":"Savanes","prefecture_nom_bdd":"Oti","commune_nom_bdd":"Oti 1","canton_nom_bdd":"Mango","nom_localite":"Koko","etablissement_nom":"Inspection Préfectorale des Sports et des Loisirs (IPSL) - Oti","etab_adr":"Inspection Préfectorale des Sports et des Loisirs (IPSL) - Oti, Koko, Mango, Oti 1","ouverture_jour":"{lundi,Mardi,Mercredi,Jeudi,Vendredi}","ministere_tutelle":"MSL"}},{"type":"Feature","id":"_mview_admi_etablissements_administration.fid--1b6ae3e2_1a0db278384_-3784","geometry":{"type":"Point","coordinates":[1.2110622,6.42652418]},"geometry_name":"geometry","properties":{"region_nom_bdd":"Maritime","prefecture_nom_bdd":"Zio","commune_nom_bdd":"Zio 1","canton_nom_bdd":"Tsévié","nom_localite":"Ndanyi","etablissement_nom":"Inspection Préfectorale des Sports et des Loisirs (IPSL) - Zio","etab_adr":"Inspection Préfectorale des Sports et des Loisirs (IPSL) - Zio, Ndanyi, Tsévié, Zio 1","ouverture_jour":"{lundi,Mardi,Mercredi,Jeudi,Vendredi}","ministere_tutelle":"MSL"}},{"type":"Feature","id":"_mview_admi_etablissements_administration.fid--1b6ae3e2_1a0db278384_-3783","geometry":{"type":"Point","coordinates":[1.21291788,6.12279163]},"geometry_name":"geometry","properties":{"region_nom_bdd":"Maritime","prefecture_nom_bdd":"Golfe","commune_nom_bdd":"Golfe 4","canton_nom_bdd":"Amoutivé","nom_localite":"Quartier Administratif","etablissement_nom":"Inspection Préfectorale des Sports et des Loisirs (IPSL) - Lomé Commune","etab_adr":"Inspection Préfectorale des Sports et des Loisirs (IPSL) - Lomé Commune, Quartier Administratif, Amoutivé, Golfe 4","ouverture_jour":"{lundi,Mardi,Mercredi,Jeudi,Vendredi}","ministere_tutelle":"MSL"}},{"type":"Feature","id":"_mview_admi_etablissements_administration.fid--1b6ae3e2_1a0db278384_-3782","geometry":{"type":"Point","coordinates":[1.21298424,6.1227414]},"geometry_name":"geometry","properties":{"region_nom_bdd":"Maritime","prefecture_nom_bdd":"Golfe","commune_nom_bdd":"Golfe 4","canton_nom_bdd":"Amoutivé","nom_localite":"Quartier Administratif","etablissement_nom":"Inspection Préfectorale des Sports et des Loisirs (IPSL) - Lomé Golfe","etab_adr":"Inspection Préfectorale des Sports et des Loisirs (IPSL) - Lomé Golfe, Quartier Administratif, Amoutivé, Golfe 4, BP3193 Lomé","ouverture_jour":"{lundi,Mardi,Mercredi,Jeudi,Vendredi}","ministere_tutelle":"MSL"}},{"type":"Feature","id":"_mview_admi_etablissements_administration.fid--1b6ae3e2_1a0db278384_-3781","geometry":{"type":"Point","coordinates":[1.21110364,6.42653548]},"geometry_name":"geometry","properties":{"region_nom_bdd":"Maritime","prefecture_nom_bdd":"Zio","commune_nom_bdd":"Zio 1","canton_nom_bdd":"Tsévié","nom_localite":"Ndanyi","etablissement_nom":"Direction Régionale des Sports et des Loisirs (DRSL-M) - Région Maritime","etab_adr":"Direction Régionale des Sports et des Loisirs (DRSL-M) - Région Maritime, Ndanyi, Tsévié, Zio 1","ouverture_jour":"{lundi,Mardi,Mercredi,Jeudi,Vendredi}","ministere_tutelle":"MSL"}},{"type":"Feature","id":"_mview_admi_etablissements_administration.fid--1b6ae3e2_1a0db278384_-3780","geometry":{"type":"Point","coordinates":[0.690035,7.19639167]},"geometry_name":"geometry","properties":{"region_nom_bdd":"Plateaux","prefecture_nom_bdd":"Danyi","commune_nom_bdd":"Danyi 1","canton_nom_bdd":"Danyi-Atigba","nom_localite":"Apeyeme","etablissement_nom":"Inspection Préfectorale des Sports et des Loisirs (IPSL) - Danyi","etab_adr":"Inspection Préfectorale des Sports et des Loisirs (IPSL) - Danyi, Apeyeme, Danyi-Atigba, Danyi 1","ouverture_jour":"{Vendredi,Jeudi,Mercredi,Mardi,lundi}","ministere_tutelle":"MSL"}},{"type":"Feature","id":"_mview_admi_etablissements_administration.fid--1b6ae3e2_1a0db278384_-377f","geometry":{"type":"Point","coordinates":[1.13098667,7.52617833]},"geometry_name":"geometry","properties":{"region_nom_bdd":"Plateaux","prefecture_nom_bdd":"Ogou","commune_nom_bdd":"Ogou 1","canton_nom_bdd":"Gnagna","nom_localite":"Bababame","etablissement_nom":"Direction Régionale des Sports et des Loisirs (DRSL-P) - Région Plateaux","etab_adr":"Direction Régionale des Sports et des Loisirs (DRSL-P) - Région Plateaux, Bababame, Gnagna, Ogou 1","ouverture_jour":"{lundi,Mardi,Mercredi,Jeudi,Vendredi}","ministere_tutelle":"MSL"}},{"type":"Feature","id":"_mview_admi_etablissements_administration.fid--1b6ae3e2_1a0db278384_-377e","geometry":{"type":"Point","coordinates":[1.21216209,6.1227602]},"geometry_name":"geometry","properties":{"region_nom_bdd":"Maritime","prefecture_nom_bdd":"Golfe","commune_nom_bdd":"Golfe 4","canton_nom_bdd":"Amoutivé","nom_localite":"Quartier Administratif","etablissement_nom":"Comité National Olympique du Togo (CNO-T)","etab_adr":"Comité National Olympique du Togo (CNO-T), Quartier Administratif, Amoutivé, Golfe 4, 01BP1320 Lomé","ouverture_jour":"{lundi,Mardi,Mercredi,Jeudi,Vendredi}","ministere_tutelle":"MSL"}},{"type":"Feature","id":"_mview_admi_etablissements_administration.fid--1b6ae3e2_1a0db278384_-377d","geometry":{"type":"Point","coordinates":[1.21224833,6.12220333]},"geometry_name":"geometry","properties":{"region_nom_bdd":"Maritime","prefecture_nom_bdd":"Golfe","commune_nom_bdd":"Golfe 4","canton_nom_bdd":"Amoutivé","nom_localite":"Quartier Administratif","etablissement_nom":"Direction des Sports Scolaire et Universitaire (MSL/DSSU)","etab_adr":"Direction des Sports Scolaire et Universitaire (MSL/DSSU), Quartier Administratif, Amoutivé, Golfe 4, BP2809 Lomé","ouverture_jour":"{lundi,Mardi,Mercredi,Jeudi,Vendredi}","ministere_tutelle":"MSL"}},{"type":"Feature","id":"_mview_admi_etablissements_administration.fid--1b6ae3e2_1a0db278384_-377c","geometry":{"type":"Point","coordinates":[1.20485333,7.77003833]},"geometry_name":"geometry","properties":{"region_nom_bdd":"Plateaux","prefecture_nom_bdd":"Anié","commune_nom_bdd":"Anié 1","canton_nom_bdd":"Anié","nom_localite":"Anie","etablissement_nom":"Inspection Préfectorale des Sports et des Loisirs (IPSL) - Anié","etab_adr":"Inspection Préfectorale des Sports et des Loisirs (IPSL) - Anié, Anie, Anié, Anié 1","ouverture_jour":"{lundi,Mardi,Mercredi,Jeudi,Vendredi}","ministere_tutelle":"MSL"}},{"type":"Feature","id":"_mview_admi_etablissements_administration.fid--1b6ae3e2_1a0db278384_-377b","geometry":{"type":"Point","coordinates":[1.21200687,6.12221803]},"geometry_name":"geometry","properties":{"region_nom_bdd":"Maritime","prefecture_nom_bdd":"Golfe","commune_nom_bdd":"Golfe 4","canton_nom_bdd":"Amoutivé","nom_localite":"Quartier Administratif","etablissement_nom":"Direction des Sports et de l'Education Physique (MSL/DSEP)","etab_adr":"Direction des Sports et de l'Education Physique (MSL/DSEP), Quartier Administratif, Amoutivé, Golfe 4, BP1251 Lomé","ouverture_jour":"{lundi,Mardi,Mercredi,Jeudi,Vendredi}","ministere_tutelle":"MSL"}},{"type":"Feature","id":"_mview_admi_etablissements_administration.fid--1b6ae3e2_1a0db278384_-377a","geometry":{"type":"Point","coordinates":[0.7364476,6.84391301]},"geometry_name":"geometry","properties":{"region_nom_bdd":"Plateaux","prefecture_nom_bdd":"Agou","commune_nom_bdd":"Agou 1","canton_nom_bdd":"Agou-Tavié","nom_localite":"Akoumawou","etablissement_nom":"Inspection Préfectorale des Sports et des Loisirs (IPSL) - Agou","etab_adr":"Inspection Préfectorale des Sports et des Loisirs (IPSL) - Agou, Akoumawou, Agou-Tavié, Agou 1","ouverture_jour":"Nsp","ministere_tutelle":"MSL"}},{"type":"Feature","id":"_mview_admi_etablissements_administration.fid--1b6ae3e2_1a0db278384_-3779","geometry":{"type":"Point","coordinates":[1.19252833,9.554175]},"geometry_name":"geometry","properties":{"region_nom_bdd":"Kara","prefecture_nom_bdd":"Kozah","commune_nom_bdd":"Kozah 1","canton_nom_bdd":"Commune De Kara","nom_localite":"Nsp","etablissement_nom":"Inspection Préfectorale des Sports et des Loisirs (IPSL) - Kozah","etab_adr":"Inspection Préfectorale des Sports et des Loisirs (IPSL) - Kozah, , Commune De Kara, Kozah 1, BP29","ouverture_jour":"{Vendredi,Jeudi,Mercredi,Mardi,lundi}","ministere_tutelle":"MSL"}},{"type":"Feature","id":"_mview_admi_etablissements_administration.fid--1b6ae3e2_1a0db278384_-3778","geometry":{"type":"Point","coordinates":[0.60297975,7.58358278]},"geometry_name":"geometry","properties":{"region_nom_bdd":"Plateaux","prefecture_nom_bdd":"Wawa","commune_nom_bdd":"Wawa 1","canton_nom_bdd":"Badou","nom_localite":"Badou","etablissement_nom":"Inspection Préfectorale des Sports et des Loisirs (IPSL) - Wawa","etab_adr":"Inspection Préfectorale des Sports et des Loisirs (IPSL) - Wawa, Badou, Badou, Wawa 1","ouverture_jour":"{lundi,Mardi,Mercredi,Jeudi,Vendredi}","ministere_tutelle":"MSL"}},{"type":"Feature","id":"_mview_admi_etablissements_administration.fid--1b6ae3e2_1a0db278384_-3777","geometry":{"type":"Point","coordinates":[1.5346816,6.3345268]},"geometry_name":"geometry","properties":{"region_nom_bdd":"Maritime","prefecture_nom_bdd":"Vo","commune_nom_bdd":"Vo 1","canton_nom_bdd":"Vogan","nom_localite":"Vogan","etablissement_nom":"Inspection Préfectorale des Sports et des Loisirs (IPSL) - Vo","etab_adr":"Inspection Préfectorale des Sports et des Loisirs (IPSL) - Vo, Vogan, Vogan, Vo 1","ouverture_jour":"{lundi,Mardi,Mercredi,Jeudi,Vendredi}","ministere_tutelle":"MSL"}},{"type":"Feature","id":"_mview_admi_etablissements_administration.fid--1b6ae3e2_1a0db278384_-3776","geometry":{"type":"Point","coordinates":[0.78350131,9.26684937]},"geometry_name":"geometry","properties":{"region_nom_bdd":"Kara","prefecture_nom_bdd":"Bassar","commune_nom_bdd":"Bassar 1","canton_nom_bdd":"Bassar","nom_localite":"Bassar","etablissement_nom":"Inspection Préfectorale des Sports et des Loisirs (IPSL) - Bassar","etab_adr":"Inspection Préfectorale des Sports et des Loisirs (IPSL) - Bassar, Bassar, Bassar, Bassar 1","ouverture_jour":"{lundi,Mardi,Mercredi,Jeudi,Vendredi}","ministere_tutelle":"MSL"}},{"type":"Feature","id":"_mview_admi_etablissements_administration.fid--1b6ae3e2_1a0db278384_-3775","geometry":{"type":"Point","coordinates":[1.41887823,9.02036031]},"geometry_name":"geometry","properties":{"region_nom_bdd":"Centrale","prefecture_nom_bdd":"Tchamba","commune_nom_bdd":"Tchamba 1","canton_nom_bdd":"Tchamba","nom_localite":"Kitome","etablissement_nom":"Inspection Préfectorale des Sports et des Loisirs (IPSL) - Tchamba","etab_adr":"Inspection Préfectorale des Sports et des Loisirs (IPSL) - Tchamba, Kitome, Tchamba, Tchamba 1","ouverture_jour":"{lundi,Mardi,Mercredi,Jeudi,Vendredi}","ministere_tutelle":"MSL"}},{"type":"Feature","id":"_mview_admi_etablissements_administration.fid--1b6ae3e2_1a0db278384_-3774","geometry":{"type":"Point","coordinates":[1.28003667,7.94539333]},"geometry_name":"geometry","properties":{"region_nom_bdd":"Plateaux","prefecture_nom_bdd":"Est-Mono","commune_nom_bdd":"Est-Mono 1","canton_nom_bdd":"Elavagnon","nom_localite":"Kossi Kope","etablissement_nom":"Inspection Préfectorale des Sports et des Loisirs (IPSL) - Moyen-Mono","etab_adr":"Inspection Préfectorale des Sports et des Loisirs (IPSL) - Moyen-Mono, Kossi Kope, Elavagnon, Est-Mono 1","ouverture_jour":"{lundi,Mardi,Mercredi,Jeudi,Vendredi}","ministere_tutelle":"MSL"}},{"type":"Feature","id":"_mview_admi_etablissements_administration.fid--1b6ae3e2_1a0db278384_-3773","geometry":{"type":"Point","coordinates":[1.24116119,9.34740904]},"geometry_name":"geometry","properties":{"region_nom_bdd":"Kara","prefecture_nom_bdd":"Assoli","commune_nom_bdd":"Assoli 1","canton_nom_bdd":"Bafilo","nom_localite":"Agoudadè","etablissement_nom":"Inspection Préfectorale des Sports et des Loisirs (IPSL) - Assoli","etab_adr":"Inspection Préfectorale des Sports et des Loisirs (IPSL) - Assoli, Agoudadè, Bafilo, Assoli 1","ouverture_jour":"{lundi,Mardi,Mercredi,Jeudi,Vendredi}","ministere_tutelle":"MSL"}},{"type":"Feature","id":"_mview_admi_etablissements_administration.fid--1b6ae3e2_1a0db278384_-3772","geometry":{"type":"Point","coordinates":[1.21976806,6.12165981]},"geometry_name":"geometry","properties":{"region_nom_bdd":"Maritime","prefecture_nom_bdd":"Golfe","commune_nom_bdd":"Golfe 4","canton_nom_bdd":"Amoutivé","nom_localite":"Quartier Administratif","etablissement_nom":"Ministère des Sports et des loisirs (MSL)","etab_adr":"Ministère des Sports et des loisirs (MSL), Quartier Administratif, Amoutivé, Golfe 4","ouverture_jour":"{lundi,Mardi,Mercredi,Jeudi,Vendredi}","ministere_tutelle":"MSL"}},{"type":"Feature","id":"_mview_admi_etablissements_administration.fid--1b6ae3e2_1a0db278384_-3771","geometry":{"type":"Point","coordinates":[1.49679527,6.59623623]},"geometry_name":"geometry","properties":{"region_nom_bdd":"Maritime","prefecture_nom_bdd":"Yoto","commune_nom_bdd":"Yoto 1","canton_nom_bdd":"Tabligbo","nom_localite":"Tabligbo","etablissement_nom":"Inspection Préfectorale des Sports et des Loisirs (IPSL) - Yoto","etab_adr":"Inspection Préfectorale des Sports et des Loisirs (IPSL) - Yoto, Cite A, non loin de la Direction Générale WACEM, Tabligbo, Tabligbo, Yoto 1","ouverture_jour":"{lundi,Mardi,Mercredi,Jeudi,Vendredi}","ministere_tutelle":"MSL"}},{"type":"Feature","id":"_mview_admi_etablissements_administration.fid--1b6ae3e2_1a0db278384_-3770","geometry":{"type":"Point","coordinates":[0.73098902,7.11555089]},"geometry_name":"geometry","properties":{"region_nom_bdd":"Plateaux","prefecture_nom_bdd":"Kpélé","commune_nom_bdd":"Kpélé 1","canton_nom_bdd":"Kpélé-Novivé","nom_localite":"Atime","etablissement_nom":"Inspection Préfectorale des Sports et des Loisirs (IPSL) - Kpélé","etab_adr":"Inspection Préfectorale des Sports et des Loisirs (IPSL) - Kpélé, Atime, Kpélé-Novivé, Kpélé 1","ouverture_jour":"{lundi,Mardi,Mercredi,Jeudi,Vendredi}","ministere_tutelle":"MSL"}},{"type":"Feature","id":"_mview_admi_etablissements_administration.fid--1b6ae3e2_1a0db278384_-376f","geometry":{"type":"Point","coordinates":[1.16684065,6.95504968]},"geometry_name":"geometry","properties":{"region_nom_bdd":"Plateaux","prefecture_nom_bdd":"Haho","commune_nom_bdd":"Haho 1","canton_nom_bdd":"Notsé","nom_localite":"Notsé","etablissement_nom":"Inspection Préfectorale des Sports et des Loisirs (IPSL) - Haho","etab_adr":"Inspection Préfectorale des Sports et des Loisirs (IPSL) - Haho, Notsé, Notsé, Haho 1","ouverture_jour":"{lundi,Mardi,Mercredi,Jeudi,Vendredi}","ministere_tutelle":"MSL"}},{"type":"Feature","id":"_mview_admi_etablissements_administration.fid--1b6ae3e2_1a0db278384_-376e","geometry":{"type":"Point","coordinates":[1.62028406,7.01994451]},"geometry_name":"geometry","properties":{"region_nom_bdd":"Plateaux","prefecture_nom_bdd":"Moyen-Mono","commune_nom_bdd":"Moyen-Mono 1","canton_nom_bdd":"Tohoun","nom_localite":"Ayivime","etablissement_nom":"Inspection Préfectorale des Sports et des Loisirs (IPSL) - Est-Mono","etab_adr":"Inspection Préfectorale des Sports et des Loisirs (IPSL) - Est-Mono, Ayivime, Tohoun, Moyen-Mono 1","ouverture_jour":"{lundi,Mardi,Mercredi,Jeudi,Vendredi}","ministere_tutelle":"MSL"}},{"type":"Feature","id":"_mview_admi_etablissements_administration.fid--1b6ae3e2_1a0db278384_-376d","geometry":{"type":"Point","coordinates":[1.21980316,6.12130801]},"geometry_name":"geometry","properties":{"region_nom_bdd":"Maritime","prefecture_nom_bdd":"Golfe","commune_nom_bdd":"Golfe 4","canton_nom_bdd":"Amoutivé","nom_localite":"Quartier Administratif","etablissement_nom":"Comité National Antidopage (CONAD-Togo)","etab_adr":"Comité National Antidopage (CONAD-Togo), Quartier Administratif, Amoutivé, Golfe 4, BP3193 Lomé","ouverture_jour":"{Vendredi,Jeudi,Mercredi,Mardi,lundi}","ministere_tutelle":"MSL"}},{"type":"Feature","id":"_mview_admi_etablissements_administration.fid--1b6ae3e2_1a0db278384_-376c","geometry":{"type":"Point","coordinates":[0.89922761,7.45145199]},"geometry_name":"geometry","properties":{"region_nom_bdd":"Plateaux","prefecture_nom_bdd":"Amou","commune_nom_bdd":"Amou 1","canton_nom_bdd":"Amlamé (Ouma)","nom_localite":"Agadji","etablissement_nom":"Inspection Préfectorale des Sports et des Loisirs (IPSL) - Amou","etab_adr":"Inspection Préfectorale des Sports et des Loisirs (IPSL) - Amou, Agadji, Amlamé (Ouma), Amou 1","ouverture_jour":"{lundi,Mardi,Mercredi,Jeudi,Vendredi}","ministere_tutelle":"MSL"}},{"type":"Feature","id":"_mview_admi_etablissements_administration.fid--1b6ae3e2_1a0db278384_-376b","geometry":{"type":"Point","coordinates":[1.56618512,6.22703102]},"geometry_name":"geometry","properties":{"region_nom_bdd":"Maritime","prefecture_nom_bdd":"Lacs","commune_nom_bdd":"Lacs 1","canton_nom_bdd":"Aného","nom_localite":"Aneho","etablissement_nom":"Inspection Préfectorale des Sports et des Loisirs (IPSL) - Lacs","etab_adr":"Inspection Préfectorale des Sports et des Loisirs (IPSL) - Lacs, Aneho, Aného, Lacs 1","ouverture_jour":"Nsp","ministere_tutelle":"MSL"}},{"type":"Feature","id":"_mview_admi_etablissements_administration.fid--1b6ae3e2_1a0db278384_-376a","geometry":{"type":"Point","coordinates":[1.63440381,6.49424333]},"geometry_name":"geometry","properties":{"region_nom_bdd":"Maritime","prefecture_nom_bdd":"Bas-Mono","commune_nom_bdd":"Bas-Mono 1","canton_nom_bdd":"Afagnangan","nom_localite":"Afagnangan","etablissement_nom":"Inspection Préfectorale des Sports et des Loisirs (IPSL) - Bas-Mono","etab_adr":"Inspection Préfectorale des Sports et des Loisirs (IPSL) - Bas-Mono, Afagnangan, Afagnangan, Bas-Mono 1","ouverture_jour":"{Vendredi,Jeudi,Mercredi,Mardi,lundi}","ministere_tutelle":"MSL"}},{"type":"Feature","id":"_mview_admi_etablissements_administration.fid--1b6ae3e2_1a0db278384_-3769","geometry":{"type":"Point","coordinates":[0.20534194,10.6742331]},"geometry_name":"geometry","properties":{"region_nom_bdd":"Savanes","prefecture_nom_bdd":"Tandjoaré","commune_nom_bdd":"Tandjoaré 1","canton_nom_bdd":"Nandoga","nom_localite":"Nandoga","etablissement_nom":"Inspection Préfectorale des Sports et des Loisirs (IPSL) - Tandjoare","etab_adr":"Inspection Préfectorale des Sports et des Loisirs (IPSL) - Tandjoare, Nandoga, Nandoga, Tandjoaré 1","ouverture_jour":"Nsp","ministere_tutelle":"MSL"}},{"type":"Feature","id":"_mview_admi_etablissements_administration.fid--1b6ae3e2_1a0db278384_-3768","geometry":{"type":"Point","coordinates":[1.2389445,6.2016643]},"geometry_name":"geometry","properties":{"region_nom_bdd":"Maritime","prefecture_nom_bdd":"Golfe","commune_nom_bdd":"Golfe 3","canton_nom_bdd":"Bè-Ouest","nom_localite":"Kegue","etablissement_nom":"Centre du Développement Africain Pour l'Athlétisme (CDAA)","etab_adr":"Centre du Développement Africain Pour l'Athlétisme (CDAA), Kegue, Bè-Ouest, Golfe 3","ouverture_jour":"Nsp","ministere_tutelle":"MSL"}},{"type":"Feature","id":"_mview_admi_etablissements_administration.fid--1b6ae3e2_1a0db278384_-3767","geometry":{"type":"Point","coordinates":[1.20412184,9.55161887]},"geometry_name":"geometry","properties":{"region_nom_bdd":"Kara","prefecture_nom_bdd":"Kozah","commune_nom_bdd":"Kozah 1","canton_nom_bdd":"Commune De Kara","nom_localite":"Tomde","etablissement_nom":"Direction Régionale des Sports et des Loisirs (DRSL-K) - Région Kara","etab_adr":"Direction Régionale des Sports et des Loisirs (DRSL-K) - Région Kara, Tomde, Commune De Kara, Kozah 1","ouverture_jour":"Nsp","ministere_tutelle":"MSL"}},{"type":"Feature","id":"_mview_admi_etablissements_administration.fid--1b6ae3e2_1a0db278384_-3766","geometry":{"type":"Point","coordinates":[0.92045043,6.44077233]},"geometry_name":"geometry","properties":{"region_nom_bdd":"Maritime","prefecture_nom_bdd":"Avé","commune_nom_bdd":"Avé 1","canton_nom_bdd":"Kévé","nom_localite":"Keve","etablissement_nom":"Inspection Préfectorale des Sports et des Loisirs (IPSL) - Avé","etab_adr":"Inspection Préfectorale des Sports et des Loisirs (IPSL) - Avé, Keve, Kévé, Avé 1","ouverture_jour":"{lundi,Mardi,Mercredi,Jeudi,Vendredi}","ministere_tutelle":"MSL"}},{"type":"Feature","id":"_mview_admi_etablissements_administration.fid--1b6ae3e2_1a0db278384_-3765","geometry":{"type":"Point","coordinates":[1.1995873,9.55311039]},"geometry_name":"geometry","properties":{"region_nom_bdd":"Kara","prefecture_nom_bdd":"Kozah","commune_nom_bdd":"Kozah 1","canton_nom_bdd":"Commune De Kara","nom_localite":"Tomde","etablissement_nom":"League Régionale de Football de Kara","etab_adr":"League Régionale de Football de Kara, Tomde, Commune De Kara, Kozah 1","ouverture_jour":"Nsp","ministere_tutelle":"MSL"}},{"type":"Feature","id":"_mview_admi_etablissements_administration.fid--1b6ae3e2_1a0db278384_-3764","geometry":{"type":"Point","coordinates":[1.14760964,8.98377159]},"geometry_name":"geometry","properties":{"region_nom_bdd":"Centrale","prefecture_nom_bdd":"Tchaoudjo","commune_nom_bdd":"Tchaoudjo 1","canton_nom_bdd":"Sokodè (Komah)","nom_localite":"Didawoure","etablissement_nom":"Direction Régionale des Sports et des Loisirs (DRSL-C) - Région Centrale","etab_adr":"Nsp","ouverture_jour":"{lundi,Vendredi,Mercredi,Mardi,Jeudi}","ministere_tutelle":"MSL"}},{"type":"Feature","id":"_mview_admi_etablissements_administration.fid--1b6ae3e2_1a0db278384_-3763","geometry":{"type":"Point","coordinates":[1.14764673,8.98380797]},"geometry_name":"geometry","properties":{"region_nom_bdd":"Centrale","prefecture_nom_bdd":"Tchaoudjo","commune_nom_bdd":"Tchaoudjo 1","canton_nom_bdd":"Sokodè (Komah)","nom_localite":"Kpangalam","etablissement_nom":"Inspection Préfectorale des Sports et des Loisirs (IPSL) - Tchaoudjo","etab_adr":"Nsp","ouverture_jour":"{Jeudi,Mardi,Mercredi,Vendredi,lundi}","ministere_tutelle":"MSL"}},{"type":"Feature","id":"_mview_admi_etablissements_administration.fid--1b6ae3e2_1a0db278384_-3762","geometry":{"type":"Point","coordinates":[1.23767333,6.19458167]},"geometry_name":"geometry","properties":{"region_nom_bdd":"Maritime","prefecture_nom_bdd":"Golfe","commune_nom_bdd":"Golfe 3","canton_nom_bdd":"Bè-Ouest","nom_localite":"Kegué","etablissement_nom":"Fédération Togolaise de Football (FTF)","etab_adr":"N/a","ouverture_jour":"{Dimanche,lundi,Vendredi,Mercredi,Samedi,Mardi,Jeudi}","ministere_tutelle":"MSL"}},{"type":"Feature","id":"_mview_admi_etablissements_administration.fid--1b6ae3e2_1a0db278384_-3761","geometry":{"type":"Point","coordinates":[0.19775,10.866705]},"geometry_name":"geometry","properties":{"region_nom_bdd":"Savanes","prefecture_nom_bdd":"Tône","commune_nom_bdd":"Tône 1","canton_nom_bdd":"Dapaong","nom_localite":"Kombonloaga","etablissement_nom":"Direction Régionale des Sports et des Loisirs(DRSL-S) - Region Savanes","etab_adr":"N/a","ouverture_jour":"{Jeudi,Mardi,Mercredi,Vendredi,lundi}","ministere_tutelle":"MSL"}},{"type":"Feature","id":"_mview_admi_etablissements_administration.fid--1b6ae3e2_1a0db278384_-3760","geometry":{"type":"Point","coordinates":[1.2121111,6.122222]},"geometry_name":"geometry","properties":{"region_nom_bdd":"Maritime","prefecture_nom_bdd":"Golfe","commune_nom_bdd":"Golfe 4","canton_nom_bdd":"Amoutivé","nom_localite":"Quartier Administratif","etablissement_nom":"Direction des sports scolaires et universitaires","etab_adr":"Bord de mer, derrière le comité olympique","ouverture_jour":"{Jeudi,Mardi,Samedi,Mercredi,Vendredi,lundi}","ministere_tutelle":"MSL"}},{"type":"Feature","id":"_mview_admi_etablissements_administration.fid--1b6ae3e2_1a0db278384_-375f","geometry":{"type":"Point","coordinates":[1.21209509,6.12220083]},"geometry_name":"geometry","properties":{"region_nom_bdd":"Maritime","prefecture_nom_bdd":"Golfe","commune_nom_bdd":"Golfe 4","canton_nom_bdd":"Amoutivé","nom_localite":"Quartier Administratif","etablissement_nom":"Direction des sports et de l’éducation physique MSL","etab_adr":"Bord de mer, derrière le comité olympique","ouverture_jour":"{lundi,Vendredi,Mercredi,Samedi,Mardi,Jeudi}","ministere_tutelle":"MSL"}},{"type":"Feature","id":"_mview_admi_etablissements_administration.fid--1b6ae3e2_1a0db278384_-375e","geometry":{"type":"Point","coordinates":[1.22295556,6.13339565]},"geometry_name":"geometry","properties":{"region_nom_bdd":"Maritime","prefecture_nom_bdd":"Golfe","commune_nom_bdd":"Golfe 4","canton_nom_bdd":"Amoutivé","nom_localite":"Commissariat Central","etablissement_nom":"Direction des Loisirs","etab_adr":"Dans l’enceinte de l’ENA","ouverture_jour":"{lundi,Vendredi,Mercredi,Samedi,Mardi,Jeudi}","ministere_tutelle":"MSL"}},{"type":"Feature","id":"_mview_admi_etablissements_administration.fid--1b6ae3e2_1a0db278384_-375d","geometry":{"type":"Point","coordinates":[1.24032959,6.20233139]},"geometry_name":"geometry","properties":{"region_nom_bdd":"Maritime","prefecture_nom_bdd":"Golfe","commune_nom_bdd":"Golfe 3","canton_nom_bdd":"Bè-Ouest","nom_localite":"Kegue","etablissement_nom":"Direction des infrastructures ,des équipements sportifs et des Loisirs","etab_adr":"Stade de Kegue","ouverture_jour":"{lundi,Vendredi,Mercredi,Samedi,Mardi,Jeudi}","ministere_tutelle":"MSL"}},{"type":"Feature","id":"_mview_admi_etablissements_administration.fid--1b6ae3e2_1a0db278384_-375c","geometry":{"type":"Point","coordinates":[1.22007685,6.12198091]},"geometry_name":"geometry","properties":{"region_nom_bdd":"Maritime","prefecture_nom_bdd":"Golfe","commune_nom_bdd":"Golfe 4","canton_nom_bdd":"Amoutivé","nom_localite":"Quartier Administratif","etablissement_nom":"Direction des Affaires et Financières (DAF)","etab_adr":"Bord de mer, Cabinet","ouverture_jour":"{Jeudi,lundi,Vendredi,Mercredi,Samedi,Mardi}","ministere_tutelle":"MSL"}},{"type":"Feature","id":"_mview_admi_etablissements_administration.fid--1b6ae3e2_1a0db278384_-375b","geometry":{"type":"Point","coordinates":[1.22008321,6.12178868]},"geometry_name":"geometry","properties":{"region_nom_bdd":"Maritime","prefecture_nom_bdd":"Golfe","commune_nom_bdd":"Golfe 4","canton_nom_bdd":"Amoutivé","nom_localite":"Quartier Administratif","etablissement_nom":"Direction des études et de la planification","etab_adr":"Bord de mer, Cabinet","ouverture_jour":"{lundi,Vendredi,Mercredi,Samedi,Mardi,Jeudi}","ministere_tutelle":"MSL"}}],"totalFeatures":56,"numberMatched":56,"numberReturned":56,"timeStamp":"2026-09-26T00:40:51.309Z","crs":{"type":"name","properties":{"name":"urn:ogc:def:crs:EPSG::4326"}}}