{"type":"FeatureCollection","features":[{"type":"Feature","id":"_mview_admi_etablissements_administration.fid--1b6ae3e2_1a0db278384_-37cb","geometry":{"type":"Point","coordinates":[0.60668274,9.69335625]},"geometry_name":"geometry","properties":{"region_nom_bdd":"Kara","prefecture_nom_bdd":"Dankpen","commune_nom_bdd":"Dankpen 1","canton_nom_bdd":"Guérin-Kouka","nom_localite":"Guerin-kouka","etablissement_nom":"Direction Préfectorale de la Santé (DPS) - Dankpen","etab_adr":"Direction Préfectorale de la Santé (DPS) - Dankpen, Guerin-Kouka, Guérin-Kouka, Dankpen 1","ouverture_jour":"{lundi,Mardi,Mercredi,Jeudi,Vendredi}","ministere_tutelle":"MSHPAUS"}},{"type":"Feature","id":"_mview_admi_etablissements_administration.fid--1b6ae3e2_1a0db278384_-37ca","geometry":{"type":"Point","coordinates":[0.73023576,7.13176229]},"geometry_name":"geometry","properties":{"region_nom_bdd":"Plateaux","prefecture_nom_bdd":"Kpélé","commune_nom_bdd":"Kpélé 1","canton_nom_bdd":"Kpélé-Novivé","nom_localite":"Adeta","etablissement_nom":"Direction Préfectorale de la Santé (DPS) - Kpélé","etab_adr":"Direction Préfectorale de la Santé (DPS) - Kpélé, Adeta, Kpélé-Novivé, Kpélé 1","ouverture_jour":"{Dimanche,Samedi,Vendredi,Jeudi,Mercredi,Mardi,lundi}","ministere_tutelle":"MSHPAUS"}},{"type":"Feature","id":"_mview_admi_etablissements_administration.fid--1b6ae3e2_1a0db278384_-37c9","geometry":{"type":"Point","coordinates":[1.13659258,8.98484068]},"geometry_name":"geometry","properties":{"region_nom_bdd":"Centrale","prefecture_nom_bdd":"Tchaoudjo","commune_nom_bdd":"Tchaoudjo 1","canton_nom_bdd":"Sokodè (Komah)","nom_localite":"Didawere","etablissement_nom":"Service Régional d'Hygiène et d'Assainissement de Base","etab_adr":"Service Régional d'Hygiène et d'Assainissement de Base, Didawere, Sokodè (Komah), Tchaoudjo 1, BP185","ouverture_jour":"{lundi,Mardi,Mercredi,Jeudi,Vendredi}","ministere_tutelle":"MSHPAUS"}},{"type":"Feature","id":"_mview_admi_etablissements_administration.fid--1b6ae3e2_1a0db278384_-37c8","geometry":{"type":"Point","coordinates":[1.15929782,7.506027]},"geometry_name":"geometry","properties":{"region_nom_bdd":"Plateaux","prefecture_nom_bdd":"Ogou","commune_nom_bdd":"Ogou 1","canton_nom_bdd":"Gnagna","nom_localite":"Koeroma","etablissement_nom":"Direction Préfectorale de la Santé (DPS) - Ogou","etab_adr":"Direction Préfectorale de la Santé (DPS) - Ogou, Koeroma, Gnagna, Ogou 1, BP15 Atakpame","ouverture_jour":"{lundi,Mardi,Mercredi,Jeudi,Vendredi}","ministere_tutelle":"MSHPAUS"}},{"type":"Feature","id":"_mview_admi_etablissements_administration.fid--1b6ae3e2_1a0db278384_-37c7","geometry":{"type":"Point","coordinates":[1.62867,6.49524333]},"geometry_name":"geometry","properties":{"region_nom_bdd":"Maritime","prefecture_nom_bdd":"Bas-Mono","commune_nom_bdd":"Bas-Mono 1","canton_nom_bdd":"Afagnangan","nom_localite":"Awassi","etablissement_nom":"Direction Préfectorale de la Santé (DPS) - Bas-Mono","etab_adr":"Direction Préfectorale de la Santé (DPS) - Bas-Mono, Route Nationale d'Afagnan Côté Ouest en face de COMTOGO, Awassi, Afagnangan, Bas-Mono 1","ouverture_jour":"{lundi,Mardi,Mercredi,Jeudi,Vendredi}","ministere_tutelle":"MSHPAUS"}},{"type":"Feature","id":"_mview_admi_etablissements_administration.fid--1b6ae3e2_1a0db278384_-37c6","geometry":{"type":"Point","coordinates":[0.62755768,6.91302161]},"geometry_name":"geometry","properties":{"region_nom_bdd":"Plateaux","prefecture_nom_bdd":"Kloto","commune_nom_bdd":"Kloto 1","canton_nom_bdd":"Agome-Kpalime","nom_localite":"Totsuanyi","etablissement_nom":"Direction Préfectorale de la Santé (DPS) - Kloto","etab_adr":"Direction Préfectorale de la Santé (DPS) - Kloto, Totsuanyi, Agome-Kpalime, Kloto 1, BP613 Kpalime","ouverture_jour":"{lundi,Mardi,Mercredi,Jeudi,Vendredi}","ministere_tutelle":"MSHPAUS"}},{"type":"Feature","id":"_mview_admi_etablissements_administration.fid--1b6ae3e2_1a0db278384_-37c5","geometry":{"type":"Point","coordinates":[1.21285991,6.12231835]},"geometry_name":"geometry","properties":{"region_nom_bdd":"Maritime","prefecture_nom_bdd":"Golfe","commune_nom_bdd":"Golfe 4","canton_nom_bdd":"Amoutivé","nom_localite":"Quartier Administratif","etablissement_nom":"Direction de l'Hygiène et de l'Assainissement de Base (MSHPAUS/DHAB)","etab_adr":"Direction de l'Hygiène et de l'Assainissement de Base (MSHPAUS/DHAB), Quartier Administratif, Amoutivé, Golfe 4, BP336 Lomé","ouverture_jour":"{lundi,Mardi,Mercredi,Jeudi,Vendredi}","ministere_tutelle":"MSHPAUS"}},{"type":"Feature","id":"_mview_admi_etablissements_administration.fid--1b6ae3e2_1a0db278384_-37c4","geometry":{"type":"Point","coordinates":[0.98765662,8.3318001]},"geometry_name":"geometry","properties":{"region_nom_bdd":"Centrale","prefecture_nom_bdd":"Blitta","commune_nom_bdd":"Blitta 1","canton_nom_bdd":"Blitta","nom_localite":"Blitta Gare","etablissement_nom":"Direction Préfectorale de la Santé (DPS) - Blitta","etab_adr":"Direction Préfectorale de la Santé (DPS) - Blitta, Blitta Gare, Blitta, Blitta 1, BP08 Blitta","ouverture_jour":"{lundi,Mardi,Mercredi,Jeudi,Vendredi}","ministere_tutelle":"MSHPAUS"}},{"type":"Feature","id":"_mview_admi_etablissements_administration.fid--1b6ae3e2_1a0db278384_-37c3","geometry":{"type":"Point","coordinates":[1.19452667,9.54796333]},"geometry_name":"geometry","properties":{"region_nom_bdd":"Kara","prefecture_nom_bdd":"Kozah","commune_nom_bdd":"Kozah 1","canton_nom_bdd":"Commune De Kara","nom_localite":"Cofac","etablissement_nom":"Direction Préfectorale de la Santé (DPS) - Kozah","etab_adr":"Direction Préfectorale de la Santé (DPS) - Kozah, Cofac, Commune De Kara, Kozah 1","ouverture_jour":"{lundi,Mardi,Mercredi,Jeudi,Vendredi,Samedi,Dimanche}","ministere_tutelle":"MSHPAUS"}},{"type":"Feature","id":"_mview_admi_etablissements_administration.fid--1b6ae3e2_1a0db278384_-37c2","geometry":{"type":"Point","coordinates":[1.25793833,9.357215]},"geometry_name":"geometry","properties":{"region_nom_bdd":"Kara","prefecture_nom_bdd":"Assoli","commune_nom_bdd":"Assoli 1","canton_nom_bdd":"Bafilo","nom_localite":"Wawadè","etablissement_nom":"Direction Préfectorale de la Santé (DPS) - Assoli","etab_adr":"Direction Préfectorale de la Santé (DPS) - Assoli, Wawadè, Bafilo, Assoli 1","ouverture_jour":"{Vendredi,Jeudi,Mercredi,Mardi,lundi}","ministere_tutelle":"MSHPAUS"}},{"type":"Feature","id":"_mview_admi_etablissements_administration.fid--1b6ae3e2_1a0db278384_-37c1","geometry":{"type":"Point","coordinates":[0.6060361,7.58845023]},"geometry_name":"geometry","properties":{"region_nom_bdd":"Plateaux","prefecture_nom_bdd":"Wawa","commune_nom_bdd":"Wawa 1","canton_nom_bdd":"Badou","nom_localite":"Badou","etablissement_nom":"Direction Préfectorale de la Santé (DPS) - Wawa","etab_adr":"Direction Préfectorale de la Santé (DPS) - Wawa, Badou, Badou, Wawa 1","ouverture_jour":"{lundi,Mardi,Mercredi,Jeudi,Vendredi,Dimanche,Samedi}","ministere_tutelle":"MSHPAUS"}},{"type":"Feature","id":"_mview_admi_etablissements_administration.fid--1b6ae3e2_1a0db278384_-37c0","geometry":{"type":"Point","coordinates":[0.79562195,7.66487475]},"geometry_name":"geometry","properties":{"region_nom_bdd":"Plateaux","prefecture_nom_bdd":"Akébou","commune_nom_bdd":"Akébou 1","canton_nom_bdd":"Kougnohou","nom_localite":"Kougnohou","etablissement_nom":"Direction Préfectorale de la Santé (DPS) - Akébou","etab_adr":"Direction Préfectorale de la Santé (DPS) - Akébou, Kougnohou, Kougnohou, Akébou 1, 245BP13 Kougnohou","ouverture_jour":"{lundi,Mardi,Mercredi,Jeudi,Vendredi}","ministere_tutelle":"MSHPAUS"}},{"type":"Feature","id":"_mview_admi_etablissements_administration.fid--1b6ae3e2_1a0db278384_-37bf","geometry":{"type":"Point","coordinates":[1.27980962,7.94496766]},"geometry_name":"geometry","properties":{"region_nom_bdd":"Plateaux","prefecture_nom_bdd":"Est-Mono","commune_nom_bdd":"Est-Mono 1","canton_nom_bdd":"Elavagnon","nom_localite":"Kossi Cope","etablissement_nom":"Direction Préfectorale de la Santé (DPS) - Est-Mono","etab_adr":"Direction Préfectorale de la Santé (DPS) - Est-Mono, Kossi Cope, Elavagnon, Est-Mono 1, BP016","ouverture_jour":"{lundi,Mardi,Mercredi,Jeudi,Vendredi}","ministere_tutelle":"MSHPAUS"}},{"type":"Feature","id":"_mview_admi_etablissements_administration.fid--1b6ae3e2_1a0db278384_-37be","geometry":{"type":"Point","coordinates":[1.2180348,6.12549159]},"geometry_name":"geometry","properties":{"region_nom_bdd":"Maritime","prefecture_nom_bdd":"Golfe","commune_nom_bdd":"Golfe 4","canton_nom_bdd":"Amoutivé","nom_localite":"Quartier Administratif","etablissement_nom":"Direction Régionale de la Santé (DRS-GL) - District Autonome Grand Lomé","etab_adr":"Direction Régionale de la Santé (DRS-GL) - District Autonome Grand Lomé, Quartier Administratif, Amoutivé, Golfe 4, BP12040 Lomé","ouverture_jour":"{lundi,Mardi,Mercredi,Jeudi,Vendredi}","ministere_tutelle":"MSHPAUS"}},{"type":"Feature","id":"_mview_admi_etablissements_administration.fid--1b6ae3e2_1a0db278384_-37bd","geometry":{"type":"Point","coordinates":[1.13910833,8.98164167]},"geometry_name":"geometry","properties":{"region_nom_bdd":"Centrale","prefecture_nom_bdd":"Tchaoudjo","commune_nom_bdd":"Tchaoudjo 1","canton_nom_bdd":"Sokodè (Komah)","nom_localite":"Didaoure","etablissement_nom":"Direction Préfectorale de la Santé (DPS) - Tchaoudjo","etab_adr":"Direction Préfectorale de la Santé (DPS) - Tchaoudjo, Didaoure, Sokodè (Komah), Tchaoudjo 1, BP123","ouverture_jour":"{Vendredi,Jeudi,Mercredi,Mardi,lundi}","ministere_tutelle":"MSHPAUS"}},{"type":"Feature","id":"_mview_admi_etablissements_administration.fid--1b6ae3e2_1a0db278384_-37bc","geometry":{"type":"Point","coordinates":[0.01841615,11.10225872]},"geometry_name":"geometry","properties":{"region_nom_bdd":"Savanes","prefecture_nom_bdd":"Cinkassé","commune_nom_bdd":"Cinkassé 1","canton_nom_bdd":"Cinkassé","nom_localite":"Cinkasse","etablissement_nom":"Direction Préfectorale de la Santé (DPS) - Cinkassé","etab_adr":"Direction Préfectorale de la Santé (DPS) - Cinkassé, Cinkasse, Boadé, Cinkassé 1, BP81","ouverture_jour":"{lundi,Mardi,Mercredi,Jeudi,Samedi,Dimanche}","ministere_tutelle":"MSHPAUS"}},{"type":"Feature","id":"_mview_admi_etablissements_administration.fid--1b6ae3e2_1a0db278384_-37bb","geometry":{"type":"Point","coordinates":[1.21424602,6.19431204]},"geometry_name":"geometry","properties":{"region_nom_bdd":"Maritime","prefecture_nom_bdd":"Golfe","commune_nom_bdd":"Golfe 3","canton_nom_bdd":"Bè-Ouest","nom_localite":"Nsp","etablissement_nom":"Ministere Délégué auprès du Ministre de la Santé, de l'Hygiène Publique et l'Accès Universel Aux Soins, Charge de l'Accès Universel Aux Soins (MSHPAUS/MDAUS)","etab_adr":"Ministere Délégué auprès du Ministre de la Santé, de l'Hygiène Publique et l'Accès Universel Aux Soins, Charge de l'Accès Universel Aux Soins (MSHPAUS/MDAUS), , Bè-Ouest, Golfe 3","ouverture_jour":"{lundi,Mardi,Mercredi,Jeudi,Vendredi}","ministere_tutelle":"MSHPAUS"}},{"type":"Feature","id":"_mview_admi_etablissements_administration.fid--1b6ae3e2_1a0db278384_-37ba","geometry":{"type":"Point","coordinates":[1.42934833,9.02283833]},"geometry_name":"geometry","properties":{"region_nom_bdd":"Centrale","prefecture_nom_bdd":"Tchamba","commune_nom_bdd":"Tchamba 1","canton_nom_bdd":"Tchamba","nom_localite":"Tchamba","etablissement_nom":"Direction Préfectorale de la Santé (DPS) - Tchamba","etab_adr":"Direction Préfectorale de la Santé (DPS) - Tchamba, Tchamba, Tchamba, Tchamba 1, 330BP60 Tchamba","ouverture_jour":"{lundi,Mardi,Mercredi,Jeudi,Vendredi}","ministere_tutelle":"MSHPAUS"}},{"type":"Feature","id":"_mview_admi_etablissements_administration.fid--1b6ae3e2_1a0db278384_-37b9","geometry":{"type":"Point","coordinates":[0.7803102,9.26464149]},"geometry_name":"geometry","properties":{"region_nom_bdd":"Kara","prefecture_nom_bdd":"Bassar","commune_nom_bdd":"Bassar 1","canton_nom_bdd":"Bassar","nom_localite":"Bassar","etablissement_nom":"Direction préfectorale de la Sante Bassar","etab_adr":"BP 62","ouverture_jour":"{Jeudi,Mardi,Mercredi,Vendredi,lundi}","ministere_tutelle":"MSHPAUS"}},{"type":"Feature","id":"_mview_admi_etablissements_administration.fid--1b6ae3e2_1a0db278384_-37b8","geometry":{"type":"Point","coordinates":[0.38269458,10.72791317]},"geometry_name":"geometry","properties":{"region_nom_bdd":"Savanes","prefecture_nom_bdd":"Kpendjal-Ouest","commune_nom_bdd":"Kpendjal-Ouest 1","canton_nom_bdd":"Naki-Est","nom_localite":"Naki Centre","etablissement_nom":"Direction Préfectorale de la Santé (DPS) - Kpendjal Ouest","etab_adr":"Direction Préfectorale de la Santé (DPS) - Kpendjal Ouest, Naki Centre, Naki-Est, Kpendjal-Ouest 1, BP202 Dapaong","ouverture_jour":"{lundi,Mardi,Mercredi,Jeudi,Vendredi}","ministere_tutelle":"MSHPAUS"}},{"type":"Feature","id":"_mview_admi_etablissements_administration.fid--1b6ae3e2_1a0db278384_-37b7","geometry":{"type":"Point","coordinates":[1.19918219,7.75923999]},"geometry_name":"geometry","properties":{"region_nom_bdd":"Plateaux","prefecture_nom_bdd":"Anié","commune_nom_bdd":"Anié 1","canton_nom_bdd":"Anié","nom_localite":"Anie","etablissement_nom":"Direction Préfectorale de la Santé (DPS) - Anié","etab_adr":"Direction Préfectorale de la Santé (DPS) - Anié, Anie, Anié, Anié 1","ouverture_jour":"{lundi,Mardi,Mercredi,Jeudi,Vendredi}","ministere_tutelle":"MSHPAUS"}},{"type":"Feature","id":"_mview_admi_etablissements_administration.fid--1b6ae3e2_1a0db278384_-37b6","geometry":{"type":"Point","coordinates":[1.18064887,9.55839266]},"geometry_name":"geometry","properties":{"region_nom_bdd":"Kara","prefecture_nom_bdd":"Kozah","commune_nom_bdd":"Kozah 1","canton_nom_bdd":"Commune De Kara","nom_localite":"Lama","etablissement_nom":"Direction Régionale de la Santé (DRS-K) - Région Kara","etab_adr":"Direction Régionale de la Santé (DRS-K) - Région Kara, Lama, Commune De Kara, Kozah 1, BP 487","ouverture_jour":"{lundi,Mardi,Mercredi,Jeudi,Vendredi}","ministere_tutelle":"MSHPAUS"}},{"type":"Feature","id":"_mview_admi_etablissements_administration.fid--1b6ae3e2_1a0db278384_-37b5","geometry":{"type":"Point","coordinates":[1.21448161,6.19428148]},"geometry_name":"geometry","properties":{"region_nom_bdd":"Maritime","prefecture_nom_bdd":"Golfe","commune_nom_bdd":"Golfe 3","canton_nom_bdd":"Bè-Ouest","nom_localite":"Massouhoin","etablissement_nom":"Direction des Infrastructures Sanitaires, des Équipements et de la Maintenance (MSHPAUS/DISEM)","etab_adr":"Direction des Infrastructures Sanitaires, des Équipements et de la Maintenance (MSHPAUS/DISEM), Massouhoin, Bè-Ouest, Golfe 3, BP386 Lomé","ouverture_jour":"{lundi,Mardi,Mercredi,Jeudi,Vendredi}","ministere_tutelle":"MSHPAUS"}},{"type":"Feature","id":"_mview_admi_etablissements_administration.fid--1b6ae3e2_1a0db278384_-37b4","geometry":{"type":"Point","coordinates":[1.14739667,7.524045]},"geometry_name":"geometry","properties":{"region_nom_bdd":"Plateaux","prefecture_nom_bdd":"Ogou","commune_nom_bdd":"Ogou 1","canton_nom_bdd":"Djama","nom_localite":"Agbono","etablissement_nom":"Direction Régionale de la Santé (DRS-P) - Région Plateaux","etab_adr":"Direction Régionale de la Santé (DRS-P) - Région Plateaux, Agbono, Djama, Ogou 1","ouverture_jour":"{lundi,Mardi,Mercredi,Jeudi,Vendredi}","ministere_tutelle":"MSHPAUS"}},{"type":"Feature","id":"_mview_admi_etablissements_administration.fid--1b6ae3e2_1a0db278384_-37b3","geometry":{"type":"Point","coordinates":[1.17311441,6.95109451]},"geometry_name":"geometry","properties":{"region_nom_bdd":"Plateaux","prefecture_nom_bdd":"Haho","commune_nom_bdd":"Haho 1","canton_nom_bdd":"Notsé","nom_localite":"Ekli","etablissement_nom":"Direction Préfectorale de la Santé (DPS) - Haho","etab_adr":"Direction Préfectorale de la Santé (DPS) - Haho, CHP, Ekli, Notsé, Haho 1","ouverture_jour":"{lundi,Mardi,Mercredi,Jeudi,Vendredi,Samedi}","ministere_tutelle":"MSHPAUS"}},{"type":"Feature","id":"_mview_admi_etablissements_administration.fid--1b6ae3e2_1a0db278384_-37b2","geometry":{"type":"Point","coordinates":[1.61433698,7.02840524]},"geometry_name":"geometry","properties":{"region_nom_bdd":"Plateaux","prefecture_nom_bdd":"Moyen-Mono","commune_nom_bdd":"Moyen-Mono 1","canton_nom_bdd":"Tohoun","nom_localite":"Kpoyizounhoe","etablissement_nom":"Direction Préfectorale de la Santé (DPS) - Moyen-Mono","etab_adr":"Direction Préfectorale de la Santé (DPS) - Moyen-Mono, Kpoyizounhoe, Tohoun, Moyen-Mono 1","ouverture_jour":"{lundi,Mardi,Mercredi,Jeudi,Vendredi}","ministere_tutelle":"MSHPAUS"}},{"type":"Feature","id":"_mview_admi_etablissements_administration.fid--1b6ae3e2_1a0db278384_-37b1","geometry":{"type":"Point","coordinates":[1.5917,6.22922667]},"geometry_name":"geometry","properties":{"region_nom_bdd":"Maritime","prefecture_nom_bdd":"Lacs","commune_nom_bdd":"Lacs 1","canton_nom_bdd":"Aného","nom_localite":"Kpota","etablissement_nom":"Direction Préfectorale de la Santé (DPS) - Lacs","etab_adr":"Direction Préfectorale de la Santé (DPS) - Lacs, Kpota, Aného, Lacs 1, BP121 Aneho","ouverture_jour":"{lundi,Mardi,Mercredi,Jeudi,Vendredi}","ministere_tutelle":"MSHPAUS"}},{"type":"Feature","id":"_mview_admi_etablissements_administration.fid--1b6ae3e2_1a0db278384_-37b0","geometry":{"type":"Point","coordinates":[1.10963333,9.76229167]},"geometry_name":"geometry","properties":{"region_nom_bdd":"Kara","prefecture_nom_bdd":"Doufelgou","commune_nom_bdd":"Doufelgou 1","canton_nom_bdd":"Niamtougou","nom_localite":"Niamtougou","etablissement_nom":"Direction Préfectorale de la Santé (DPS) - Doufelgou","etab_adr":"Direction Préfectorale de la Santé (DPS) - Doufelgou, Niamtougou, Niamtougou, Doufelgou 1, BP33","ouverture_jour":"{lundi,Mardi,Mercredi,Jeudi,Vendredi}","ministere_tutelle":"MSHPAUS"}},{"type":"Feature","id":"_mview_admi_etablissements_administration.fid--1b6ae3e2_1a0db278384_-37af","geometry":{"type":"Point","coordinates":[1.32323175,9.74518715]},"geometry_name":"geometry","properties":{"region_nom_bdd":"Kara","prefecture_nom_bdd":"Binah","commune_nom_bdd":"Binah 1","canton_nom_bdd":"Pagouda","nom_localite":"Waze","etablissement_nom":"Direction Préfectorale de la Santé (DPS) - Binah","etab_adr":"Direction Préfectorale de la Santé (DPS) - Binah, Waze, Pagouda, Binah 1, BP64 Pagouda","ouverture_jour":"{lundi,Mardi,Mercredi,Jeudi,Vendredi}","ministere_tutelle":"MSHPAUS"}},{"type":"Feature","id":"_mview_admi_etablissements_administration.fid--1b6ae3e2_1a0db278384_-37ae","geometry":{"type":"Point","coordinates":[0.91084667,6.45477333]},"geometry_name":"geometry","properties":{"region_nom_bdd":"Maritime","prefecture_nom_bdd":"Avé","commune_nom_bdd":"Avé 1","canton_nom_bdd":"Assahoun","nom_localite":"Assahoun","etablissement_nom":"Direction Préfectorale de la Santé (DPS) - Avé","etab_adr":"Direction Préfectorale de la Santé (DPS) - Avé, Assahoun, Assahoun, Avé 1, BP50","ouverture_jour":"{Jeudi,lundi,Mercredi,Vendredi}","ministere_tutelle":"MSHPAUS"}},{"type":"Feature","id":"_mview_admi_etablissements_administration.fid--1b6ae3e2_1a0db278384_-37ad","geometry":{"type":"Point","coordinates":[0.97852755,8.55653167]},"geometry_name":"geometry","properties":{"region_nom_bdd":"Centrale","prefecture_nom_bdd":"Sotouboua","commune_nom_bdd":"Sotouboua 1","canton_nom_bdd":"Sotouboua","nom_localite":"Sotouboua","etablissement_nom":"Direction Préfectorale de la Santé (DPS) - Sotouboua","etab_adr":"Direction Préfectorale de la Santé (DPS) - Sotouboua, Sotouboua, Sotouboua, Sotouboua 1, BP89 Sotouboua","ouverture_jour":"{lundi,Mardi,Mercredi,Jeudi,Vendredi}","ministere_tutelle":"MSHPAUS"}},{"type":"Feature","id":"_mview_admi_etablissements_administration.fid--1b6ae3e2_1a0db278384_-37ac","geometry":{"type":"Point","coordinates":[0.69945333,7.21022333]},"geometry_name":"geometry","properties":{"region_nom_bdd":"Plateaux","prefecture_nom_bdd":"Danyi","commune_nom_bdd":"Danyi 1","canton_nom_bdd":"Danyi-Atigba","nom_localite":"Apeyeme","etablissement_nom":"Direction Préfectorale de la Santé (DPS) - Danyi","etab_adr":"Direction Préfectorale de la Santé (DPS) - Danyi, Apeyeme, Danyi-Atigba, Danyi 1","ouverture_jour":"{lundi,Mardi,Mercredi,Jeudi,Vendredi}","ministere_tutelle":"MSHPAUS"}},{"type":"Feature","id":"_mview_admi_etablissements_administration.fid--1b6ae3e2_1a0db278384_-37ab","geometry":{"type":"Point","coordinates":[1.13652015,8.98363468]},"geometry_name":"geometry","properties":{"region_nom_bdd":"Centrale","prefecture_nom_bdd":"Tchaoudjo","commune_nom_bdd":"Tchaoudjo 1","canton_nom_bdd":"Sokodè (Komah)","nom_localite":"Didawore","etablissement_nom":"Direction Régionale de la Santé (DRS-C) - Région Centrale","etab_adr":"Direction Régionale de la Santé (DRS-C) - Région Centrale, Didawore, Sokodè (Komah), Tchaoudjo 1, BP170","ouverture_jour":"{lundi,Mardi,Mercredi,Jeudi,Vendredi}","ministere_tutelle":"MSHPAUS"}},{"type":"Feature","id":"_mview_admi_etablissements_administration.fid--1b6ae3e2_1a0db278384_-37aa","geometry":{"type":"Point","coordinates":[1.21837136,6.12595759]},"geometry_name":"geometry","properties":{"region_nom_bdd":"Maritime","prefecture_nom_bdd":"Golfe","commune_nom_bdd":"Golfe 4","canton_nom_bdd":"Amoutivé","nom_localite":"Quartier Administratif","etablissement_nom":"Institut National d'Hygiène (INH)","etab_adr":"Institut National d'Hygiène (INH), Quartier Administratif, Amoutivé, Golfe 4, BP1396 Lomé 1","ouverture_jour":"{lundi,Mardi,Mercredi,Jeudi,Vendredi}","ministere_tutelle":"MSHPAUS"}},{"type":"Feature","id":"_mview_admi_etablissements_administration.fid--1b6ae3e2_1a0db278384_-37a9","geometry":{"type":"Point","coordinates":[1.21438324,6.19431457]},"geometry_name":"geometry","properties":{"region_nom_bdd":"Maritime","prefecture_nom_bdd":"Golfe","commune_nom_bdd":"Golfe 3","canton_nom_bdd":"Bè-Ouest","nom_localite":"Lome 2","etablissement_nom":"Inspection Générale des Services de Santé (IGSS)","etab_adr":"Inspection Générale des Services de Santé (IGSS), Lome 2, Bè-Ouest, Golfe 3, BP386 Lomé","ouverture_jour":"{lundi,Mardi,Mercredi,Jeudi,Vendredi}","ministere_tutelle":"MSHPAUS"}},{"type":"Feature","id":"_mview_admi_etablissements_administration.fid--1b6ae3e2_1a0db278384_-37a8","geometry":{"type":"Point","coordinates":[0.46667321,10.35405223]},"geometry_name":"geometry","properties":{"region_nom_bdd":"Savanes","prefecture_nom_bdd":"Oti","commune_nom_bdd":"Oti 1","canton_nom_bdd":"Mango","nom_localite":"Mango","etablissement_nom":"Direction Préfectorale de la Santé (DPS) - Oti","etab_adr":"Direction Préfectorale de la Santé (DPS) - Oti, Mango, Mango, Oti 1","ouverture_jour":"{lundi,Mardi,Mercredi,Jeudi,Vendredi}","ministere_tutelle":"MSHPAUS"}},{"type":"Feature","id":"_mview_admi_etablissements_administration.fid--1b6ae3e2_1a0db278384_-37a7","geometry":{"type":"Point","coordinates":[0.74515374,10.33272798]},"geometry_name":"geometry","properties":{"region_nom_bdd":"Savanes","prefecture_nom_bdd":"Oti-Sud","commune_nom_bdd":"Oti-Sud 1","canton_nom_bdd":"Gando","nom_localite":"Gando","etablissement_nom":"Direction Préfectorale de la Santé (DPS) - Oti Sud","etab_adr":"Direction Préfectorale de la Santé (DPS) - Oti Sud, Gando, Gando, Oti-Sud 1","ouverture_jour":"{lundi,Mardi,Mercredi,Jeudi,Vendredi}","ministere_tutelle":"MSHPAUS"}},{"type":"Feature","id":"_mview_admi_etablissements_administration.fid--1b6ae3e2_1a0db278384_-37a6","geometry":{"type":"Point","coordinates":[0.91052212,7.47316753]},"geometry_name":"geometry","properties":{"region_nom_bdd":"Plateaux","prefecture_nom_bdd":"Amou","commune_nom_bdd":"Amou 1","canton_nom_bdd":"Amlamé (Ouma)","nom_localite":"Amlame","etablissement_nom":"Direction Préfectorale de la Santé (DPS) - Amou","etab_adr":"Direction Préfectorale de la Santé (DPS) - Amou, Amlame, Amlamé (Ouma), Amou 1","ouverture_jour":"{lundi,Mardi,Mercredi,Jeudi,Vendredi,Samedi,Dimanche}","ministere_tutelle":"MSHPAUS"}},{"type":"Feature","id":"_mview_admi_etablissements_administration.fid--1b6ae3e2_1a0db278384_-37a5","geometry":{"type":"Point","coordinates":[1.21771593,6.15955036]},"geometry_name":"geometry","properties":{"region_nom_bdd":"Maritime","prefecture_nom_bdd":"Golfe","commune_nom_bdd":"Golfe 3","canton_nom_bdd":"Bè-Ouest","nom_localite":"Doumassesse","etablissement_nom":"Centre National de Transfusion Sanguine (CNTS)","etab_adr":"Centre National de Transfusion Sanguine (CNTS), 368, Rue Bikotiba en face de l'École Primaire Publique Doumassesse 2, Doumassesse, Bè-Ouest, Golfe 3","ouverture_jour":"{lundi,Mardi,Mercredi,Jeudi,Vendredi}","ministere_tutelle":"MSHPAUS"}},{"type":"Feature","id":"_mview_admi_etablissements_administration.fid--1b6ae3e2_1a0db278384_-37a4","geometry":{"type":"Point","coordinates":[1.21254047,6.4201272]},"geometry_name":"geometry","properties":{"region_nom_bdd":"Maritime","prefecture_nom_bdd":"Zio","commune_nom_bdd":"Zio 1","canton_nom_bdd":"Tsévié","nom_localite":"Assiama","etablissement_nom":"Direction Préfectorale de la Santé (DPS) - Zio","etab_adr":"Direction Préfectorale de la Santé (DPS) - Zio, Rond Point de l'Union , Côté Est Quartier Assiama, Assiama, Tsévié, Zio 1","ouverture_jour":"{lundi,Mardi,Mercredi,Jeudi,Vendredi,Samedi,Dimanche}","ministere_tutelle":"MSHPAUS"}},{"type":"Feature","id":"_mview_admi_etablissements_administration.fid--1b6ae3e2_1a0db278384_-37a3","geometry":{"type":"Point","coordinates":[0.71701934,6.8442267]},"geometry_name":"geometry","properties":{"region_nom_bdd":"Plateaux","prefecture_nom_bdd":"Agou","commune_nom_bdd":"Agou 1","canton_nom_bdd":"Agou-Tavié","nom_localite":"Agou Gare","etablissement_nom":"Direction Préfectorale de la Santé (DPS) - Agou","etab_adr":"Direction Préfectorale de la Santé (DPS) - Agou, Agou Gare, Agou-Tavié, Agou 1","ouverture_jour":"{lundi,Mardi,Mercredi,Jeudi,Vendredi}","ministere_tutelle":"MSHPAUS"}},{"type":"Feature","id":"_mview_admi_etablissements_administration.fid--1b6ae3e2_1a0db278384_-37a2","geometry":{"type":"Point","coordinates":[0.20297667,10.86291667]},"geometry_name":"geometry","properties":{"region_nom_bdd":"Savanes","prefecture_nom_bdd":"Tône","commune_nom_bdd":"Tône 1","canton_nom_bdd":"Dapaong","nom_localite":"Kpegui","etablissement_nom":"Centre d'Achat des Médicaments Essentiels et Génériques du Togo (CAMEG) - Pharmacie Régionale D'Approvisionnement de Dapaong","etab_adr":"Centre d'Achat des Médicaments Essentiels et Génériques du Togo (CAMEG) - Pharmacie Régionale D'Approvisionnement de Dapaong, Kpegui, Dapaong, Tône 1, BP105","ouverture_jour":"{Mardi,lundi,Mercredi,Jeudi,Vendredi}","ministere_tutelle":"MSHPAUS"}},{"type":"Feature","id":"_mview_admi_etablissements_administration.fid--1b6ae3e2_1a0db278384_-37a1","geometry":{"type":"Point","coordinates":[1.21828429,6.12547699]},"geometry_name":"geometry","properties":{"region_nom_bdd":"Maritime","prefecture_nom_bdd":"Golfe","commune_nom_bdd":"Golfe 4","canton_nom_bdd":"Amoutivé","nom_localite":"Quartier Administratif","etablissement_nom":"Direction des Établissements de Soins (MSHPAUS/DEB)","etab_adr":"Direction des Établissements de Soins (MSHPAUS/DEB), Quartier Administratif, Amoutivé, Golfe 4, BP336 Lomé","ouverture_jour":"{lundi,Mardi,Mercredi,Jeudi,Vendredi}","ministere_tutelle":"MSHPAUS"}},{"type":"Feature","id":"_mview_admi_etablissements_administration.fid--1b6ae3e2_1a0db278384_-37a0","geometry":{"type":"Point","coordinates":[1.21798561,6.12513798]},"geometry_name":"geometry","properties":{"region_nom_bdd":"Maritime","prefecture_nom_bdd":"Golfe","commune_nom_bdd":"Golfe 4","canton_nom_bdd":"Amoutivé","nom_localite":"Quartier Administratif","etablissement_nom":"Fonds mondial de Lutte contre le VIH/SIDA, la Tuberculose et le Paludisme (CCM-Togo)","etab_adr":"Fonds mondial de Lutte contre le VIH/SIDA, la Tuberculose et le Paludisme (CCM-Togo), Quartier Administratif, Amoutivé, Golfe 4, BP336 Lomé","ouverture_jour":"{lundi,Mardi,Mercredi,Jeudi,Vendredi}","ministere_tutelle":"MSHPAUS"}},{"type":"Feature","id":"_mview_admi_etablissements_administration.fid--1b6ae3e2_1a0db278384_-379f","geometry":{"type":"Point","coordinates":[1.21778976,6.12620515]},"geometry_name":"geometry","properties":{"region_nom_bdd":"Maritime","prefecture_nom_bdd":"Golfe","commune_nom_bdd":"Golfe 4","canton_nom_bdd":"Amoutivé","nom_localite":"Quartier Administratif","etablissement_nom":"Programme National de lutte Contre le Paludisme","etab_adr":"Programme National de lutte Contre le Paludisme, Quartier Administratif, Amoutivé, Golfe 4, BP518 Lomé","ouverture_jour":"{lundi,Mardi,Mercredi,Jeudi,Vendredi}","ministere_tutelle":"MSHPAUS"}},{"type":"Feature","id":"_mview_admi_etablissements_administration.fid--1b6ae3e2_1a0db278384_-379e","geometry":{"type":"Point","coordinates":[0.19630346,10.88984435]},"geometry_name":"geometry","properties":{"region_nom_bdd":"Savanes","prefecture_nom_bdd":"Tône","commune_nom_bdd":"Tône 1","canton_nom_bdd":"Dapaong","nom_localite":"Nassablé","etablissement_nom":"Direction Préfectorale de la Santé (DPS) - Tone","etab_adr":"Direction Préfectorale de la Santé (DPS) - Tone, Nassablé, Dapaong, Tône 1","ouverture_jour":"{lundi,Mardi,Mercredi,Jeudi,Vendredi}","ministere_tutelle":"MSHPAUS"}},{"type":"Feature","id":"_mview_admi_etablissements_administration.fid--1b6ae3e2_1a0db278384_-379d","geometry":{"type":"Point","coordinates":[0.20399833,10.8486]},"geometry_name":"geometry","properties":{"region_nom_bdd":"Savanes","prefecture_nom_bdd":"Tône","commune_nom_bdd":"Tône 1","canton_nom_bdd":"Dapaong","nom_localite":"Worgou","etablissement_nom":"Direction Régionale de la Santé (DRS-S) - Région Savanes","etab_adr":"Direction Régionale de la Santé (DRS-S) - Région Savanes, Worgou, Dapaong, Tône 1, BP45","ouverture_jour":"{lundi,Mardi,Mercredi,Jeudi,Vendredi}","ministere_tutelle":"MSHPAUS"}},{"type":"Feature","id":"_mview_admi_etablissements_administration.fid--1b6ae3e2_1a0db278384_-379c","geometry":{"type":"Point","coordinates":[1.21254205,6.42061273]},"geometry_name":"geometry","properties":{"region_nom_bdd":"Maritime","prefecture_nom_bdd":"Zio","commune_nom_bdd":"Zio 1","canton_nom_bdd":"Tsévié","nom_localite":"Nsp","etablissement_nom":"Direction Régionale de la Santé (DRS-M) - Région Maritime","etab_adr":"Direction Régionale de la Santé (DRS-M) - Région Maritime, , Tsévié, Zio 1","ouverture_jour":"{lundi,Mardi,Mercredi,Jeudi,Vendredi,Samedi,Dimanche}","ministere_tutelle":"MSHPAUS"}},{"type":"Feature","id":"_mview_admi_etablissements_administration.fid--1b6ae3e2_1a0db278384_-379b","geometry":{"type":"Point","coordinates":[1.50657688,6.60392189]},"geometry_name":"geometry","properties":{"region_nom_bdd":"Maritime","prefecture_nom_bdd":"Yoto","commune_nom_bdd":"Yoto 1","canton_nom_bdd":"Tabligbo","nom_localite":"Tabligbo","etablissement_nom":"Direction Préfectorale de la Santé (DPS) - Yoto","etab_adr":"Direction Préfectorale de la Santé (DPS) - Yoto, Tabligbo, Tabligbo, Yoto 1","ouverture_jour":"{lundi,Mardi,Mercredi,Jeudi,Vendredi}","ministere_tutelle":"MSHPAUS"}},{"type":"Feature","id":"_mview_admi_etablissements_administration.fid--1b6ae3e2_1a0db278384_-379a","geometry":{"type":"Point","coordinates":[1.13684484,8.9845194]},"geometry_name":"geometry","properties":{"region_nom_bdd":"Centrale","prefecture_nom_bdd":"Tchaoudjo","commune_nom_bdd":"Tchaoudjo 1","canton_nom_bdd":"Sokodè (Komah)","nom_localite":"Didawere","etablissement_nom":"Centre Régional de Transfusion Sanguine (CRTS) - Région Kara","etab_adr":"Centre Régional de Transfusion Sanguine (CRTS) - Région Kara, Didawere, Sokodè (Komah), Tchaoudjo 1","ouverture_jour":"{lundi,Mardi,Mercredi,Jeudi,Vendredi,Samedi,Dimanche}","ministere_tutelle":"MSHPAUS"}},{"type":"Feature","id":"_mview_admi_etablissements_administration.fid--1b6ae3e2_1a0db278384_-3799","geometry":{"type":"Point","coordinates":[1.52417847,6.34763083]},"geometry_name":"geometry","properties":{"region_nom_bdd":"Maritime","prefecture_nom_bdd":"Vo","commune_nom_bdd":"Vo 1","canton_nom_bdd":"Vogan","nom_localite":"Novissicome","etablissement_nom":"Direction Préfectorale de la Santé (DPS) - Vo","etab_adr":"Direction Préfectorale de la Santé (DPS) - Vo, Novissicome, Vogan, Vo 1","ouverture_jour":"{lundi,Mardi,Mercredi,Jeudi,Vendredi}","ministere_tutelle":"MSHPAUS"}},{"type":"Feature","id":"_mview_admi_etablissements_administration.fid--1b6ae3e2_1a0db278384_-3798","geometry":{"type":"Point","coordinates":[1.03646343,9.93946678]},"geometry_name":"geometry","properties":{"region_nom_bdd":"Kara","prefecture_nom_bdd":"Kéran","commune_nom_bdd":"Kéran 1","canton_nom_bdd":"Kantè","nom_localite":"Kantè","etablissement_nom":"Direction Préfectorale de la Santé (DPS) - Kéran","etab_adr":"Direction Préfectorale de la Santé (DPS) - Kéran, Kantè, Kantè, Kéran 1, 03BP Kante","ouverture_jour":"{lundi,Mardi,Mercredi,Jeudi,Vendredi}","ministere_tutelle":"MSHPAUS"}},{"type":"Feature","id":"_mview_admi_etablissements_administration.fid--1b6ae3e2_1a0db278384_-3797","geometry":{"type":"Point","coordinates":[0.1962091,10.65992175]},"geometry_name":"geometry","properties":{"region_nom_bdd":"Savanes","prefecture_nom_bdd":"Tandjoaré","commune_nom_bdd":"Tandjoaré 1","canton_nom_bdd":"Nandoga","nom_localite":"Tandjouaré","etablissement_nom":"Direction Préfectorale de le Santé Tandjouaré","etab_adr":"BP:10 Bomboaka","ouverture_jour":"{Jeudi,Mardi,Samedi,Mercredi,Vendredi}","ministere_tutelle":"MSHPAUS"}},{"type":"Feature","id":"_mview_admi_etablissements_administration.fid--1b6ae3e2_1a0db278384_-3796","geometry":{"type":"Point","coordinates":[0.56115611,8.77865225]},"geometry_name":"geometry","properties":{"region_nom_bdd":"Centrale","prefecture_nom_bdd":"Mô","commune_nom_bdd":"Mô 1","canton_nom_bdd":"Djarkpanga","nom_localite":"Djarkpanga","etablissement_nom":"Direction Préfectorale de la santé (DPS) - Mô","etab_adr":"Néant","ouverture_jour":"{Jeudi,Mardi,Mercredi,Vendredi,lundi}","ministere_tutelle":"MSHPAUS"}},{"type":"Feature","id":"_mview_admi_etablissements_administration.fid--1b6ae3e2_1a0db278384_-3795","geometry":{"type":"Point","coordinates":[1.19611167,6.20714]},"geometry_name":"geometry","properties":{"region_nom_bdd":"Maritime","prefecture_nom_bdd":"Agoè-Nyivé","commune_nom_bdd":"Agoè-Nyivé 1","canton_nom_bdd":"Agoè-Nyivé","nom_localite":"Agoe-cacaveli","etablissement_nom":"Direction Préfectorale de la Santé (DPS) Agoe Nyive","etab_adr":"Cacaveli","ouverture_jour":"{Jeudi,Mardi,Mercredi,Vendredi,lundi}","ministere_tutelle":"MSHPAUS"}},{"type":"Feature","id":"_mview_admi_etablissements_administration.fid--1b6ae3e2_1a0db278384_-3794","geometry":{"type":"Point","coordinates":[1.22039267,6.13516533]},"geometry_name":"geometry","properties":{"region_nom_bdd":"Maritime","prefecture_nom_bdd":"Golfe","commune_nom_bdd":"Golfe 4","canton_nom_bdd":"Amoutivé","nom_localite":"Wetrivi Kondji","etablissement_nom":"Direction Préfectorale de la Santé (DPS) Golfe","etab_adr":"Wetrivi kondji","ouverture_jour":"{Jeudi,Mardi,Mercredi,Vendredi,lundi}","ministere_tutelle":"MSHPAUS"}},{"type":"Feature","id":"_mview_admi_etablissements_administration.fid--1b6ae3e2_1a0db278384_-3793","geometry":{"type":"Point","coordinates":[0.81290157,10.85325258]},"geometry_name":"geometry","properties":{"region_nom_bdd":"Savanes","prefecture_nom_bdd":"Kpendjal","commune_nom_bdd":"Kpendjal 1","canton_nom_bdd":"Mandouri","nom_localite":"Mandouri","etablissement_nom":"Direction Préfectoral de la Santé (DPS) kpendjal","etab_adr":"BP:15Mandouri","ouverture_jour":"{Mercredi,Jeudi,Mardi,Vendredi,lundi}","ministere_tutelle":"MSHPAUS"}}],"totalFeatures":57,"numberMatched":57,"numberReturned":57,"timeStamp":"2026-09-26T00:40:50.233Z","crs":{"type":"name","properties":{"name":"urn:ogc:def:crs:EPSG::4326"}}}