{"type":"FeatureCollection","features":[{"type":"Feature","id":"_mview_admi_etablissements_administration.fid--1b6ae3e2_1a0db278384_-3841","geometry":{"type":"Point","coordinates":[1.21806333,6.12469]},"geometry_name":"geometry","properties":{"region_nom_bdd":"Maritime","prefecture_nom_bdd":"Golfe","commune_nom_bdd":"Golfe 4","canton_nom_bdd":"Amoutivé","nom_localite":"Quartier Administratif","etablissement_nom":"Institut Nationale de la Recherche Scientifique et Technique (INRST)","etab_adr":"Institut Nationale de la Recherche Scientifique et Technique (INRST), Quartier Administratif, Amoutivé, Golfe 4, 01BP2240 Lomé","ouverture_jour":"{lundi,Mardi,Mercredi,Jeudi,Vendredi}","ministere_tutelle":"MESR"}},{"type":"Feature","id":"_mview_admi_etablissements_administration.fid--1b6ae3e2_1a0db278384_-3840","geometry":{"type":"Point","coordinates":[1.21799412,6.12465719]},"geometry_name":"geometry","properties":{"region_nom_bdd":"Maritime","prefecture_nom_bdd":"Golfe","commune_nom_bdd":"Golfe 4","canton_nom_bdd":"Amoutivé","nom_localite":"Quartier Administratif","etablissement_nom":"Direction de la Recherche Scientifique et Technique (MESR/DRST)","etab_adr":"Direction de la Recherche Scientifique et Technique (MESR/DRST), Quartier Administratif, Amoutivé, Golfe 4","ouverture_jour":"{lundi,Mardi,Mercredi,Jeudi,Vendredi}","ministere_tutelle":"MESR"}},{"type":"Feature","id":"_mview_admi_etablissements_administration.fid--1b6ae3e2_1a0db278384_-383f","geometry":{"type":"Point","coordinates":[1.22248913,6.13439111]},"geometry_name":"geometry","properties":{"region_nom_bdd":"Maritime","prefecture_nom_bdd":"Golfe","commune_nom_bdd":"Golfe 4","canton_nom_bdd":"Amoutivé","nom_localite":"Nsp","etablissement_nom":"Académies des Langues Nationales (ALN) - Académie Kabiyè","etab_adr":"Académie Kabyè BP 389 12 175 Lomé/ 90042090","ouverture_jour":"Nsp","ministere_tutelle":"MESR"}},{"type":"Feature","id":"_mview_admi_etablissements_administration.fid--1b6ae3e2_1a0db278384_-383e","geometry":{"type":"Point","coordinates":[1.21850816,6.12743108]},"geometry_name":"geometry","properties":{"region_nom_bdd":"Maritime","prefecture_nom_bdd":"Golfe","commune_nom_bdd":"Golfe 4","canton_nom_bdd":"Amoutivé","nom_localite":"Quartier Administratif","etablissement_nom":"Direction Préfectorale de l'Enseignement Supérieur (DPES)","etab_adr":"Direction Préfectorale de l'Enseignement Supérieur (DPES), Quartier Administratif, Amoutivé, Golfe 4, 83BP1275 Lomé","ouverture_jour":"{lundi,Mardi,Mercredi,Jeudi,Vendredi}","ministere_tutelle":"MESR"}},{"type":"Feature","id":"_mview_admi_etablissements_administration.fid--1b6ae3e2_1a0db278384_-383d","geometry":{"type":"Point","coordinates":[1.21633691,6.12083196]},"geometry_name":"geometry","properties":{"region_nom_bdd":"Maritime","prefecture_nom_bdd":"Golfe","commune_nom_bdd":"Golfe 4","canton_nom_bdd":"Amoutivé","nom_localite":"Quartier Administratif","etablissement_nom":"Commission Nationale de Reconnaissance d’Homologation des Diplômes, Grades, Titres et Certificats (CNRHDGTC)","etab_adr":"Commission Nationale de Reconnaissance d’Homologation des Diplômes, Grades, Titres et Certificats (CNRHDGTC), Quartier Administratif, Amoutivé, Golfe 4","ouverture_jour":"{lundi,Mardi,Mercredi,Jeudi,Vendredi}","ministere_tutelle":"MESR"}},{"type":"Feature","id":"_mview_admi_etablissements_administration.fid--1b6ae3e2_1a0db278384_-383c","geometry":{"type":"Point","coordinates":[1.21628342,6.12081744]},"geometry_name":"geometry","properties":{"region_nom_bdd":"Maritime","prefecture_nom_bdd":"Golfe","commune_nom_bdd":"Golfe 4","canton_nom_bdd":"Amoutivé","nom_localite":"Quartier Administratif","etablissement_nom":"Direction de l'Enseignement Supérieur (MESR/DES)","etab_adr":"Direction de l'Enseignement Supérieur (MESR/DES), Quartier Administratif, Amoutivé, Golfe 4","ouverture_jour":"{lundi,Mardi,Mercredi,Vendredi}","ministere_tutelle":"MESR"}},{"type":"Feature","id":"_mview_admi_etablissements_administration.fid--1b6ae3e2_1a0db278384_-383b","geometry":{"type":"Point","coordinates":[1.21509712,6.17556876]},"geometry_name":"geometry","properties":{"region_nom_bdd":"Maritime","prefecture_nom_bdd":"Golfe","commune_nom_bdd":"Golfe 3","canton_nom_bdd":"Bè-Ouest","nom_localite":"Université De Lome","etablissement_nom":"Direction des Affaires Académiques et de la Scolarité (UL/DAAS)","etab_adr":"Direction des Affaires Académiques et de la Scolarité (UL/DAAS), Université de Lome, Bè-Ouest, Golfe 3, 01BP1515 Lomé 1","ouverture_jour":"{lundi,Mardi,Mercredi,Jeudi,Vendredi}","ministere_tutelle":"MESR"}},{"type":"Feature","id":"_mview_admi_etablissements_administration.fid--1b6ae3e2_1a0db278384_-383a","geometry":{"type":"Point","coordinates":[1.21192191,6.18554427]},"geometry_name":"geometry","properties":{"region_nom_bdd":"Maritime","prefecture_nom_bdd":"Golfe","commune_nom_bdd":"Golfe 3","canton_nom_bdd":"Bè-Ouest","nom_localite":"Université De Lome","etablissement_nom":"Presidence de l'Universite de Lomé","etab_adr":"Presidence de l'Universite de Lomé, Université de Lome, Bè-Ouest, Golfe 3, 01BP1515 Lomé 1","ouverture_jour":"{lundi,Mardi,Mercredi,Jeudi,Vendredi}","ministere_tutelle":"MESR"}},{"type":"Feature","id":"_mview_admi_etablissements_administration.fid--1b6ae3e2_1a0db278384_-3839","geometry":{"type":"Point","coordinates":[1.21783311,6.12473724]},"geometry_name":"geometry","properties":{"region_nom_bdd":"Maritime","prefecture_nom_bdd":"Golfe","commune_nom_bdd":"Golfe 4","canton_nom_bdd":"Amoutivé","nom_localite":"Quartier Administratif","etablissement_nom":"Commission Nationale Togolaise pour l'UNESCO - Secretariat General","etab_adr":"Commission Nationale Togolaise pour l'UNESCO - Secretariat General, Quartier Administratif, Amoutivé, Golfe 4, BP3226 Lomé","ouverture_jour":"{lundi,Mardi,Mercredi,Jeudi,Vendredi}","ministere_tutelle":"MESR"}},{"type":"Feature","id":"_mview_admi_etablissements_administration.fid--1b6ae3e2_1a0db278384_-3838","geometry":{"type":"Point","coordinates":[1.13660386,9.67432023]},"geometry_name":"geometry","properties":{"region_nom_bdd":"Kara","prefecture_nom_bdd":"Kozah","commune_nom_bdd":"Kozah 2","canton_nom_bdd":"Pya","nom_localite":"Pya-kiyoude","etablissement_nom":"Présidence de l'Université de Kara","etab_adr":"Présidence de l'Université de Kara, Pya-Kiyoude, Pya, Kozah 2, BP43 Pya","ouverture_jour":"{lundi,Mardi,Mercredi,Jeudi,Vendredi}","ministere_tutelle":"MESR"}},{"type":"Feature","id":"_mview_admi_etablissements_administration.fid--1b6ae3e2_1a0db278384_-3837","geometry":{"type":"Point","coordinates":[1.22255739,6.13439548]},"geometry_name":"geometry","properties":{"region_nom_bdd":"Maritime","prefecture_nom_bdd":"Golfe","commune_nom_bdd":"Golfe 4","canton_nom_bdd":"Amoutivé","nom_localite":"Nsp","etablissement_nom":"Académies des Langues Nationales (ALN) - Académie Éwé / Eʋegbe Akademi","etab_adr":"Académie Kabyè BP 389 12 175 Lomé/ 90361341","ouverture_jour":"Nsp","ministere_tutelle":"MESR"}},{"type":"Feature","id":"_mview_admi_etablissements_administration.fid--1b6ae3e2_1a0db278384_-3836","geometry":{"type":"Point","coordinates":[1.2183,6.12937]},"geometry_name":"geometry","properties":{"region_nom_bdd":"Maritime","prefecture_nom_bdd":"Golfe","commune_nom_bdd":"Golfe 4","canton_nom_bdd":"Amoutivé","nom_localite":"Quartier Administratif","etablissement_nom":"Direction de la Bibliothèque et des Archives Nationales (MESR/DBAN)","etab_adr":"Direction de la Bibliothèque et des Archives Nationales (MESR/DBAN), Quartier Administratif, Amoutivé, Golfe 4, BP1002 Lomé","ouverture_jour":"{lundi,Mardi,Mercredi,Jeudi,Vendredi}","ministere_tutelle":"MESR"}},{"type":"Feature","id":"_mview_admi_etablissements_administration.fid--1b6ae3e2_1a0db278384_-3835","geometry":{"type":"Point","coordinates":[1.21858382,6.12738553]},"geometry_name":"geometry","properties":{"region_nom_bdd":"Maritime","prefecture_nom_bdd":"Golfe","commune_nom_bdd":"Golfe 4","canton_nom_bdd":"Amoutivé","nom_localite":"Amoutive","etablissement_nom":"Direction des Affaires Administratives et Financières (MESR/DAAF)","etab_adr":"Direction des affaires administratives et financières (MESR/DAAF), Amoutive, Amoutivé, Golfe 4","ouverture_jour":"{lundi,Mardi,Mercredi,Jeudi,Vendredi}","ministere_tutelle":"MESR"}},{"type":"Feature","id":"_mview_admi_etablissements_administration.fid--1b6ae3e2_1a0db278384_-3834","geometry":{"type":"Point","coordinates":[1.21377339,6.12911942]},"geometry_name":"geometry","properties":{"region_nom_bdd":"Maritime","prefecture_nom_bdd":"Golfe","commune_nom_bdd":"Golfe 4","canton_nom_bdd":"Amoutivé","nom_localite":"Quartier Administratif","etablissement_nom":"Direction des Bourses et Stages (MESR/DBS)","etab_adr":"Direction des Bourses et Stages (MESR/DBS), Ancien Immeuble OPAT, Quartier Administratif, Amoutivé, Golfe 4","ouverture_jour":"{lundi,Mardi,Mercredi,Jeudi,Vendredi}","ministere_tutelle":"MESR"}},{"type":"Feature","id":"_mview_admi_etablissements_administration.fid--1b6ae3e2_1a0db278384_-3833","geometry":{"type":"Point","coordinates":[1.2131982,6.12233914]},"geometry_name":"geometry","properties":{"region_nom_bdd":"Maritime","prefecture_nom_bdd":"Golfe","commune_nom_bdd":"Golfe 4","canton_nom_bdd":"Amoutivé","nom_localite":"Quartier Administratif","etablissement_nom":"Office du Brevet de Technicien Supérieur (OBTS)","etab_adr":"Office du Brevet de Technicien Supérieur (OBTS), Quartier Administratif, Amoutivé, Golfe 4, BP989 Lomé","ouverture_jour":"{lundi,Mardi,Mercredi,Jeudi,Vendredi}","ministere_tutelle":"MESR"}},{"type":"Feature","id":"_mview_admi_etablissements_administration.fid--1b6ae3e2_1a0db278384_-3832","geometry":{"type":"Point","coordinates":[1.22469297,6.15199063]},"geometry_name":"geometry","properties":{"region_nom_bdd":"Maritime","prefecture_nom_bdd":"Golfe","commune_nom_bdd":"Golfe 3","canton_nom_bdd":"Bè-Ouest","nom_localite":"Doumassesse","etablissement_nom":"Office du Baccalauréat (OB)","etab_adr":"Office du Baccalauréat (OB), Doumassesse, Bè-Ouest, Golfe 3","ouverture_jour":"{lundi,Mardi,Mercredi,Jeudi,Vendredi}","ministere_tutelle":"MEPSTA, MESR"}},{"type":"Feature","id":"_mview_admi_etablissements_administration.fid--1b6ae3e2_1a0db278384_-3831","geometry":{"type":"Point","coordinates":[1.22882402,6.15121869]},"geometry_name":"geometry","properties":{"region_nom_bdd":"Maritime","prefecture_nom_bdd":"Golfe","commune_nom_bdd":"Golfe 3","canton_nom_bdd":"Bè-Ouest","nom_localite":"Tokoin","etablissement_nom":"Direction de la Gestion du Domaine Universitaire de Lomé (UL/DGDU)","etab_adr":"Direction de la Gestion du Domaine Universitaire de Lomé (UL/DGDU), Tokoin, Bè-Ouest, Golfe 3, 01BP1515 Lomé 1","ouverture_jour":"{lundi,Mardi,Mercredi,Jeudi,Vendredi}","ministere_tutelle":"MESR"}},{"type":"Feature","id":"_mview_admi_etablissements_administration.fid--1b6ae3e2_1a0db278384_-3830","geometry":{"type":"Point","coordinates":[1.21859359,6.12745253]},"geometry_name":"geometry","properties":{"region_nom_bdd":"Maritime","prefecture_nom_bdd":"Golfe","commune_nom_bdd":"Golfe 4","canton_nom_bdd":"Amoutivé","nom_localite":"Quartier Administratif","etablissement_nom":"Ministere de l'Enseignement Supérieur et de la Recherche (MESR)","etab_adr":"Ministere de l'Enseignement Supérieur et de la Recherche (MESR), Quartier Administratif, Amoutivé, Golfe 4, 83BP Lomé","ouverture_jour":"{lundi,Mardi,Mercredi,Jeudi,Vendredi}","ministere_tutelle":"MESR"}},{"type":"Feature","id":"_mview_admi_etablissements_administration.fid--1b6ae3e2_1a0db278384_-382f","geometry":{"type":"Point","coordinates":[1.21695531,6.1686633]},"geometry_name":"geometry","properties":{"region_nom_bdd":"Maritime","prefecture_nom_bdd":"Golfe","commune_nom_bdd":"Golfe 3","canton_nom_bdd":"Bè-Ouest","nom_localite":"Université De Lome","etablissement_nom":"Centre des Oeuvres Universitaire (COU) - Lome","etab_adr":"Centre des Oeuvres Universitaire (COU) - Lome, Université de Lome, Bè-Ouest, Golfe 3, 01BP1515 Lomé 1","ouverture_jour":"{lundi,Mardi,Mercredi,Jeudi,Vendredi}","ministere_tutelle":"MESR"}}],"totalFeatures":19,"numberMatched":19,"numberReturned":19,"timeStamp":"2026-09-26T00:40:35.932Z","crs":{"type":"name","properties":{"name":"urn:ogc:def:crs:EPSG::4326"}}}