{"type":"FeatureCollection","features":[{"type":"Feature","id":"_mview_admi_etablissements_administration.fid--1b6ae3e2_1a0db278384_-375a","geometry":{"type":"Point","coordinates":[0.63596119,6.89908208]},"geometry_name":"geometry","properties":{"region_nom_bdd":"Plateaux","prefecture_nom_bdd":"Kloto","commune_nom_bdd":"Kloto 1","canton_nom_bdd":"Agome-Kpalime","nom_localite":"Kpalimé","etablissement_nom":"Direction Préfectorale des Travaux Publics (DPTP) - Kloto","etab_adr":"Direction Préfectorale des Travaux Publics (DPTP) - Kloto, Kpalimé, Agome-Kpalime, Kloto 1","ouverture_jour":"{Vendredi,Jeudi,Mercredi,Mardi,lundi}","ministere_tutelle":"MTP, MDPR"}},{"type":"Feature","id":"_mview_admi_etablissements_administration.fid--1b6ae3e2_1a0db278384_-3759","geometry":{"type":"Point","coordinates":[1.61404971,6.24824483]},"geometry_name":"geometry","properties":{"region_nom_bdd":"Maritime","prefecture_nom_bdd":"Lacs","commune_nom_bdd":"Lacs 1","canton_nom_bdd":"Glidji","nom_localite":"Zebe","etablissement_nom":"Direction Préfectorale des Travaux Publics (DPTP) - Aného","etab_adr":"Direction Préfectorale des Travaux Publics (DPTP) - Aného, Zebe, Glidji, Lacs 1","ouverture_jour":"{lundi,Mardi,Jeudi,Mercredi,Vendredi}","ministere_tutelle":"MTP, MDPR"}},{"type":"Feature","id":"_mview_admi_etablissements_administration.fid--1b6ae3e2_1a0db278384_-3758","geometry":{"type":"Point","coordinates":[0.60814956,7.59928808]},"geometry_name":"geometry","properties":{"region_nom_bdd":"Plateaux","prefecture_nom_bdd":"Wawa","commune_nom_bdd":"Wawa 1","canton_nom_bdd":"Badou","nom_localite":"Kessibo","etablissement_nom":"Direction Préfectorale des Travaux Publics (DPTP) - Wawa","etab_adr":"Direction Préfectorale des Travaux Publics (DPTP) - Wawa, Kessibo, Badou, Wawa 1","ouverture_jour":"Nsp","ministere_tutelle":"MTP, MDPR"}},{"type":"Feature","id":"_mview_admi_etablissements_administration.fid--1b6ae3e2_1a0db278384_-3757","geometry":{"type":"Point","coordinates":[1.17202398,6.9630947]},"geometry_name":"geometry","properties":{"region_nom_bdd":"Plateaux","prefecture_nom_bdd":"Haho","commune_nom_bdd":"Haho 1","canton_nom_bdd":"Notsé","nom_localite":"Notsé","etablissement_nom":"Direction Préfectorale des Travaux Publics (DPTP) - Haho","etab_adr":"Direction Préfectorale des Travaux Publics (DPTP) - Haho, Notsé, Notsé, Haho 1","ouverture_jour":"{lundi,Mardi,Mercredi,Jeudi,Vendredi}","ministere_tutelle":"MTP, MDPR"}},{"type":"Feature","id":"_mview_admi_etablissements_administration.fid--1b6ae3e2_1a0db278384_-3756","geometry":{"type":"Point","coordinates":[1.13042299,7.5221121]},"geometry_name":"geometry","properties":{"region_nom_bdd":"Plateaux","prefecture_nom_bdd":"Ogou","commune_nom_bdd":"Ogou 1","canton_nom_bdd":"Gnagna","nom_localite":"Lom-nava","etablissement_nom":"Société de Conception, Construction, Contrôle et d'Expertise - Ingénieries et Conseils (S3CE-IC)","etab_adr":"Société de Conception, Construction, Contrôle et d'Expertise - Ingénieries et Conseils (S3CE-IC), Lom-Nava, Gnagna, Ogou 1","ouverture_jour":"{lundi,Mardi,Mercredi,Jeudi,Vendredi}","ministere_tutelle":"MTP"}},{"type":"Feature","id":"_mview_admi_etablissements_administration.fid--1b6ae3e2_1a0db278384_-3755","geometry":{"type":"Point","coordinates":[0.46734758,10.36117711]},"geometry_name":"geometry","properties":{"region_nom_bdd":"Savanes","prefecture_nom_bdd":"Oti","commune_nom_bdd":"Oti 1","canton_nom_bdd":"Mango","nom_localite":"Quartier Administratif","etablissement_nom":"Direction Préfectorale des Travaux Publics (DPTP) - Oti","etab_adr":"Direction Préfectorale des Travaux Publics (DPTP) - Oti, Quartier Administratif, Mango, Oti 1, BP03 Mango 9","ouverture_jour":"{lundi,Mardi,Mercredi,Jeudi,Vendredi}","ministere_tutelle":"MTP, MDPR"}},{"type":"Feature","id":"_mview_admi_etablissements_administration.fid--1b6ae3e2_1a0db278384_-3754","geometry":{"type":"Point","coordinates":[1.19271115,7.76095555]},"geometry_name":"geometry","properties":{"region_nom_bdd":"Plateaux","prefecture_nom_bdd":"Anié","commune_nom_bdd":"Anié 1","canton_nom_bdd":"Anié","nom_localite":"Alhamdou","etablissement_nom":"Direction Préfectorale des Travaux Publics (DPTP) - Anie","etab_adr":"Direction Préfectorale des Travaux Publics (DPTP) - Anie, Alhamdou, Anié, Anié 1","ouverture_jour":"{lundi,Mardi,Mercredi,Jeudi,Vendredi}","ministere_tutelle":"MTP, MDPR"}},{"type":"Feature","id":"_mview_admi_etablissements_administration.fid--1b6ae3e2_1a0db278384_-3753","geometry":{"type":"Point","coordinates":[0.19844118,10.88546339]},"geometry_name":"geometry","properties":{"region_nom_bdd":"Savanes","prefecture_nom_bdd":"Tône","commune_nom_bdd":"Tône 1","canton_nom_bdd":"Dapaong","nom_localite":"Nassablé","etablissement_nom":"Direction Régionale des Travaux Publics (DRTP-RS) - Savanes","etab_adr":"Direction Régionale des Travaux Publics (DRTP-RS) - Savanes, Nassablé, Dapaong, Tône 1","ouverture_jour":"{lundi,Mardi,Mercredi,Jeudi,Vendredi}","ministere_tutelle":"MTP, MDPR"}},{"type":"Feature","id":"_mview_admi_etablissements_administration.fid--1b6ae3e2_1a0db278384_-3752","geometry":{"type":"Point","coordinates":[1.13189555,7.52752045]},"geometry_name":"geometry","properties":{"region_nom_bdd":"Plateaux","prefecture_nom_bdd":"Ogou","commune_nom_bdd":"Ogou 1","canton_nom_bdd":"Gnagna","nom_localite":"Nyekonakpoe","etablissement_nom":"Direction Régionale des Travaux Publics (DRTP-RP) - Plateaux","etab_adr":"Direction Régionale des Travaux Publics (DRTP-RP) - Plateaux, Nyekonakpoe, Gnagna, Ogou 1","ouverture_jour":"{lundi,Mardi,Mercredi,Jeudi,Vendredi}","ministere_tutelle":"MTP, MDPR"}},{"type":"Feature","id":"_mview_admi_etablissements_administration.fid--1b6ae3e2_1a0db278384_-3751","geometry":{"type":"Point","coordinates":[1.21134219,6.42352562]},"geometry_name":"geometry","properties":{"region_nom_bdd":"Maritime","prefecture_nom_bdd":"Zio","commune_nom_bdd":"Zio 1","canton_nom_bdd":"Tsévié","nom_localite":"Boloumondji","etablissement_nom":"Direction Régionale des Travaux Publics (DRTP-RM) - Maritime","etab_adr":"Direction Régionale des Travaux Publics (DRTP-RM) - Maritime, Boloumondji, Tsévié, Zio 1","ouverture_jour":"{lundi,Mardi,Mercredi,Jeudi,Vendredi}","ministere_tutelle":"MTP, MDPR"}},{"type":"Feature","id":"_mview_admi_etablissements_administration.fid--1b6ae3e2_1a0db278384_-3750","geometry":{"type":"Point","coordinates":[1.13594333,8.97762667]},"geometry_name":"geometry","properties":{"region_nom_bdd":"Centrale","prefecture_nom_bdd":"Tchaoudjo","commune_nom_bdd":"Tchaoudjo 1","canton_nom_bdd":"Sokodè (Komah)","nom_localite":"Komah","etablissement_nom":"Direction Régionale des Travaux Publics (DRTP-RC) - Centrale","etab_adr":"Direction Régionale des Travaux Publics (DRTP-RC) - Centrale, Komah, Sokodè (Komah), Tchaoudjo 1","ouverture_jour":"{lundi,Mardi,Mercredi,Jeudi,Vendredi}","ministere_tutelle":"MTP, MDPR"}},{"type":"Feature","id":"_mview_admi_etablissements_administration.fid--1b6ae3e2_1a0db278384_-374f","geometry":{"type":"Point","coordinates":[1.23396553,6.1615962]},"geometry_name":"geometry","properties":{"region_nom_bdd":"Maritime","prefecture_nom_bdd":"Golfe","commune_nom_bdd":"Golfe 3","canton_nom_bdd":"Bè-Ouest","nom_localite":"Be","etablissement_nom":"Agence Exécution de Travaux Urbains au Togo (AGETUR)","etab_adr":"Agence Exécution de Travaux Urbains au Togo (AGETUR), Be, Bè-Ouest, Golfe 3, BP80267 Lomé","ouverture_jour":"Nsp","ministere_tutelle":"MUHRF, MTP"}},{"type":"Feature","id":"_mview_admi_etablissements_administration.fid--1b6ae3e2_1a0db278384_-374e","geometry":{"type":"Point","coordinates":[1.20811583,6.20103761]},"geometry_name":"geometry","properties":{"region_nom_bdd":"Maritime","prefecture_nom_bdd":"Agoè-Nyivé","commune_nom_bdd":"Agoè-Nyivé 1","canton_nom_bdd":"Agoè-Nyivé","nom_localite":"Cacaveli","etablissement_nom":"Societe Autonome de Financement Entretien Routiers (SAFER)","etab_adr":"Societe Autonome de Financement Entretien Routiers (SAFER), Cacaveli, Agoè-Nyivé, Agoè-Nyivé 1, BP8646 Lomé Lomé","ouverture_jour":"{lundi,Mardi,Mercredi,Jeudi,Vendredi}","ministere_tutelle":"MTP, MDPR"}},{"type":"Feature","id":"_mview_admi_etablissements_administration.fid--1b6ae3e2_1a0db278384_-374d","geometry":{"type":"Point","coordinates":[1.179895,9.54964667]},"geometry_name":"geometry","properties":{"region_nom_bdd":"Kara","prefecture_nom_bdd":"Kozah","commune_nom_bdd":"Kozah 1","canton_nom_bdd":"Commune De Kara","nom_localite":"Ewowou","etablissement_nom":"Direction Régionale des Travaux Publics (DRTP-RK) - Kara","etab_adr":"Direction Régionale des Travaux Publics (DRTP-RK) - Kara, Ewowou, Commune De Kara, Kozah 1, BP16 Kara","ouverture_jour":"{Vendredi,Jeudi,Mercredi,Mardi,lundi}","ministere_tutelle":"MTP, MDPR"}},{"type":"Feature","id":"_mview_admi_etablissements_administration.fid--1b6ae3e2_1a0db278384_-374c","geometry":{"type":"Point","coordinates":[1.20595015,6.20341391]},"geometry_name":"geometry","properties":{"region_nom_bdd":"Maritime","prefecture_nom_bdd":"Agoè-Nyivé","commune_nom_bdd":"Agoè-Nyivé 1","canton_nom_bdd":"Agoè-Nyivé","nom_localite":"Cacaveli","etablissement_nom":"Laboratoire National du Bâtiment et des Travaux Publics (LNBTP)","etab_adr":"Laboratoire National du Bâtiment et des Travaux Publics (LNBTP), Cacaveli, Agoè-Nyivé, Agoè-Nyivé 1, BP20100 Lomé","ouverture_jour":"{Mardi,lundi,Mercredi,Jeudi,Vendredi}","ministere_tutelle":"MTP"}},{"type":"Feature","id":"_mview_admi_etablissements_administration.fid--1b6ae3e2_1a0db278384_-374b","geometry":{"type":"Point","coordinates":[1.24274135,6.15499092]},"geometry_name":"geometry","properties":{"region_nom_bdd":"Maritime","prefecture_nom_bdd":"Golfe","commune_nom_bdd":"Golfe 2","canton_nom_bdd":"Bè-Centre","nom_localite":"Edjranawe","etablissement_nom":"Centre Régional de Formation Pour l'Entretien Routier (CERFER)","etab_adr":"Centre Régional de Formation Pour l'Entretien Routier (CERFER), Edjranawe, Bè-Centre, Golfe 2","ouverture_jour":"{lundi,Mardi,Mercredi,Jeudi,Vendredi}","ministere_tutelle":"MTP"}}],"totalFeatures":16,"numberMatched":16,"numberReturned":16,"timeStamp":"2026-09-26T00:40:52.267Z","crs":{"type":"name","properties":{"name":"urn:ogc:def:crs:EPSG::4326"}}}