{"type":"FeatureCollection","features":[{"type":"Feature","id":"_mview_admi_etablissements_administration.fid--1b6ae3e2_1a0db278384_-3d53","geometry":{"type":"Point","coordinates":[1.60467333,6.256235]},"geometry_name":"geometry","properties":{"region_nom_bdd":"Maritime","prefecture_nom_bdd":"Lacs","commune_nom_bdd":"Lacs 1","canton_nom_bdd":"Glidji","nom_localite":"Glidji","etablissement_nom":"Direction Préfectorale de l'Action Sociale, de la Promotion de la Femme et de l'alphabétisation ( DPASPFA) - Lacs","etab_adr":"N/a","ouverture_jour":"{lundi,Vendredi,Mercredi,Mardi,Jeudi}","ministere_tutelle":"MASPFA"}},{"type":"Feature","id":"_mview_admi_etablissements_administration.fid--1b6ae3e2_1a0db278384_-3d52","geometry":{"type":"Point","coordinates":[1.21376885,6.12909873]},"geometry_name":"geometry","properties":{"region_nom_bdd":"Maritime","prefecture_nom_bdd":"Golfe","commune_nom_bdd":"Golfe 4","canton_nom_bdd":"Amoutivé","nom_localite":"Quartier Administratif","etablissement_nom":"Direction Générale de l'action sociale (DGAS)","etab_adr":"Quartier administratif","ouverture_jour":null,"ministere_tutelle":"MASPFA"}},{"type":"Feature","id":"_mview_admi_etablissements_administration.fid--1b6ae3e2_1a0db278384_-3d51","geometry":{"type":"Point","coordinates":[1.2371314,6.17062141]},"geometry_name":"geometry","properties":{"region_nom_bdd":"Maritime","prefecture_nom_bdd":"Golfe","commune_nom_bdd":"Golfe 2","canton_nom_bdd":"Bè-Centre","nom_localite":"Tokoin Novissi","etablissement_nom":"Centre d'Ecoute des Victimes de Violence Basées sur le genre","etab_adr":"Tokoin Novissi","ouverture_jour":null,"ministere_tutelle":"MASPFA"}},{"type":"Feature","id":"_mview_admi_etablissements_administration.fid--1b6ae3e2_1a0db278384_-3d50","geometry":{"type":"Point","coordinates":[1.23683,6.17058833]},"geometry_name":"geometry","properties":{"region_nom_bdd":"Maritime","prefecture_nom_bdd":"Golfe","commune_nom_bdd":"Golfe 2","canton_nom_bdd":"Bè-Centre","nom_localite":"Tokoin-novissi","etablissement_nom":"Direction Générale du Genre et de la Promotion de la Femme ( DGGPF)","etab_adr":"Tokoin Novissi","ouverture_jour":null,"ministere_tutelle":"MASPFA"}},{"type":"Feature","id":"_mview_admi_etablissements_administration.fid--1b6ae3e2_1a0db278384_-3d4f","geometry":{"type":"Point","coordinates":[0.78727789,7.65957134]},"geometry_name":"geometry","properties":{"region_nom_bdd":"Plateaux","prefecture_nom_bdd":"Akébou","commune_nom_bdd":"Akébou 1","canton_nom_bdd":"Kougnohou","nom_localite":"Kougnohou","etablissement_nom":"Direction Préfectorale de l'Action Sociale, de la Promotion de la Femme et de l'Alphabétisation (DPASPFA) - Akebou","etab_adr":"Direction Préfectorale de l'Action Sociale, de la Promotion de la Femme et de l'Alphabétisation (DPASPFA) - Akebou, Kougnohou, Kougnohou, Akébou 1","ouverture_jour":"{lundi,Mardi,Mercredi,Jeudi,Vendredi}","ministere_tutelle":"MASPFA"}},{"type":"Feature","id":"_mview_admi_etablissements_administration.fid--1b6ae3e2_1a0db278384_-3d4e","geometry":{"type":"Point","coordinates":[1.20655009,6.14921169]},"geometry_name":"geometry","properties":{"region_nom_bdd":"Maritime","prefecture_nom_bdd":"Golfe","commune_nom_bdd":"Golfe 3","canton_nom_bdd":"Bè-Ouest","nom_localite":"Tokoin Habitat","etablissement_nom":"Direction Régionale de l'Action Sociale de la Promotion de la Femme et de l'Alphabétisation (DRASPFA-GL) - Lomé-Commune","etab_adr":"Direction Régionale de l'Action Sociale de la Promotion de la Femme et de l'Alphabétisation (DRASPFA-GL) - Lomé-Commune, Tokoin Habitat, Bè-Ouest, Golfe 3","ouverture_jour":"{lundi,Mardi,Mercredi,Jeudi,Vendredi}","ministere_tutelle":"MASPFA"}},{"type":"Feature","id":"_mview_admi_etablissements_administration.fid--1b6ae3e2_1a0db278384_-3d4d","geometry":{"type":"Point","coordinates":[1.14989167,8.981035]},"geometry_name":"geometry","properties":{"region_nom_bdd":"Centrale","prefecture_nom_bdd":"Tchaoudjo","commune_nom_bdd":"Tchaoudjo 1","canton_nom_bdd":"Sokodè (Komah)","nom_localite":"Koulounde","etablissement_nom":"Direction Préfectorale de l'Action Sociale, de la Promotion de la Femme et de l'Alphabétisation (DPASPFA) - Tchaoudjo","etab_adr":"Direction Préfectorale de l'Action Sociale, de la Promotion de la Femme et de l'Alphabétisation (DPASPFA) - Tchaoudjo, Koulounde, Sokodè (Komah), Tchaoudjo 1, BP48 Sokode","ouverture_jour":"{lundi,Mardi,Mercredi,Jeudi,Vendredi}","ministere_tutelle":"MASPFA"}},{"type":"Feature","id":"_mview_admi_etablissements_administration.fid--1b6ae3e2_1a0db278384_-3d4c","geometry":{"type":"Point","coordinates":[0.97853047,8.32294013]},"geometry_name":"geometry","properties":{"region_nom_bdd":"Centrale","prefecture_nom_bdd":"Blitta","commune_nom_bdd":"Blitta 1","canton_nom_bdd":"Blitta","nom_localite":"Blitta Gare","etablissement_nom":"Direction Préfectorale de l'Action Sociale, de la Promotion de la Femme et de l'Alphabétisation (DPASPFA) - Blitta","etab_adr":"Direction Préfectorale de l'Action Sociale, de la Promotion de la Femme et de l'Alphabétisation (DPASPFA) - Blitta, Blitta Gare, Blitta, Blitta 1","ouverture_jour":"{lundi,Mardi,Mercredi,Jeudi,Vendredi}","ministere_tutelle":"MASPFA"}},{"type":"Feature","id":"_mview_admi_etablissements_administration.fid--1b6ae3e2_1a0db278384_-3d4b","geometry":{"type":"Point","coordinates":[0.21146459,10.87441791]},"geometry_name":"geometry","properties":{"region_nom_bdd":"Savanes","prefecture_nom_bdd":"Tône","commune_nom_bdd":"Tône 1","canton_nom_bdd":"Dapaong","nom_localite":"Natbagou","etablissement_nom":"Direction Préfectorale de l'Action Sociale, de la Promotion de la Femme et de l'Alphabétisation (DPASPFA) - Tône","etab_adr":"Direction Préfectorale de l'Action Sociale, de la Promotion de la Femme et de l'Alphabétisation (DPASPFA) - Tône, Natbagou, Dapaong, Tône 1, BP108","ouverture_jour":"{lundi,Mardi,Mercredi,Jeudi,Vendredi}","ministere_tutelle":"MASPFA"}},{"type":"Feature","id":"_mview_admi_etablissements_administration.fid--1b6ae3e2_1a0db278384_-3d4a","geometry":{"type":"Point","coordinates":[1.10907593,9.7477798]},"geometry_name":"geometry","properties":{"region_nom_bdd":"Kara","prefecture_nom_bdd":"Doufelgou","commune_nom_bdd":"Doufelgou 1","canton_nom_bdd":"Niamtougou","nom_localite":"Tabiyogou","etablissement_nom":"Direction Préfectorale de l'Action Sociale, de la Promotion de la Femme et de l'Alphabétisation (DPASPFA) - Doufelgou","etab_adr":"Direction Préfectorale de l'Action Sociale, de la Promotion de la Femme et de l'Alphabétisation (DPASPFA) - Doufelgou, Tabiyogou, Niamtougou, Doufelgou 1","ouverture_jour":"{lundi,Mardi,Mercredi,Jeudi,Vendredi}","ministere_tutelle":"MASPFA"}},{"type":"Feature","id":"_mview_admi_etablissements_administration.fid--1b6ae3e2_1a0db278384_-3d49","geometry":{"type":"Point","coordinates":[0.60469167,7.58492333]},"geometry_name":"geometry","properties":{"region_nom_bdd":"Plateaux","prefecture_nom_bdd":"Wawa","commune_nom_bdd":"Wawa 1","canton_nom_bdd":"Badou","nom_localite":"Iomnava","etablissement_nom":"Direction Préfectorale de l'Action Sociale, de la Promotion de la Femme et de l'Alphabétisation (DPASPFA) - Wawa","etab_adr":"Direction Préfectorale de l'Action Sociale, de la Promotion de la Femme et de l'Alphabétisation (DPASPFA) - Wawa, Iomnava, Badou, Wawa 1","ouverture_jour":"{lundi,Mardi,Mercredi,Jeudi,Vendredi}","ministere_tutelle":"MASPFA"}},{"type":"Feature","id":"_mview_admi_etablissements_administration.fid--1b6ae3e2_1a0db278384_-3d48","geometry":{"type":"Point","coordinates":[1.19538667,7.78723333]},"geometry_name":"geometry","properties":{"region_nom_bdd":"Plateaux","prefecture_nom_bdd":"Anié","commune_nom_bdd":"Anié 1","canton_nom_bdd":"Anié","nom_localite":"Anie","etablissement_nom":"Direction Préfectorale de l'Action Sociale, de la Promotion de la Femme et de l'Alphabétisation (DPASPFA) - Anié","etab_adr":"Direction Préfectorale de l'Action Sociale, de la Promotion de la Femme et de l'Alphabétisation (DPASPFA) - Anié, Anie, Anié, Anié 1","ouverture_jour":"{lundi,Mardi,Mercredi,Jeudi,Vendredi}","ministere_tutelle":"MASPFA"}},{"type":"Feature","id":"_mview_admi_etablissements_administration.fid--1b6ae3e2_1a0db278384_-3d47","geometry":{"type":"Point","coordinates":[1.21164,6.41612167]},"geometry_name":"geometry","properties":{"region_nom_bdd":"Maritime","prefecture_nom_bdd":"Zio","commune_nom_bdd":"Zio 1","canton_nom_bdd":"Tsévié","nom_localite":"Daviemondji","etablissement_nom":"Direction Régionale de l'Action Sociale de la Promotion de la Femme et de l'Alphabétisation (DRASPFA-M) - Maritime","etab_adr":"Direction Régionale de l'Action Sociale de la Promotion de la Femme et de l'Alphabétisation (DRASPFA-M) - Maritime, Daviemondji, Tsévié, Zio 1, BP74 Tsevie","ouverture_jour":"{lundi,Mardi,Mercredi,Jeudi,Vendredi}","ministere_tutelle":"MASPFA"}},{"type":"Feature","id":"_mview_admi_etablissements_administration.fid--1b6ae3e2_1a0db278384_-3d46","geometry":{"type":"Point","coordinates":[1.62822413,6.49464444]},"geometry_name":"geometry","properties":{"region_nom_bdd":"Maritime","prefecture_nom_bdd":"Bas-Mono","commune_nom_bdd":"Bas-Mono 1","canton_nom_bdd":"Afagnangan","nom_localite":"Klave","etablissement_nom":"Direction Préfectorale de l'Action Sociale, de la Promotion de la Femme et de l'Alphabétisation (DPASPFA) - Bas Mono","etab_adr":"Direction Préfectorale de l'Action Sociale, de la Promotion de la Femme et de l'Alphabétisation (DPASPFA) - Bas Mono, Klave, Afagnangan, Bas-Mono 1","ouverture_jour":"{lundi,Mardi,Mercredi,Jeudi,Vendredi}","ministere_tutelle":"MASPFA"}},{"type":"Feature","id":"_mview_admi_etablissements_administration.fid--1b6ae3e2_1a0db278384_-3d45","geometry":{"type":"Point","coordinates":[1.21098821,6.42842548]},"geometry_name":"geometry","properties":{"region_nom_bdd":"Maritime","prefecture_nom_bdd":"Zio","commune_nom_bdd":"Zio 1","canton_nom_bdd":"Tsévié","nom_localite":"Ndanyi","etablissement_nom":"Direction Préfectorale de l'Action Sociale, de la Promotion de la Femme et de l'Alphabétisation (DPASPFA) - Zio","etab_adr":"Direction Préfectorale de l'Action Sociale, de la Promotion de la Femme et de l'Alphabétisation (DPASPFA) - Zio, Ndanyi, Tsévié, Zio 1, BP74","ouverture_jour":"{lundi,Mardi,Mercredi,Jeudi,Vendredi}","ministere_tutelle":"MASPFA"}},{"type":"Feature","id":"_mview_admi_etablissements_administration.fid--1b6ae3e2_1a0db278384_-3d44","geometry":{"type":"Point","coordinates":[1.41529608,9.02237032]},"geometry_name":"geometry","properties":{"region_nom_bdd":"Centrale","prefecture_nom_bdd":"Tchamba","commune_nom_bdd":"Tchamba 1","canton_nom_bdd":"Tchamba","nom_localite":"Tchamba","etablissement_nom":"Direction Préfectorale de l'Action Sociale, de la Promotion de la Femme et de l'Alphabétisation (DPASPFA) - Tchamba","etab_adr":"Direction Préfectorale de l'Action Sociale, de la Promotion de la Femme et de l'Alphabétisation (DPASPFA) - Tchamba, Tchamba, Tchamba, Tchamba 1, BP48 Sokodé","ouverture_jour":"{lundi,Mardi,Mercredi,Jeudi,Vendredi}","ministere_tutelle":"MASPFA"}},{"type":"Feature","id":"_mview_admi_etablissements_administration.fid--1b6ae3e2_1a0db278384_-3d43","geometry":{"type":"Point","coordinates":[1.50542124,6.59443499]},"geometry_name":"geometry","properties":{"region_nom_bdd":"Maritime","prefecture_nom_bdd":"Yoto","commune_nom_bdd":"Yoto 1","canton_nom_bdd":"Tabligbo","nom_localite":"Folly Kome","etablissement_nom":"Direction Préfectorale de l'Action Sociale, de la Promotion de la Femme et de l'Alphabétisation (DPASPFA) - Yoto","etab_adr":"Direction Préfectorale de l'Action Sociale, de la Promotion de la Femme et de l'Alphabétisation (DPASPFA) - Yoto, Folly Kome, Tabligbo, Yoto 1","ouverture_jour":"{lundi,Mardi,Mercredi,Jeudi,Vendredi}","ministere_tutelle":"MASPFA"}},{"type":"Feature","id":"_mview_admi_etablissements_administration.fid--1b6ae3e2_1a0db278384_-3d42","geometry":{"type":"Point","coordinates":[1.13348228,7.52788214]},"geometry_name":"geometry","properties":{"region_nom_bdd":"Plateaux","prefecture_nom_bdd":"Ogou","commune_nom_bdd":"Ogou 1","canton_nom_bdd":"Gnagna","nom_localite":"Nyekonakpoe","etablissement_nom":"Direction Préfectorale de l'Action Sociale, de la Promotion de la Femme et de l'Alphabétisation (DPASPFA) - Ogou","etab_adr":"Direction Préfectorale de l'Action Sociale, de la Promotion de la Femme et de l'Alphabétisation (DPASPFA) - Ogou, Nyekonakpoe, Gnagna, Ogou 1","ouverture_jour":"{lundi,Mardi,Mercredi,Jeudi,Vendredi}","ministere_tutelle":"MASPFA"}},{"type":"Feature","id":"_mview_admi_etablissements_administration.fid--1b6ae3e2_1a0db278384_-3d41","geometry":{"type":"Point","coordinates":[0.38604333,10.73066396]},"geometry_name":"geometry","properties":{"region_nom_bdd":"Savanes","prefecture_nom_bdd":"Kpendjal-Ouest","commune_nom_bdd":"Kpendjal-Ouest 1","canton_nom_bdd":"Naki-Est","nom_localite":"Naki Est Centre","etablissement_nom":"Direction Préfectorale de l'Action Sociale, de la Promotion de la Femme et de l'Alphabétisation (DPASPFA) - Kpendjal Ouest","etab_adr":"Direction Préfectorale de l'Action Sociale, de la Promotion de la Femme et de l'Alphabétisation (DPASPFA) - Kpendjal Ouest, Naki Est Centre, Naki-Est, Kpendjal-Ouest 1","ouverture_jour":"{lundi,Mardi,Mercredi,Jeudi,Vendredi}","ministere_tutelle":"MASPFA"}},{"type":"Feature","id":"_mview_admi_etablissements_administration.fid--1b6ae3e2_1a0db278384_-3d40","geometry":{"type":"Point","coordinates":[0.72913415,7.12771265]},"geometry_name":"geometry","properties":{"region_nom_bdd":"Plateaux","prefecture_nom_bdd":"Kpélé","commune_nom_bdd":"Kpélé 1","canton_nom_bdd":"Kpélé-Novivé","nom_localite":"Kpelé-adeta","etablissement_nom":"Direction Préfectorale de l'Action Sociale, de la Promotion de la Femme et de l'Alphabétisation (DPASPFA) - Kpélé","etab_adr":"Direction Préfectorale de l'Action Sociale, de la Promotion de la Femme et de l'Alphabétisation (DPASPFA) - Kpélé, Kpelé-Adeta, Kpélé-Novivé, Kpélé 1","ouverture_jour":"{lundi,Mardi,Mercredi,Jeudi,Vendredi,Samedi}","ministere_tutelle":"MASPFA"}},{"type":"Feature","id":"_mview_admi_etablissements_administration.fid--1b6ae3e2_1a0db278384_-3d3f","geometry":{"type":"Point","coordinates":[0.63465992,6.91341127]},"geometry_name":"geometry","properties":{"region_nom_bdd":"Plateaux","prefecture_nom_bdd":"Kloto","commune_nom_bdd":"Kloto 1","canton_nom_bdd":"Agome-Kpalime","nom_localite":"Kpalimé","etablissement_nom":"Direction Préfectorale de l'Action Sociale, de la Promotion de la Femme et de l'Alphabétisation (DPASPFA) - Kloto","etab_adr":"Direction Préfectorale de l'Action Sociale, de la Promotion de la Femme et de l'Alphabétisation (DPASPFA) - Kloto, Kpalimé, Agome-Kpalime, Kloto 1","ouverture_jour":"{Vendredi,Jeudi,Mercredi,Mardi,lundi}","ministere_tutelle":"MASPFA"}},{"type":"Feature","id":"_mview_admi_etablissements_administration.fid--1b6ae3e2_1a0db278384_-3d3e","geometry":{"type":"Point","coordinates":[0.56264378,8.78391002]},"geometry_name":"geometry","properties":{"region_nom_bdd":"Centrale","prefecture_nom_bdd":"Mô","commune_nom_bdd":"Mô 1","canton_nom_bdd":"Djarkpanga","nom_localite":"Djarkpanga","etablissement_nom":"Direction Préfectorale de l'Action Sociale, de la Promotion de la Femme et de l'Alphabétisation (DPASPFA) - Mo","etab_adr":"Direction Préfectorale de l'Action Sociale, de la Promotion de la Femme et de l'Alphabétisation (DPASPFA) - Mo, Djarkpanga, Djarkpanga, Mô 1","ouverture_jour":"{lundi,Mardi,Mercredi,Jeudi,Vendredi}","ministere_tutelle":"MASPFA"}},{"type":"Feature","id":"_mview_admi_etablissements_administration.fid--1b6ae3e2_1a0db278384_-3d3d","geometry":{"type":"Point","coordinates":[0.90522642,7.45863785]},"geometry_name":"geometry","properties":{"region_nom_bdd":"Plateaux","prefecture_nom_bdd":"Amou","commune_nom_bdd":"Amou 1","canton_nom_bdd":"Amlamé (Ouma)","nom_localite":"Agadji","etablissement_nom":"Direction Préfectorale de l'Action Sociale, de la Promotion de la Femme et de l'Alphabétisation (DPASPFA) - Amou","etab_adr":"Direction Préfectorale de l'Action Sociale, de la Promotion de la Femme et de l'Alphabétisation (DPASPFA) - Amou, Agadji, Amlamé (Ouma), Amou 1","ouverture_jour":"{lundi,Mardi,Mercredi,Jeudi,Vendredi}","ministere_tutelle":"MASPFA"}},{"type":"Feature","id":"_mview_admi_etablissements_administration.fid--1b6ae3e2_1a0db278384_-3d3c","geometry":{"type":"Point","coordinates":[1.13308833,7.527495]},"geometry_name":"geometry","properties":{"region_nom_bdd":"Plateaux","prefecture_nom_bdd":"Ogou","commune_nom_bdd":"Ogou 1","canton_nom_bdd":"Gnagna","nom_localite":"Nyekonakpoe","etablissement_nom":"Direction Régionale de l'Action Sociale de la Promotion de la Femme et de l'Alphabétisation (DRASPFA-P) - Plateaux","etab_adr":"Direction Régionale de l'Action Sociale de la Promotion de la Femme et de l'Alphabétisation (DRASPFA-P) - Plateaux, Nyekonakpoe, Gnagna, Ogou 1, BP89 Atakpame","ouverture_jour":"{lundi,Mardi,Mercredi,Jeudi,Vendredi}","ministere_tutelle":"MASPFA"}},{"type":"Feature","id":"_mview_admi_etablissements_administration.fid--1b6ae3e2_1a0db278384_-3d3b","geometry":{"type":"Point","coordinates":[1.53010083,6.3339616]},"geometry_name":"geometry","properties":{"region_nom_bdd":"Maritime","prefecture_nom_bdd":"Vo","commune_nom_bdd":"Vo 1","canton_nom_bdd":"Vogan","nom_localite":"Adjrego","etablissement_nom":"Direction Préfectorale de l'Action Sociale, de la Promotion de la Femme et de l'Alphabétisation (DPASPFA) - Vo","etab_adr":"Direction Préfectorale de l'Action Sociale, de la Promotion de la Femme et de l'Alphabétisation (DPASPFA) - Vo, Adjrego, Vogan, Vo 1","ouverture_jour":"{lundi,Mardi,Mercredi,Jeudi,Vendredi}","ministere_tutelle":"MASPFA"}},{"type":"Feature","id":"_mview_admi_etablissements_administration.fid--1b6ae3e2_1a0db278384_-3d3a","geometry":{"type":"Point","coordinates":[0.71400908,6.8497384]},"geometry_name":"geometry","properties":{"region_nom_bdd":"Plateaux","prefecture_nom_bdd":"Agou","commune_nom_bdd":"Agou 1","canton_nom_bdd":"Agou-Tavié","nom_localite":"Agou Gare","etablissement_nom":"Direction Préfectorale de l'Action Sociale, de la Promotion de la Femme et de l'Alphabétisation (DPASPFA) - Agou","etab_adr":"Direction Préfectorale de l'Action Sociale, de la Promotion de la Femme et de l'Alphabétisation (DPASPFA) - Agou, Agou Gare, Agou-Tavié, Agou 1","ouverture_jour":"{lundi,Mardi,Mercredi,Jeudi,Vendredi,Samedi}","ministere_tutelle":"MASPFA"}},{"type":"Feature","id":"_mview_admi_etablissements_administration.fid--1b6ae3e2_1a0db278384_-3d39","geometry":{"type":"Point","coordinates":[0.20051844,10.87320546]},"geometry_name":"geometry","properties":{"region_nom_bdd":"Savanes","prefecture_nom_bdd":"Tône","commune_nom_bdd":"Tône 1","canton_nom_bdd":"Dapaong","nom_localite":"Bodjopal","etablissement_nom":"Direction Régionale de l'Action Sociale de la Promotion de la Femme et de l'Alphabétisation (DRASPFA-S) - Savanes","etab_adr":"Direction Régionale de l'Action Sociale de la Promotion de la Femme et de l'Alphabétisation (DRASPFA-S) - Savanes, Bodjopal, Dapaong, Tône 1, BP108","ouverture_jour":"{lundi,Mardi,Mercredi,Jeudi,Vendredi}","ministere_tutelle":"MASPFA"}},{"type":"Feature","id":"_mview_admi_etablissements_administration.fid--1b6ae3e2_1a0db278384_-3d38","geometry":{"type":"Point","coordinates":[0.81464213,10.85280111]},"geometry_name":"geometry","properties":{"region_nom_bdd":"Savanes","prefecture_nom_bdd":"Kpendjal","commune_nom_bdd":"Kpendjal 1","canton_nom_bdd":"Mandouri","nom_localite":"Tolongou 1","etablissement_nom":"Direction Préfectorale de l'Action Sociale, de la Promotion de la Femme et de l'Alphabétisation (DPASPFA) - Kpendjal","etab_adr":"Direction Préfectorale de l'Action Sociale, de la Promotion de la Femme et de l'Alphabétisation (DPASPFA) - Kpendjal, Tolongou 1, Mandouri, Kpendjal 1","ouverture_jour":"{lundi,Mardi,Mercredi,Jeudi,Vendredi}","ministere_tutelle":"MASPFA"}},{"type":"Feature","id":"_mview_admi_etablissements_administration.fid--1b6ae3e2_1a0db278384_-3d37","geometry":{"type":"Point","coordinates":[1.17817586,6.93972385]},"geometry_name":"geometry","properties":{"region_nom_bdd":"Plateaux","prefecture_nom_bdd":"Haho","commune_nom_bdd":"Haho 1","canton_nom_bdd":"Notsé","nom_localite":"Alinou","etablissement_nom":"Direction Préfectorale de l'Action Sociale, de la Promotion de la Femme et de l'Alphabétisation (DPASPFA) - Haho","etab_adr":"Direction Préfectorale de l'Action Sociale, de la Promotion de la Femme et de l'Alphabétisation (DPASPFA) - Haho, Alinou, Notsé, Haho 1","ouverture_jour":"{lundi,Mardi,Mercredi,Jeudi,Vendredi}","ministere_tutelle":"MASPFA"}},{"type":"Feature","id":"_mview_admi_etablissements_administration.fid--1b6ae3e2_1a0db278384_-3d36","geometry":{"type":"Point","coordinates":[0.60755665,9.70117382]},"geometry_name":"geometry","properties":{"region_nom_bdd":"Kara","prefecture_nom_bdd":"Dankpen","commune_nom_bdd":"Dankpen 1","canton_nom_bdd":"Guérin-Kouka","nom_localite":"Guerin-kouka","etablissement_nom":"Direction Préfectorale de l'Action Sociale, de la Promotion de la Femme et de l'Alphabétisation (DPASPFA) - Dankpen","etab_adr":"Direction Préfectorale de l'Action Sociale, de la Promotion de la Femme et de l'Alphabétisation (DPASPFA) - Dankpen, Dpasdankpen, Guerin-Kouka, Guérin-Kouka, Dankpen 1","ouverture_jour":"{lundi,Mardi,Mercredi,Jeudi,Vendredi}","ministere_tutelle":"MASPFA"}},{"type":"Feature","id":"_mview_admi_etablissements_administration.fid--1b6ae3e2_1a0db278384_-3d35","geometry":{"type":"Point","coordinates":[1.01563975,8.66425933]},"geometry_name":"geometry","properties":{"region_nom_bdd":"Centrale","prefecture_nom_bdd":"Sotouboua","commune_nom_bdd":"Sotouboua 2","canton_nom_bdd":"Adjengré","nom_localite":"Zongo","etablissement_nom":"Centre Social (DPASPFA) - Adjengré","etab_adr":"Direction Préfectorale de l'Action Sociale, de la Promotion de la Femme et de l'Alphabétisation (DPASPFA) - Sotouboua Nord, Zongo, Adjengré, Sotouboua 2","ouverture_jour":"Nsp","ministere_tutelle":"MASPFA"}},{"type":"Feature","id":"_mview_admi_etablissements_administration.fid--1b6ae3e2_1a0db278384_-3d34","geometry":{"type":"Point","coordinates":[0.69920222,7.21201505]},"geometry_name":"geometry","properties":{"region_nom_bdd":"Plateaux","prefecture_nom_bdd":"Danyi","commune_nom_bdd":"Danyi 1","canton_nom_bdd":"Danyi-Atigba","nom_localite":"Washington","etablissement_nom":"Direction Préfectorale de l'Action Sociale, de la Promotion de la Femme et de l'Alphabétisation (DPASPFA) - Danyi","etab_adr":"Direction Préfectorale de l'Action Sociale, de la Promotion de la Femme et de l'Alphabétisation (DPASPFA) - Danyi, Washington, Danyi-Atigba, Danyi 1","ouverture_jour":"{Vendredi,Jeudi,Mercredi,Mardi,lundi}","ministere_tutelle":"MASPFA"}},{"type":"Feature","id":"_mview_admi_etablissements_administration.fid--1b6ae3e2_1a0db278384_-3d33","geometry":{"type":"Point","coordinates":[1.22486113,6.131142]},"geometry_name":"geometry","properties":{"region_nom_bdd":"Maritime","prefecture_nom_bdd":"Golfe","commune_nom_bdd":"Golfe 4","canton_nom_bdd":"Amoutivé","nom_localite":"Quartier Administratif","etablissement_nom":"Ministère de l'Action Sociale de la Promotion de la Femme et de l'Alphabétisation (MASPFA)","etab_adr":"Ministère de l'Action Sociale de la Promotion de la Femme et de l'Alphabétisation (MASPFA), 574, Avenue du 24 Janvier, Quartier Administratif, Amoutivé, Golfe 4, 01BP1402 Lomé","ouverture_jour":"{Vendredi,Jeudi,Mercredi,Mardi,lundi}","ministere_tutelle":"MASPFA"}},{"type":"Feature","id":"_mview_admi_etablissements_administration.fid--1b6ae3e2_1a0db278384_-3d32","geometry":{"type":"Point","coordinates":[1.04156974,9.96253147]},"geometry_name":"geometry","properties":{"region_nom_bdd":"Kara","prefecture_nom_bdd":"Kéran","commune_nom_bdd":"Kéran 1","canton_nom_bdd":"Kantè","nom_localite":"Kantè","etablissement_nom":"Direction Préfectorale de l'Action Sociale, de la Promotion de la Femme et de l'Alphabétisation (DPASPFA) - Keran","etab_adr":"Direction Préfectorale de l'Action Sociale, de la Promotion de la Femme et de l'Alphabétisation (DPASPFA) - Keran, Kantè, Kantè, Kéran 1","ouverture_jour":"{lundi,Mardi,Jeudi,Vendredi,Mercredi}","ministere_tutelle":"MASPFA"}},{"type":"Feature","id":"_mview_admi_etablissements_administration.fid--1b6ae3e2_1a0db278384_-3d31","geometry":{"type":"Point","coordinates":[1.60466977,6.25613785]},"geometry_name":"geometry","properties":{"region_nom_bdd":"Maritime","prefecture_nom_bdd":"Lacs","commune_nom_bdd":"Lacs 1","canton_nom_bdd":"Glidji","nom_localite":"Glidji","etablissement_nom":"Centre Social (DPASPFA) - Glidji","etab_adr":"Direction Préfectorale de l'Action Sociale, de la Promotion de la Femme et de l'Alphabétisation (DPASPFA) - Lacs, Glidji, Glidji, Lacs 1","ouverture_jour":"{lundi,Mardi,Mercredi,Jeudi,Vendredi}","ministere_tutelle":"MASPFA"}},{"type":"Feature","id":"_mview_admi_etablissements_administration.fid--1b6ae3e2_1a0db278384_-3d30","geometry":{"type":"Point","coordinates":[1.31806908,9.74605652]},"geometry_name":"geometry","properties":{"region_nom_bdd":"Kara","prefecture_nom_bdd":"Binah","commune_nom_bdd":"Binah 1","canton_nom_bdd":"Pagouda","nom_localite":"Kawa","etablissement_nom":"Direction Préfectorale de l'Action Sociale, de la Promotion de la Femme et de l'Alphabétisation (DPASPFA) - Binah","etab_adr":"Direction Préfectorale de l'Action Sociale, de la Promotion de la Femme et de l'Alphabétisation (DPASPFA) - Binah, Kawa, Pagouda, Binah 1","ouverture_jour":"{lundi,Mardi,Mercredi,Jeudi,Vendredi}","ministere_tutelle":"MASPFA"}},{"type":"Feature","id":"_mview_admi_etablissements_administration.fid--1b6ae3e2_1a0db278384_-3d2f","geometry":{"type":"Point","coordinates":[1.29045833,7.95180333]},"geometry_name":"geometry","properties":{"region_nom_bdd":"Plateaux","prefecture_nom_bdd":"Est-Mono","commune_nom_bdd":"Est-Mono 1","canton_nom_bdd":"Elavagnon","nom_localite":"Elavagnon","etablissement_nom":"Direction Préfectorale de l'Action Sociale, de la Promotion de la Femme et de l'Alphabétisation (DPASPFA) - Est Mono","etab_adr":"Direction Préfectorale de l'Action Sociale, de la Promotion de la Femme et de l'Alphabétisation (DPASPFA) - Est Mono, Sud-Est du Marché d'Elavagnon, Elavagnon, Elavagnon, Est-Mono 1","ouverture_jour":"{lundi,Mardi,Mercredi,Jeudi,Vendredi}","ministere_tutelle":"MASPFA"}},{"type":"Feature","id":"_mview_admi_etablissements_administration.fid--1b6ae3e2_1a0db278384_-3d2e","geometry":{"type":"Point","coordinates":[1.25700214,9.35472101]},"geometry_name":"geometry","properties":{"region_nom_bdd":"Kara","prefecture_nom_bdd":"Assoli","commune_nom_bdd":"Assoli 1","canton_nom_bdd":"Bafilo","nom_localite":"Wawande","etablissement_nom":"Direction Préfectorale de l'Action Sociale, de la Promotion de la Femme et de l'Alphabétisation (DPASPFA) - Assoli","etab_adr":"Direction Préfectorale de l'Action Sociale, de la Promotion de la Femme et de l'Alphabétisation (DPASPFA) - Assoli, Wawande, Bafilo, Assoli 1","ouverture_jour":"{lundi,Mardi,Mercredi,Jeudi,Vendredi}","ministere_tutelle":"MASPFA"}},{"type":"Feature","id":"_mview_admi_etablissements_administration.fid--1b6ae3e2_1a0db278384_-3d2d","geometry":{"type":"Point","coordinates":[1.21384816,6.12908222]},"geometry_name":"geometry","properties":{"region_nom_bdd":"Maritime","prefecture_nom_bdd":"Golfe","commune_nom_bdd":"Golfe 4","canton_nom_bdd":"Amoutivé","nom_localite":"Quartier Administratif","etablissement_nom":"Direction Générale de la Protection de l'enfant (DGPE) LOMÉ","etab_adr":"Quartier administratif","ouverture_jour":null,"ministere_tutelle":"MASPFA"}},{"type":"Feature","id":"_mview_admi_etablissements_administration.fid--1b6ae3e2_1a0db278384_-3d2c","geometry":{"type":"Point","coordinates":[1.13547915,8.98654518]},"geometry_name":"geometry","properties":{"region_nom_bdd":"Centrale","prefecture_nom_bdd":"Tchaoudjo","commune_nom_bdd":"Tchaoudjo 1","canton_nom_bdd":"Sokodè (Komah)","nom_localite":"Komah","etablissement_nom":"Direction Régionale de l'Action Sociale de la Promotion de la Femme et de l'Alphabétisation (DRASPFA-C) - Centrale","etab_adr":"Direction Régionale de l'Action Sociale de la Promotion de la Femme et de l'Alphabétisation (DRASPFA-C) - Centrale, Komah, Sokodè (Komah), Tchaoudjo 1, BP48 Sokode","ouverture_jour":"{lundi,Mardi,Mercredi,Jeudi,Vendredi}","ministere_tutelle":"MASPFA"}},{"type":"Feature","id":"_mview_admi_etablissements_administration.fid--1b6ae3e2_1a0db278384_-3d2b","geometry":{"type":"Point","coordinates":[1.21948116,6.13400562]},"geometry_name":"geometry","properties":{"region_nom_bdd":"Maritime","prefecture_nom_bdd":"Golfe","commune_nom_bdd":"Golfe 4","canton_nom_bdd":"Amoutivé","nom_localite":"Hanoukope","etablissement_nom":"Coordination Nationale d'Assistance aux Réfugiés (CNAR)","etab_adr":"Coordination Nationale d'Assistance aux Réfugiés (CNAR), Hanoukope, Amoutivé, Golfe 4, BP1247 Lomé","ouverture_jour":"{lundi,Mardi,Mercredi,Jeudi,Vendredi}","ministere_tutelle":"MASPFA"}},{"type":"Feature","id":"_mview_admi_etablissements_administration.fid--1b6ae3e2_1a0db278384_-3d2a","geometry":{"type":"Point","coordinates":[1.415405,6.66346333]},"geometry_name":"geometry","properties":{"region_nom_bdd":"Maritime","prefecture_nom_bdd":"Yoto","commune_nom_bdd":"Yoto 1","canton_nom_bdd":"Kouvé","nom_localite":"Kouve Dopigbe","etablissement_nom":"Centre Social (DPASPFA) - Kouvé","etab_adr":"Direction Préfectorale de l'Action Sociale, de la Promotion de la Femme et de l'Alphabétisation (DPASPFA) - Kouvé, Kouve Dopigbe, Kouvé, Yoto 1","ouverture_jour":"{lundi,Mardi,Mercredi,Jeudi,Vendredi}","ministere_tutelle":"MASPFA"}},{"type":"Feature","id":"_mview_admi_etablissements_administration.fid--1b6ae3e2_1a0db278384_-3d29","geometry":{"type":"Point","coordinates":[0.75184388,10.34627884]},"geometry_name":"geometry","properties":{"region_nom_bdd":"Savanes","prefecture_nom_bdd":"Oti-Sud","commune_nom_bdd":"Oti-Sud 1","canton_nom_bdd":"Gando","nom_localite":"Gando","etablissement_nom":"Direction Préfectorale de l'Action Sociale, de la Promotion de la Femme et de l'Alphabétisation (DPASPFA) - Oti-Sud","etab_adr":"Direction Préfectorale de l'Action Sociale, de la Promotion de la Femme et de l'Alphabétisation (DPASPFA) - Oti-Sud, Gando, Gando, Oti-Sud 1","ouverture_jour":"{lundi,Mardi,Mercredi,Jeudi,Vendredi}","ministere_tutelle":"MASPFA"}},{"type":"Feature","id":"_mview_admi_etablissements_administration.fid--1b6ae3e2_1a0db278384_-3d28","geometry":{"type":"Point","coordinates":[1.62023763,7.01998881]},"geometry_name":"geometry","properties":{"region_nom_bdd":"Plateaux","prefecture_nom_bdd":"Moyen-Mono","commune_nom_bdd":"Moyen-Mono 1","canton_nom_bdd":"Tohoun","nom_localite":"Ayivime","etablissement_nom":"Direction Préfectorale de l'Action Sociale, de la Promotion de la Femme et de l'Alphabétisation (DPASPFA) - Moyen-Mono","etab_adr":"Direction Préfectorale de l'Action Sociale, de la Promotion de la Femme et de l'Alphabétisation (DPASPFA) - Moyen, Ayivime, Tohoun, Moyen-Mono 1","ouverture_jour":"{lundi,Mardi,Mercredi,Jeudi,Vendredi,Samedi}","ministere_tutelle":"MASPFA"}},{"type":"Feature","id":"_mview_admi_etablissements_administration.fid--1b6ae3e2_1a0db278384_-3d27","geometry":{"type":"Point","coordinates":[1.18341373,9.54140536]},"geometry_name":"geometry","properties":{"region_nom_bdd":"Kara","prefecture_nom_bdd":"Kozah","commune_nom_bdd":"Kozah 1","canton_nom_bdd":"Commune De Kara","nom_localite":"Dongoyo","etablissement_nom":"Direction Préfectorale de l'Action Sociale, de la Promotion de la Femme et de l'Alphabétisation (DPASPFA) - Kozah","etab_adr":"Direction Préfectorale de l'Action Sociale, de la Promotion de la Femme et de l'Alphabétisation (DPASPFA) - Kozah, Dongoyo, Commune De Kara, Kozah 1","ouverture_jour":"{lundi,Mardi,Mercredi,Jeudi,Vendredi}","ministere_tutelle":"MASPFA"}},{"type":"Feature","id":"_mview_admi_etablissements_administration.fid--1b6ae3e2_1a0db278384_-3d26","geometry":{"type":"Point","coordinates":[1.11353881,6.22946867]},"geometry_name":"geometry","properties":{"region_nom_bdd":"Maritime","prefecture_nom_bdd":"Agoè-Nyivé","commune_nom_bdd":"Agoè-Nyivé 5","canton_nom_bdd":"Sanguera","nom_localite":"Sanguera Agnikpe","etablissement_nom":"Direction Préfectorale de l'Action Sociale, de la Promotion de la Femme et de l'Alphabétisation (DPASPFA) - Agoé Nyivé","etab_adr":"Direction Préfectorale de l'Action Sociale, de la Promotion de la Femme et de l'Alphabétisation (DPASPFA) - Agoé Nyivé, Sanguera Agnikpe, Sanguera, Agoè-Nyivé 5","ouverture_jour":"{lundi,Mardi,Mercredi,Jeudi,Vendredi}","ministere_tutelle":"MASPFA"}},{"type":"Feature","id":"_mview_admi_etablissements_administration.fid--1b6ae3e2_1a0db278384_-3d25","geometry":{"type":"Point","coordinates":[0.9239223,6.43803272]},"geometry_name":"geometry","properties":{"region_nom_bdd":"Maritime","prefecture_nom_bdd":"Avé","commune_nom_bdd":"Avé 1","canton_nom_bdd":"Kévé","nom_localite":"Latin","etablissement_nom":"Direction Préfectorale de l'Action Sociale, de la Promotion de la Femme et de l'Alphabétisation (DPASPFA) - Avé","etab_adr":"Direction Préfectorale de l'Action Sociale, de la Promotion de la Femme et de l'Alphabétisation (DPASPFA) - Avé, Latin, Kévé, Avé 1","ouverture_jour":"{lundi,Mercredi,Mardi,Jeudi,Vendredi}","ministere_tutelle":"MASPFA"}},{"type":"Feature","id":"_mview_admi_etablissements_administration.fid--1b6ae3e2_1a0db278384_-3d24","geometry":{"type":"Point","coordinates":[0.2001978,10.67204973]},"geometry_name":"geometry","properties":{"region_nom_bdd":"Savanes","prefecture_nom_bdd":"Tandjoaré","commune_nom_bdd":"Tandjoaré 1","canton_nom_bdd":"Nandoga","nom_localite":"Nandodani","etablissement_nom":"Direction Préfectorale de l'Action Sociale, de la Promotion de la Femme et de l'Alphabétisation (DPASPFA) - Tandjoaré","etab_adr":"Direction Préfectorale de l'Action Sociale, de la Promotion de la Femme et de l'Alphabétisation (DPASPFA) - Tandjoaré, Nandodani, Nandoga, Tandjoaré 1, BP108","ouverture_jour":"{lundi,Mardi,Mercredi,Jeudi,Vendredi}","ministere_tutelle":"MASPFA"}},{"type":"Feature","id":"_mview_admi_etablissements_administration.fid--1b6ae3e2_1a0db278384_-3d23","geometry":{"type":"Point","coordinates":[1.22476516,6.13111197]},"geometry_name":"geometry","properties":{"region_nom_bdd":"Maritime","prefecture_nom_bdd":"Golfe","commune_nom_bdd":"Golfe 4","canton_nom_bdd":"Amoutivé","nom_localite":"Quartier Administratif","etablissement_nom":"Agence de Solidarité Nationale (ASN)","etab_adr":"Agence de Solidarité Nationale (ASN), 574, Avenue du 24 Janvier, Quartier Administratif, Amoutivé, Golfe 4, 01BP1402 Lomé","ouverture_jour":"{lundi,Mardi,Mercredi,Jeudi,Vendredi}","ministere_tutelle":"MASPFA"}},{"type":"Feature","id":"_mview_admi_etablissements_administration.fid--1b6ae3e2_1a0db278384_-3d22","geometry":{"type":"Point","coordinates":[0.80824566,9.4589332]},"geometry_name":"geometry","properties":{"region_nom_bdd":"Kara","prefecture_nom_bdd":"Bassar","commune_nom_bdd":"Bassar 3","canton_nom_bdd":"Kabou","nom_localite":"Kabou","etablissement_nom":"Centre Social (DPASPFA) - Kabou","etab_adr":"Direction Préfectorale de l'Action Sociale, de la Promotion de la Femme et de l'Alphabétisation (DPASPFA) - Bassar Kabou, Kabou, Kabou, Bassar 3","ouverture_jour":"{lundi,Mardi,Mercredi,Jeudi,Vendredi}","ministere_tutelle":"MASPFA"}},{"type":"Feature","id":"_mview_admi_etablissements_administration.fid--1b6ae3e2_1a0db278384_-3d21","geometry":{"type":"Point","coordinates":[1.20183436,9.55045901]},"geometry_name":"geometry","properties":{"region_nom_bdd":"Kara","prefecture_nom_bdd":"Kozah","commune_nom_bdd":"Kozah 1","canton_nom_bdd":"Commune De Kara","nom_localite":"Tomde","etablissement_nom":"Direction Régionale de l'Action Sociale de la Promotion de la Femme et de l'Alphabétisation (DRASPFA-K) - Kara","etab_adr":"Direction Régionale de l'Action Sociale de la Promotion de la Femme et de l'Alphabétisation (DRASPFA-K) - Kara, Tomde, Commune De Kara, Kozah 1, BP49","ouverture_jour":"{lundi,Mardi,Mercredi,Jeudi,Vendredi}","ministere_tutelle":"MASPFA"}},{"type":"Feature","id":"_mview_admi_etablissements_administration.fid--1b6ae3e2_1a0db278384_-3d20","geometry":{"type":"Point","coordinates":[0.46945825,10.35313416]},"geometry_name":"geometry","properties":{"region_nom_bdd":"Savanes","prefecture_nom_bdd":"Oti","commune_nom_bdd":"Oti 1","canton_nom_bdd":"Mango","nom_localite":"Mango","etablissement_nom":"Direction Préfectorale de l'Action Sociale, de la Promotion de la Femme et de l'Alphabétisation (DPASPFA) - Oti","etab_adr":"Direction Préfectorale de l'Action Sociale, de la Promotion de la Femme et de l'Alphabétisation (DPASPFA) - Oti, Mango, Mango, Oti 1","ouverture_jour":"{lundi,Mardi,Mercredi,Jeudi,Vendredi}","ministere_tutelle":"MASPFA"}},{"type":"Feature","id":"_mview_admi_etablissements_administration.fid--1b6ae3e2_1a0db278384_-3d1f","geometry":{"type":"Point","coordinates":[0.78430632,9.25662859]},"geometry_name":"geometry","properties":{"region_nom_bdd":"Kara","prefecture_nom_bdd":"Bassar","commune_nom_bdd":"Bassar 1","canton_nom_bdd":"Bassar","nom_localite":"Bassar","etablissement_nom":"Direction Préfectorale de l'Action Sociale, de la Promotion de la Femme et de l'Alphabétisation (DPASPFA) - Bassar","etab_adr":"Direction Préfectorale de l'Action Sociale, de la Promotion de la Femme et de l'Alphabétisation (DPASPFA) - Bassar, Bassar, Bassar, Bassar 1","ouverture_jour":"{lundi,Mardi,Mercredi,Jeudi,Vendredi}","ministere_tutelle":"MASPFA"}},{"type":"Feature","id":"_mview_admi_etablissements_administration.fid--1b6ae3e2_1a0db278384_-3d1e","geometry":{"type":"Point","coordinates":[1.17447,6.236535]},"geometry_name":"geometry","properties":{"region_nom_bdd":"Maritime","prefecture_nom_bdd":"Agoè-Nyivé","commune_nom_bdd":"Agoè-Nyivé 1","canton_nom_bdd":"Agoè-Nyivé","nom_localite":"Logope","etablissement_nom":"Centre d'Accueil pour Sinistrés des Catastrophes Naturelles (CASCN) Agoé Logopé","etab_adr":"Centre d'Accueil pour Sinistrés des Catastrophes Naturelles (CASCN) Agoé Logopé, Logope, Agoè-Nyivé, Agoè-Nyivé 1","ouverture_jour":"{Lundi,Mardi,Mercredi,jeudi,Vendredi}","ministere_tutelle":"MASPFA"}},{"type":"Feature","id":"_mview_admi_etablissements_administration.fid--1b6ae3e2_1a0db278384_-3d1d","geometry":{"type":"Point","coordinates":[0.97805799,8.56790892]},"geometry_name":"geometry","properties":{"region_nom_bdd":"Centrale","prefecture_nom_bdd":"Sotouboua","commune_nom_bdd":"Sotouboua 1","canton_nom_bdd":"Sotouboua","nom_localite":"Sotouboua","etablissement_nom":"Direction Préfectorale de l'Action Sociale, de la Promotion de la Femme et de l'Alphabétisation (DPASPFA) - Sotouboua","etab_adr":"Direction Préfectorale de l'Action Sociale, de la Promotion de la Femme et de l'Alphabétisation (DPASPFA) - Sotouboua, Sotouboua, Sotouboua, Sotouboua 1","ouverture_jour":"{lundi,Mardi,Mercredi,Jeudi,Vendredi}","ministere_tutelle":"MASPFA"}},{"type":"Feature","id":"_mview_admi_etablissements_administration.fid--1b6ae3e2_1a0db278384_-3d1c","geometry":{"type":"Point","coordinates":[1.52837876,6.67275282]},"geometry_name":"geometry","properties":{"region_nom_bdd":"Maritime","prefecture_nom_bdd":"Yoto","commune_nom_bdd":"Yoto 3","canton_nom_bdd":"Gboto","nom_localite":"Gboto","etablissement_nom":"Centre Social de Gboto","etab_adr":"Gboto","ouverture_jour":"{lundi,Vendredi,Mercredi,Mardi,Jeudi}","ministere_tutelle":"MASPFA"}},{"type":"Feature","id":"_mview_admi_etablissements_administration.fid--1b6ae3e2_1a0db278384_-3d1b","geometry":{"type":"Point","coordinates":[1.19926025,6.20731239]},"geometry_name":"geometry","properties":{"region_nom_bdd":"Maritime","prefecture_nom_bdd":"Agoè-Nyivé","commune_nom_bdd":"Agoè-Nyivé 1","canton_nom_bdd":"Agoè-Nyivé","nom_localite":"Totsi Cacaveli","etablissement_nom":"Centre d'Observation et de Réinsertion Sociale des Jeunes en Difficulté de Cacaveli (CORSJDC)","etab_adr":"Nsp","ouverture_jour":"{Jeudi,Mardi,Mercredi,Vendredi,lundi}","ministere_tutelle":"MASPFA"}},{"type":"Feature","id":"_mview_admi_etablissements_administration.fid--1b6ae3e2_1a0db278384_-3d1a","geometry":{"type":"Point","coordinates":[1.20539855,6.15634943]},"geometry_name":"geometry","properties":{"region_nom_bdd":"Maritime","prefecture_nom_bdd":"Golfe","commune_nom_bdd":"Golfe 3","canton_nom_bdd":"Bè-Ouest","nom_localite":"Tokoin","etablissement_nom":"Centre de référence, d'orientation et de prise en charge des enfants en situation difficile (CROPESDI)","etab_adr":"Nsp","ouverture_jour":"{Jeudi,Mardi,Mercredi,Vendredi,lundi,Samedi,Dimanche}","ministere_tutelle":"MASPFA"}},{"type":"Feature","id":"_mview_admi_etablissements_administration.fid--1b6ae3e2_1a0db278384_-3d19","geometry":{"type":"Point","coordinates":[1.22457917,6.13137578]},"geometry_name":"geometry","properties":{"region_nom_bdd":"Maritime","prefecture_nom_bdd":"Golfe","commune_nom_bdd":"Golfe 4","canton_nom_bdd":"Amoutivé","nom_localite":"Freau Jardin","etablissement_nom":"Direction des Affaires Administratives et Financières (MASPFA/DAAF)","etab_adr":"Non loin de freau jardin","ouverture_jour":"{Jeudi,Mardi,Samedi,Mercredi,Vendredi,lundi}","ministere_tutelle":"MASPFA"}},{"type":"Feature","id":"_mview_admi_etablissements_administration.fid--1b6ae3e2_1a0db278384_-3d18","geometry":{"type":"Point","coordinates":[1.22134752,6.12295149]},"geometry_name":"geometry","properties":{"region_nom_bdd":"Maritime","prefecture_nom_bdd":"Golfe","commune_nom_bdd":"Golfe 4","canton_nom_bdd":"Amoutivé","nom_localite":"Adawlato","etablissement_nom":"Comité National d'Adoption d'Enfants au Togo (CNAET)","etab_adr":"cnaet@yahoo.fr","ouverture_jour":"{Jeudi,Mardi,Mercredi,Vendredi,lundi}","ministere_tutelle":"MASPFA"}},{"type":"Feature","id":"_mview_admi_etablissements_administration.fid--1b6ae3e2_1a0db278384_-3d17","geometry":{"type":"Point","coordinates":[1.15585316,6.18970707]},"geometry_name":"geometry","properties":{"region_nom_bdd":"Maritime","prefecture_nom_bdd":"Golfe","commune_nom_bdd":"Golfe 7","canton_nom_bdd":"Aflao-Sagbado","nom_localite":"Wonyome","etablissement_nom":"Direction Préfectorale de l'Action Sociale, de la Promotion de la Femme et de l'Alphabétisation (DPASPFA) - Golfe","etab_adr":"Adidogome face a l'ancien poste de police sur la voie de segbe","ouverture_jour":"{Jeudi,Mardi,Mercredi,Vendredi,lundi}","ministere_tutelle":"MASPFA"}},{"type":"Feature","id":"_mview_admi_etablissements_administration.fid--1b6ae3e2_1a0db278384_-3d16","geometry":{"type":"Point","coordinates":[0.02800829,11.09535306]},"geometry_name":"geometry","properties":{"region_nom_bdd":"Savanes","prefecture_nom_bdd":"Cinkassé","commune_nom_bdd":"Cinkassé 1","canton_nom_bdd":"Cinkassé","nom_localite":"Cinkanssé","etablissement_nom":"Direction Préfectorale de l'Action Sociale, de la Promotion de la Femme et de l'Alphabétisation (DPASPFA) - Cinkasse","etab_adr":"N/a","ouverture_jour":"{Jeudi,Mardi,Mercredi,Vendredi,lundi}","ministere_tutelle":"MASPFA"}}],"totalFeatures":62,"numberMatched":62,"numberReturned":62,"timeStamp":"2026-09-26T00:40:23.832Z","crs":{"type":"name","properties":{"name":"urn:ogc:def:crs:EPSG::4326"}}}