{"type":"FeatureCollection","features":[{"type":"Feature","id":"_mview_admi_etablissements_administration.fid--1b6ae3e2_1a0db278384_-3739","geometry":{"type":"Point","coordinates":[1.20579667,6.20482833]},"geometry_name":"geometry","properties":{"region_nom_bdd":"Maritime","prefecture_nom_bdd":"Agoè-Nyivé","commune_nom_bdd":"Agoè-Nyivé 1","canton_nom_bdd":"Agoè-Nyivé","nom_localite":"Cacaveli","etablissement_nom":"Centre de la Construction et de logement (CCL)","etab_adr":"Centre de la Construction et de logement (CCL), Cacaveli, Agoè-Nyivé, Agoè-Nyivé 1, 01BP1762 Lomé 1","ouverture_jour":"{lundi,Mardi,Mercredi,Jeudi,Vendredi}","ministere_tutelle":"MUHRF"}},{"type":"Feature","id":"_mview_admi_etablissements_administration.fid--1b6ae3e2_1a0db278384_-3738","geometry":{"type":"Point","coordinates":[1.21784818,6.12740182]},"geometry_name":"geometry","properties":{"region_nom_bdd":"Maritime","prefecture_nom_bdd":"Golfe","commune_nom_bdd":"Golfe 4","canton_nom_bdd":"Amoutivé","nom_localite":"Quartier Administratif","etablissement_nom":"Direction de l'Urbanisme (MUHRF/DDU)","etab_adr":"Nsp","ouverture_jour":"{Jeudi,Mardi,Mercredi,Vendredi,lundi}","ministere_tutelle":"MUHRF"}},{"type":"Feature","id":"_mview_admi_etablissements_administration.fid--1b6ae3e2_1a0db278384_-3737","geometry":{"type":"Point","coordinates":[1.1823041,6.2040912]},"geometry_name":"geometry","properties":{"region_nom_bdd":"Maritime","prefecture_nom_bdd":"Golfe","commune_nom_bdd":"Golfe 5","canton_nom_bdd":"Aflao-Gakli","nom_localite":"Agoe Nyive","etablissement_nom":"Agence Nationale d'Assainissement et de Salubrité Publique (ANASAP)","etab_adr":"Agence Nationale d'Assainissement et de Salubrité Publique (ANASAP), Boulevard de la CDEAO, Agoe Nyive, Aflao-Gakli, Golfe 5","ouverture_jour":"{lundi,Mardi,Mercredi,Jeudi,Vendredi}","ministere_tutelle":"MUHRF"}},{"type":"Feature","id":"_mview_admi_etablissements_administration.fid--1b6ae3e2_1a0db278384_-3736","geometry":{"type":"Point","coordinates":[1.23396553,6.1615962]},"geometry_name":"geometry","properties":{"region_nom_bdd":"Maritime","prefecture_nom_bdd":"Golfe","commune_nom_bdd":"Golfe 3","canton_nom_bdd":"Bè-Ouest","nom_localite":"Be","etablissement_nom":"Agence Exécution de Travaux Urbains au Togo (AGETUR)","etab_adr":"Agence Exécution de Travaux Urbains au Togo (AGETUR), Be, Bè-Ouest, Golfe 3, BP80267 Lomé","ouverture_jour":"Nsp","ministere_tutelle":"MUHRF, MTP"}},{"type":"Feature","id":"_mview_admi_etablissements_administration.fid--1b6ae3e2_1a0db278384_-3735","geometry":{"type":"Point","coordinates":[1.24579731,6.16915588]},"geometry_name":"geometry","properties":{"region_nom_bdd":"Maritime","prefecture_nom_bdd":"Golfe","commune_nom_bdd":"Golfe 2","canton_nom_bdd":"Bè-Centre","nom_localite":"Bè","etablissement_nom":"Agence Développement Urbain et Municipal (ADUM CITAFRIC)","etab_adr":"Agence Développement Urbain et Municipal (ADUM CITAFRIC), A côté de l'Aéroport de Lomé, Bè, Bè-Centre, Golfe 2","ouverture_jour":"{lundi,Mardi,Mercredi,Jeudi,Vendredi}","ministere_tutelle":"MUHRF"}},{"type":"Feature","id":"_mview_admi_etablissements_administration.fid--1b6ae3e2_1a0db278384_-3734","geometry":{"type":"Point","coordinates":[1.21177159,6.12896802]},"geometry_name":"geometry","properties":{"region_nom_bdd":"Maritime","prefecture_nom_bdd":"Golfe","commune_nom_bdd":"Golfe 4","canton_nom_bdd":"Amoutivé","nom_localite":"Quartier Administratif","etablissement_nom":"Ministère de l'Urbanisme de l'Habitat et de la Réforme Foncière (MUHRF)","etab_adr":"Ministère de l'Urbanisme de l'Habitat et de la Réforme Foncière (MUHRF), Quartier Administratif, Amoutivé, Golfe 4","ouverture_jour":"{Vendredi,Jeudi,Mercredi,Mardi,lundi}","ministere_tutelle":"MUHRF"}},{"type":"Feature","id":"_mview_admi_etablissements_administration.fid--1b6ae3e2_1a0db278384_-3733","geometry":{"type":"Point","coordinates":[1.21186123,6.12889086]},"geometry_name":"geometry","properties":{"region_nom_bdd":"Maritime","prefecture_nom_bdd":"Golfe","commune_nom_bdd":"Golfe 4","canton_nom_bdd":"Amoutivé","nom_localite":"Nyekonakpoe","etablissement_nom":"Direction de la Prospection, de la Planification et du Suivi-évaluation (MUHRF/DPPS)","etab_adr":"NYEKONAKPOE","ouverture_jour":"{Jeudi,lundi,Vendredi,Mercredi,Mardi}","ministere_tutelle":"MUHRF"}},{"type":"Feature","id":"_mview_admi_etablissements_administration.fid--1b6ae3e2_1a0db278384_-3732","geometry":{"type":"Point","coordinates":[1.21184821,6.1289779]},"geometry_name":"geometry","properties":{"region_nom_bdd":"Maritime","prefecture_nom_bdd":"Golfe","commune_nom_bdd":"Golfe 4","canton_nom_bdd":"Amoutivé","nom_localite":"Nyekonakpoe","etablissement_nom":"Direction des Affaires Administratives et Financières (MUHRF/DAAF)","etab_adr":"NYEKONAKPOE","ouverture_jour":"{Jeudi,Mardi,Mercredi,Vendredi,lundi}","ministere_tutelle":"MUHRF"}},{"type":"Feature","id":"_mview_admi_etablissements_administration.fid--1b6ae3e2_1a0db278384_-3731","geometry":{"type":"Point","coordinates":[1.2118284,6.128941]},"geometry_name":"geometry","properties":{"region_nom_bdd":"Maritime","prefecture_nom_bdd":"Golfe","commune_nom_bdd":"Golfe 4","canton_nom_bdd":"Amoutivé","nom_localite":"Nyekonakpoe","etablissement_nom":"Direction des Affaires Juridiques et du Contentieux (MUHRF/DAJC)","etab_adr":"NYEKONAKPOE","ouverture_jour":"{Jeudi,Mardi,Mercredi,Vendredi,lundi}","ministere_tutelle":"MUHRF"}},{"type":"Feature","id":"_mview_admi_etablissements_administration.fid--1b6ae3e2_1a0db278384_-3730","geometry":{"type":"Point","coordinates":[1.223465,6.12262667]},"geometry_name":"geometry","properties":{"region_nom_bdd":"Maritime","prefecture_nom_bdd":"Golfe","commune_nom_bdd":"Golfe 4","canton_nom_bdd":"Amoutivé","nom_localite":"Adawolato","etablissement_nom":"Direction des Infrastructures Urbaines (MUHRF/DIU)","etab_adr":"ADAWOLATO","ouverture_jour":"{Jeudi,Mardi,Mercredi,Vendredi,lundi}","ministere_tutelle":"MUHRF"}},{"type":"Feature","id":"_mview_admi_etablissements_administration.fid--1b6ae3e2_1a0db278384_-372f","geometry":{"type":"Point","coordinates":[1.22353923,6.12258338]},"geometry_name":"geometry","properties":{"region_nom_bdd":"Maritime","prefecture_nom_bdd":"Golfe","commune_nom_bdd":"Golfe 4","canton_nom_bdd":"Amoutivé","nom_localite":"Adawolato","etablissement_nom":"Direction du Cadre de Vie (MUHRF/DCV)","etab_adr":"ADAWOLATO","ouverture_jour":"{Jeudi,Mardi,Vendredi,lundi,Mercredi}","ministere_tutelle":"MUHRF"}},{"type":"Feature","id":"_mview_admi_etablissements_administration.fid--1b6ae3e2_1a0db278384_-372e","geometry":{"type":"Point","coordinates":[1.21789006,6.12740054]},"geometry_name":"geometry","properties":{"region_nom_bdd":"Maritime","prefecture_nom_bdd":"Golfe","commune_nom_bdd":"Golfe 4","canton_nom_bdd":"Amoutivé","nom_localite":"Quartier Administratif","etablissement_nom":"Direction de l’Habitat (MUHRF/DH)","etab_adr":"Nsp","ouverture_jour":"{Jeudi,Mardi,Mercredi,Vendredi,lundi}","ministere_tutelle":"MUHRF"}},{"type":"Feature","id":"_mview_admi_etablissements_administration.fid--1b6ae3e2_1a0db278384_-372d","geometry":{"type":"Point","coordinates":[1.2084999,6.1280655]},"geometry_name":"geometry","properties":{"region_nom_bdd":"Maritime","prefecture_nom_bdd":"Golfe","commune_nom_bdd":"Golfe 4","canton_nom_bdd":"Amoutivé","nom_localite":"Nyekonakpoe","etablissement_nom":"Fonds Spécial pour le Développement de l’Habitat (FSDH)","etab_adr":"NYEKONAKPOE","ouverture_jour":"{Jeudi,Mardi,Mercredi,Vendredi,lundi}","ministere_tutelle":"MUHRF"}},{"type":"Feature","id":"_mview_admi_etablissements_administration.fid--1b6ae3e2_1a0db278384_-372c","geometry":{"type":"Point","coordinates":[1.21787608,6.1274653]},"geometry_name":"geometry","properties":{"region_nom_bdd":"Maritime","prefecture_nom_bdd":"Golfe","commune_nom_bdd":"Golfe 4","canton_nom_bdd":"Amoutivé","nom_localite":"Quartier Administratif","etablissement_nom":"Direction de la Cartographie - Direction de l'Information Géographique (MUHRF/DC/DIG)","etab_adr":"Nsp","ouverture_jour":"{Jeudi,Mardi,Mercredi,Vendredi,lundi}","ministere_tutelle":"MUHRF"}}],"totalFeatures":14,"numberMatched":14,"numberReturned":14,"timeStamp":"2026-09-26T00:40:53.939Z","crs":{"type":"name","properties":{"name":"urn:ogc:def:crs:EPSG::4326"}}}