{"type":"FeatureCollection","features":[{"type":"Feature","id":"_mview_admi_etablissements_administration.fid--1b6ae3e2_1a0db278384_-374a","geometry":{"type":"Point","coordinates":[1.13111855,7.52780799]},"geometry_name":"geometry","properties":{"region_nom_bdd":"Plateaux","prefecture_nom_bdd":"Ogou","commune_nom_bdd":"Ogou 1","canton_nom_bdd":"Gnagna","nom_localite":"Nyekonakpoe","etablissement_nom":"Subdivision Régionale des Transports Routiers et Ferroviaires (SRTF) - Plateaux Est","etab_adr":"Subdivision Régionale des Transports Routiers et Ferroviaires (SRTF) - Plateaux Est, Nyekonakpoe, Gnagna, Ogou 1","ouverture_jour":"{lundi,Mardi,Mercredi,Jeudi,Vendredi}","ministere_tutelle":"MTRAF"}},{"type":"Feature","id":"_mview_admi_etablissements_administration.fid--1b6ae3e2_1a0db278384_-3749","geometry":{"type":"Point","coordinates":[0.63643998,6.89907794]},"geometry_name":"geometry","properties":{"region_nom_bdd":"Plateaux","prefecture_nom_bdd":"Kloto","commune_nom_bdd":"Kloto 1","canton_nom_bdd":"Agome-Kpalime","nom_localite":"Kpalimé","etablissement_nom":"Subdivision Préfectorale des Transports Routiers et Ferroviaires (SPTF) - Plateaux Ouest","etab_adr":"Subdivision Préfectorale des Transports Routiers et Ferroviaires (SPTF) - Plateaux Ouest, Kpalimé, Agome-Kpalime, Kloto 1","ouverture_jour":"{lundi,Mardi,Mercredi,Jeudi,Vendredi}","ministere_tutelle":"MTRAF"}},{"type":"Feature","id":"_mview_admi_etablissements_administration.fid--1b6ae3e2_1a0db278384_-3748","geometry":{"type":"Point","coordinates":[0.19839833,10.88567167]},"geometry_name":"geometry","properties":{"region_nom_bdd":"Savanes","prefecture_nom_bdd":"Tône","commune_nom_bdd":"Tône 1","canton_nom_bdd":"Dapaong","nom_localite":"Nassablé","etablissement_nom":"Subdivision Régionale des Transports Routiers et Ferroviaires (SRTF) - Savanes","etab_adr":"Subdivision Régionale des Transports Routiers et Ferroviaires (SRTF) - Savanes, Nassablé, Dapaong, Tône 1","ouverture_jour":"{lundi,Mardi,Mercredi,Jeudi,Vendredi}","ministere_tutelle":"MTRAF"}},{"type":"Feature","id":"_mview_admi_etablissements_administration.fid--1b6ae3e2_1a0db278384_-3747","geometry":{"type":"Point","coordinates":[1.24164572,6.17168618]},"geometry_name":"geometry","properties":{"region_nom_bdd":"Maritime","prefecture_nom_bdd":"Golfe","commune_nom_bdd":"Golfe 2","canton_nom_bdd":"Bè-Centre","nom_localite":"Aéroport De Lomé","etablissement_nom":"Autorité de Sûreté de l'Aéroport International Gnassingbé Eyadema (ASAIGE)","etab_adr":"Autorité de Sûreté de l'Aéroport International Gnassingbé Eyadema (ASAIGE), Aéroport de Lomé, Bè-Centre, Golfe 2, BP01129 Lomé","ouverture_jour":"{lundi,Mardi,Mercredi,Jeudi,Vendredi}","ministere_tutelle":"MTRAF"}},{"type":"Feature","id":"_mview_admi_etablissements_administration.fid--1b6ae3e2_1a0db278384_-3746","geometry":{"type":"Point","coordinates":[1.24692178,6.1659798]},"geometry_name":"geometry","properties":{"region_nom_bdd":"Maritime","prefecture_nom_bdd":"Golfe","commune_nom_bdd":"Golfe 2","canton_nom_bdd":"Bè-Centre","nom_localite":"Aéroport De Lomé","etablissement_nom":"Agence pour la Sécurité de la Navigation Aérienne en Afrique et à Madagascar (ASECNA)","etab_adr":"Agence pour la Sécurité de la Navigation Aérienne en Afrique et à Madagascar (ASECNA), Aéroport de Lomé, Bè-Centre, Golfe 2, BP123, BP10151 Lomé","ouverture_jour":"{Vendredi,Jeudi,Mercredi,Mardi,lundi}","ministere_tutelle":"MTRAF"}},{"type":"Feature","id":"_mview_admi_etablissements_administration.fid--1b6ae3e2_1a0db278384_-3745","geometry":{"type":"Point","coordinates":[1.25102593,6.17056087]},"geometry_name":"geometry","properties":{"region_nom_bdd":"Maritime","prefecture_nom_bdd":"Golfe","commune_nom_bdd":"Golfe 2","canton_nom_bdd":"Bè-Centre","nom_localite":"Aéroport De Lomé","etablissement_nom":"Société Aéroportuaire de Lomé-Tokoin (SALT)","etab_adr":"Société Aéroportuaire de Lomé-Tokoin (SALT), Aéroport de Lomé, Bè-Centre, Golfe 2","ouverture_jour":"{lundi,Mardi,Mercredi,Jeudi,Vendredi}","ministere_tutelle":"MTRAF"}},{"type":"Feature","id":"_mview_admi_etablissements_administration.fid--1b6ae3e2_1a0db278384_-3744","geometry":{"type":"Point","coordinates":[1.24415684,6.15967963]},"geometry_name":"geometry","properties":{"region_nom_bdd":"Maritime","prefecture_nom_bdd":"Golfe","commune_nom_bdd":"Golfe 2","canton_nom_bdd":"Bè-Centre","nom_localite":"Aéroport De Lomé","etablissement_nom":"Centre Régional de la Navigation Aérienne (CRNA)","etab_adr":"Centre Régional de la Navigation Aérienne (CRNA), Aéroport de Lomé, Bè-Centre, Golfe 2, BP10151 Lomé","ouverture_jour":"{Dimanche,Samedi,Vendredi,Jeudi,Mercredi,Mardi,lundi}","ministere_tutelle":"MTRAF"}},{"type":"Feature","id":"_mview_admi_etablissements_administration.fid--1b6ae3e2_1a0db278384_-3743","geometry":{"type":"Point","coordinates":[1.252954,6.17469911]},"geometry_name":"geometry","properties":{"region_nom_bdd":"Maritime","prefecture_nom_bdd":"Golfe","commune_nom_bdd":"Golfe 2","canton_nom_bdd":"Bè-Centre","nom_localite":"Sito Aéroport","etablissement_nom":"Direction Générale de la Météorologie Nationale (MTRAF/DGMN)","etab_adr":"Direction Générale de la Météorologie Nationale (MTRAF/DGMN), Sito Aéroport, Bè-Centre, Golfe 2, 01BP1505 Lomé","ouverture_jour":"{lundi,Mardi,Mercredi,Jeudi,Vendredi,Samedi,Dimanche}","ministere_tutelle":"MTRAF"}},{"type":"Feature","id":"_mview_admi_etablissements_administration.fid--1b6ae3e2_1a0db278384_-3742","geometry":{"type":"Point","coordinates":[1.17580833,9.54731833]},"geometry_name":"geometry","properties":{"region_nom_bdd":"Kara","prefecture_nom_bdd":"Kozah","commune_nom_bdd":"Kozah 1","canton_nom_bdd":"Commune De Kara","nom_localite":"Ewowou","etablissement_nom":"Direction Régionale des Transports Routiers et Ferroviaires (DRTF) - Kara","etab_adr":"Direction Régionale des Transports Routiers et Ferroviaires (DRTF) - Kara, Ewowou, Commune De Kara, Kozah 1","ouverture_jour":"{Vendredi,Jeudi,Mercredi,Mardi,lundi}","ministere_tutelle":"MTRAF"}},{"type":"Feature","id":"_mview_admi_etablissements_administration.fid--1b6ae3e2_1a0db278384_-3741","geometry":{"type":"Point","coordinates":[1.219385,6.13093]},"geometry_name":"geometry","properties":{"region_nom_bdd":"Maritime","prefecture_nom_bdd":"Golfe","commune_nom_bdd":"Golfe 4","canton_nom_bdd":"Amoutivé","nom_localite":"Quartier Administratif","etablissement_nom":"Société Togo Rail Sa - Direction Générale","etab_adr":"Société Togo Rail Sa - Direction Générale, Quartier Administratif, Amoutivé, Golfe 4, BP340 Lomé","ouverture_jour":"{Mardi,lundi,Mercredi,Jeudi,Vendredi,Samedi}","ministere_tutelle":"MTRAF"}},{"type":"Feature","id":"_mview_admi_etablissements_administration.fid--1b6ae3e2_1a0db278384_-3740","geometry":{"type":"Point","coordinates":[1.20753983,6.1984195]},"geometry_name":"geometry","properties":{"region_nom_bdd":"Maritime","prefecture_nom_bdd":"Agoè-Nyivé","commune_nom_bdd":"Agoè-Nyivé 1","canton_nom_bdd":"Agoè-Nyivé","nom_localite":"Agbalepedo","etablissement_nom":"Direction des Transports Routiers et Ferroviaires (MTRAF/DTRF)","etab_adr":"Direction des Transports Routiers et Ferroviaires (MTRAF/DTRF), Sur la Route Nationale N1, Agbalepedo, Agoè-Nyivé, Agoè-Nyivé 1","ouverture_jour":"{lundi,Mardi,Mercredi,Jeudi,Vendredi}","ministere_tutelle":"MTRAF"}},{"type":"Feature","id":"_mview_admi_etablissements_administration.fid--1b6ae3e2_1a0db278384_-373f","geometry":{"type":"Point","coordinates":[1.277115,6.15174934]},"geometry_name":"geometry","properties":{"region_nom_bdd":"Maritime","prefecture_nom_bdd":"Golfe","commune_nom_bdd":"Golfe 1","canton_nom_bdd":"Bè-Est","nom_localite":"Akodessewa","etablissement_nom":"Conseil National des Chargeurs du Togo (CNCT)","etab_adr":"Conseil National des Chargeurs du Togo (CNCT), Akodessewa, Bè-Est, Golfe 1, BP2991 Lomé","ouverture_jour":"{Vendredi,Jeudi,Mercredi,Mardi,lundi}","ministere_tutelle":"MTRAF"}},{"type":"Feature","id":"_mview_admi_etablissements_administration.fid--1b6ae3e2_1a0db278384_-373e","geometry":{"type":"Point","coordinates":[1.24651099,6.16537535]},"geometry_name":"geometry","properties":{"region_nom_bdd":"Maritime","prefecture_nom_bdd":"Golfe","commune_nom_bdd":"Golfe 2","canton_nom_bdd":"Bè-Centre","nom_localite":"Aéroport De Lomé","etablissement_nom":"Agence Nationale de l'Aviation Civile (ANAC)","etab_adr":"Agence Nationale de l'Aviation Civile (ANAC), Aéroport de Lomé, Bè-Centre, Golfe 2, BP2699 Lome","ouverture_jour":"{lundi,Mardi,Mercredi,Jeudi,Vendredi}","ministere_tutelle":"MTRAF"}},{"type":"Feature","id":"_mview_admi_etablissements_administration.fid--1b6ae3e2_1a0db278384_-373d","geometry":{"type":"Point","coordinates":[1.13620333,8.97805]},"geometry_name":"geometry","properties":{"region_nom_bdd":"Centrale","prefecture_nom_bdd":"Tchaoudjo","commune_nom_bdd":"Tchaoudjo 1","canton_nom_bdd":"Sokodè (Komah)","nom_localite":"Komah","etablissement_nom":"Subdivision Régionale des Transports Routiers et Ferroviaires (SRTF) - Centrale","etab_adr":"Subdivision Régionale des Transports Routiers et Ferroviaires (SRTF) - Centrale, Komah, Sokodè (Komah), Tchaoudjo 1, BP182 Sokode","ouverture_jour":"{lundi,Mardi,Mercredi,Jeudi,Vendredi}","ministere_tutelle":"MTRAF"}},{"type":"Feature","id":"_mview_admi_etablissements_administration.fid--1b6ae3e2_1a0db278384_-373c","geometry":{"type":"Point","coordinates":[1.21842537,6.12649467]},"geometry_name":"geometry","properties":{"region_nom_bdd":"Maritime","prefecture_nom_bdd":"Golfe","commune_nom_bdd":"Golfe 4","canton_nom_bdd":"Amoutivé","nom_localite":"Quartier Administratif","etablissement_nom":"Ministère des Transports Routiers Aériens et Ferroviaires (MTRAF)","etab_adr":"Ministère des Transports Routiers Aériens et Ferroviaires (MTRAF), Quartier Administratif, Amoutivé, Golfe 4","ouverture_jour":"{lundi,Mardi,Mercredi,Jeudi,Vendredi}","ministere_tutelle":"MTRAF"}},{"type":"Feature","id":"_mview_admi_etablissements_administration.fid--1b6ae3e2_1a0db278384_-373b","geometry":{"type":"Point","coordinates":[1.21971146,6.12984262]},"geometry_name":"geometry","properties":{"region_nom_bdd":"Maritime","prefecture_nom_bdd":"Golfe","commune_nom_bdd":"Golfe 4","canton_nom_bdd":"Amoutivé","nom_localite":"Assivito","etablissement_nom":"Société des Transports de Lomé (SOTRAL) - Direction Générale","etab_adr":"Société des Transports de Lomé (SOTRAL) - Direction Générale, Assivito, Amoutivé, Golfe 4, BP8960 Lomé","ouverture_jour":"{lundi,Mardi,Mercredi,Jeudi,Vendredi}","ministere_tutelle":"MTRAF"}},{"type":"Feature","id":"_mview_admi_etablissements_administration.fid--1b6ae3e2_1a0db278384_-373a","geometry":{"type":"Point","coordinates":[0.19820167,10.88569167]},"geometry_name":"geometry","properties":{"region_nom_bdd":"Savanes","prefecture_nom_bdd":"Tône","commune_nom_bdd":"Tône 1","canton_nom_bdd":"Dapaong","nom_localite":"Nassable","etablissement_nom":"Subdivision Régionale des Transports Routiers et Ferroviaires (SRTF)-Savanes","etab_adr":"Nsp","ouverture_jour":"{Jeudi,Mercredi,Vendredi,lundi}","ministere_tutelle":"MTRAF"}}],"totalFeatures":17,"numberMatched":17,"numberReturned":17,"timeStamp":"2026-09-26T00:40:53.115Z","crs":{"type":"name","properties":{"name":"urn:ogc:def:crs:EPSG::4326"}}}