{"type":"FeatureCollection","features":[{"type":"Feature","id":"_mview_admi_etablissements_administration.fid--1b6ae3e2_1a0db278384_-38a6","geometry":{"type":"Point","coordinates":[1.22217874,6.13459655]},"geometry_name":"geometry","properties":{"region_nom_bdd":"Maritime","prefecture_nom_bdd":"Golfe","commune_nom_bdd":"Golfe 4","canton_nom_bdd":"Amoutivé","nom_localite":"Quartier Des Étoiles","etablissement_nom":"Direction des Examens, Concours et Certification (MEPSTA/DECC)","etab_adr":"Direction des Examens, Concours et Certification (MEPSTA/DECC), Quartier des Étoiles, Amoutivé, Golfe 4","ouverture_jour":"{lundi,Mardi,Mercredi,Jeudi,Vendredi,Samedi}","ministere_tutelle":"MEPSTA"}},{"type":"Feature","id":"_mview_admi_etablissements_administration.fid--1b6ae3e2_1a0db278384_-38a5","geometry":{"type":"Point","coordinates":[0.20409672,10.85155001]},"geometry_name":"geometry","properties":{"region_nom_bdd":"Savanes","prefecture_nom_bdd":"Tône","commune_nom_bdd":"Tône 1","canton_nom_bdd":"Dapaong","nom_localite":"Boumonga","etablissement_nom":"Inspection de l'Enseignement Secondaire Général (IESG) - Dapaong","etab_adr":"Inspection de l'Enseignement Secondaire Général (IESG) - Dapaong, Boumonga, Dapaong, Tône 1, BP36","ouverture_jour":"{lundi,Mardi,Jeudi,Mercredi,Vendredi}","ministere_tutelle":"MEPSTA"}},{"type":"Feature","id":"_mview_admi_etablissements_administration.fid--1b6ae3e2_1a0db278384_-38a4","geometry":{"type":"Point","coordinates":[1.53367578,6.34683442]},"geometry_name":"geometry","properties":{"region_nom_bdd":"Maritime","prefecture_nom_bdd":"Vo","commune_nom_bdd":"Vo 1","canton_nom_bdd":"Vogan","nom_localite":"Vogan","etablissement_nom":"Inspection de l'Enseignement Secondaire Général (IESG) - Vogan","etab_adr":"Inspection de l'Enseignement Secondaire Général (IESG) - Vogan, Vogan, Vogan, Vo 1, BP04 Vogan","ouverture_jour":"{lundi,Mardi,Mercredi,Jeudi,Vendredi}","ministere_tutelle":"MEPSTA"}},{"type":"Feature","id":"_mview_admi_etablissements_administration.fid--1b6ae3e2_1a0db278384_-38a3","geometry":{"type":"Point","coordinates":[1.22168,6.13359333]},"geometry_name":"geometry","properties":{"region_nom_bdd":"Maritime","prefecture_nom_bdd":"Golfe","commune_nom_bdd":"Golfe 4","canton_nom_bdd":"Amoutivé","nom_localite":"Quartier Des Étoiles","etablissement_nom":"Direction Régionale de l'Education (DRE-GL) - District du Grand Lomé","etab_adr":"Direction Régionale de l'Education (DRE-GL) - District du Grand Lomé, Quartier des Étoiles, Amoutivé, Golfe 4, 01BP2309 Lomé","ouverture_jour":"{lundi,Mardi,Mercredi,Jeudi,Vendredi}","ministere_tutelle":"MEPSTA"}},{"type":"Feature","id":"_mview_admi_etablissements_administration.fid--1b6ae3e2_1a0db278384_-38a2","geometry":{"type":"Point","coordinates":[0.62969167,6.91549833]},"geometry_name":"geometry","properties":{"region_nom_bdd":"Plateaux","prefecture_nom_bdd":"Kloto","commune_nom_bdd":"Kloto 1","canton_nom_bdd":"Agome-Kpalime","nom_localite":"Kpalimé","etablissement_nom":"Inspection des Enseignements Préscolaire et Primaire (IEPP) - Kloto Ouest","etab_adr":"Inspection des Enseignements Préscolaire et Primaire (IEPP) - Kloto Ouest, Kpalimé, Agome-Kpalime, Kloto 1","ouverture_jour":"{lundi,Mardi,Mercredi,Jeudi,Vendredi}","ministere_tutelle":"MEPSTA"}},{"type":"Feature","id":"_mview_admi_etablissements_administration.fid--1b6ae3e2_1a0db278384_-38a1","geometry":{"type":"Point","coordinates":[0.62362241,6.91882494]},"geometry_name":"geometry","properties":{"region_nom_bdd":"Plateaux","prefecture_nom_bdd":"Kloto","commune_nom_bdd":"Kloto 1","canton_nom_bdd":"Agome-Kpalime","nom_localite":"Kpalimé","etablissement_nom":"Inspection des Enseignements Préscolaire et Primaire (IEPP) - Kloto Est","etab_adr":"Inspection des Enseignements Préscolaire et Primaire (IEPP) - Kloto Est, Kpalimé, Agome-Kpalime, Kloto 1","ouverture_jour":"{Vendredi,Jeudi,Mercredi,Mardi,lundi}","ministere_tutelle":"MEPSTA"}},{"type":"Feature","id":"_mview_admi_etablissements_administration.fid--1b6ae3e2_1a0db278384_-38a0","geometry":{"type":"Point","coordinates":[1.61182,6.25153333]},"geometry_name":"geometry","properties":{"region_nom_bdd":"Maritime","prefecture_nom_bdd":"Lacs","commune_nom_bdd":"Lacs 1","canton_nom_bdd":"Glidji","nom_localite":"Zebe","etablissement_nom":"Inspection des Enseignements Préscolaire et Primaire (IEPP) - Lacs Est","etab_adr":"Inspection des Enseignements Préscolaire et Primaire (IEPP) - Lacs Est, Zebe, Glidji, Lacs 1, BP114 Aneho","ouverture_jour":"{lundi,Mardi,Mercredi,Jeudi,Vendredi}","ministere_tutelle":"MEPSTA"}},{"type":"Feature","id":"_mview_admi_etablissements_administration.fid--1b6ae3e2_1a0db278384_-389f","geometry":{"type":"Point","coordinates":[0.98270167,8.57493]},"geometry_name":"geometry","properties":{"region_nom_bdd":"Centrale","prefecture_nom_bdd":"Sotouboua","commune_nom_bdd":"Sotouboua 1","canton_nom_bdd":"Sotouboua","nom_localite":"Sotouboua","etablissement_nom":"Inspection des Enseignements Préscolaire et Primaire (IEPP) - Sotouboua Sud","etab_adr":"Inspection des Enseignements Préscolaire et Primaire (IEPP) - Sotouboua Sud, Sotouboua, Sotouboua, Sotouboua 1, BP90 Sotouboua","ouverture_jour":"{lundi,Mardi,Mercredi,Jeudi,Vendredi}","ministere_tutelle":"MEPSTA"}},{"type":"Feature","id":"_mview_admi_etablissements_administration.fid--1b6ae3e2_1a0db278384_-389e","geometry":{"type":"Point","coordinates":[0.71335718,6.84970304]},"geometry_name":"geometry","properties":{"region_nom_bdd":"Plateaux","prefecture_nom_bdd":"Agou","commune_nom_bdd":"Agou 1","canton_nom_bdd":"Agou-Tavié","nom_localite":"Agou Gare","etablissement_nom":"Inspection des Enseignements Préscolaire et Primaire (IEPP) - Agou","etab_adr":"Inspection des Enseignements Préscolaire et Primaire (IEPP) - Agou, Agou Gare, Agou-Tavié, Agou 1, BP13 Agou","ouverture_jour":"{lundi,Mercredi,Mardi,Jeudi,Vendredi}","ministere_tutelle":"MEPSTA"}},{"type":"Feature","id":"_mview_admi_etablissements_administration.fid--1b6ae3e2_1a0db278384_-389d","geometry":{"type":"Point","coordinates":[1.21801663,6.12660953]},"geometry_name":"geometry","properties":{"region_nom_bdd":"Maritime","prefecture_nom_bdd":"Golfe","commune_nom_bdd":"Golfe 4","canton_nom_bdd":"Amoutivé","nom_localite":"Quartier Administratif","etablissement_nom":"Inspection de l'Enseignement Secondaire Général (IESG) - Golfe Est","etab_adr":"Inspection de l'Enseignement Secondaire Général (IESG) - Golfe Est, Quartier Administratif, Amoutivé, Golfe 4, BP80252 Lomé","ouverture_jour":"{Mardi,Mercredi,Jeudi,Vendredi}","ministere_tutelle":"MEPSTA"}},{"type":"Feature","id":"_mview_admi_etablissements_administration.fid--1b6ae3e2_1a0db278384_-389c","geometry":{"type":"Point","coordinates":[1.63761748,6.49002896]},"geometry_name":"geometry","properties":{"region_nom_bdd":"Maritime","prefecture_nom_bdd":"Bas-Mono","commune_nom_bdd":"Bas-Mono 1","canton_nom_bdd":"Afagnangan","nom_localite":"Djita","etablissement_nom":"Inspection des Enseignements Préscolaire et Primaire (IEPP) - Bas Mono","etab_adr":"Inspection des Enseignements Préscolaire et Primaire (IEPP) - Bas Mono, Djita, Afagnangan, Bas-Mono 1, BP05 Afagnan","ouverture_jour":"{lundi,Mardi,Mercredi,Jeudi,Vendredi}","ministere_tutelle":"MEPSTA"}},{"type":"Feature","id":"_mview_admi_etablissements_administration.fid--1b6ae3e2_1a0db278384_-389b","geometry":{"type":"Point","coordinates":[0.97099333,8.18026167]},"geometry_name":"geometry","properties":{"region_nom_bdd":"Centrale","prefecture_nom_bdd":"Blitta","commune_nom_bdd":"Blitta 1","canton_nom_bdd":"Pagala-Gare","nom_localite":"Pagala Gare","etablissement_nom":"Inspection des Enseignements Préscolaire et Primaire (IEPP) - Blitta Ouest","etab_adr":"Inspection des Enseignements Préscolaire et Primaire (IEPP) - Blitta Ouest, Pagala Gare, Pagala-Gare, Blitta 1","ouverture_jour":"{lundi,Mardi,Mercredi,Jeudi,Vendredi}","ministere_tutelle":"MEPSTA"}},{"type":"Feature","id":"_mview_admi_etablissements_administration.fid--1b6ae3e2_1a0db278384_-389a","geometry":{"type":"Point","coordinates":[0.72981533,7.13180259]},"geometry_name":"geometry","properties":{"region_nom_bdd":"Plateaux","prefecture_nom_bdd":"Kpélé","commune_nom_bdd":"Kpélé 1","canton_nom_bdd":"Kpélé-Novivé","nom_localite":"Kpelé-adeta","etablissement_nom":"Inspection de l'Enseignement Secondaire Général (IESG) - Kpele","etab_adr":"Inspection de l'Enseignement Secondaire Général (IESG) - Kpele, Kpelé-Adeta, Kpélé-Novivé, Kpélé 1","ouverture_jour":"{lundi,Vendredi,Jeudi,Mercredi,Mardi}","ministere_tutelle":"MEPSTA"}},{"type":"Feature","id":"_mview_admi_etablissements_administration.fid--1b6ae3e2_1a0db278384_-3899","geometry":{"type":"Point","coordinates":[0.7266422,7.1283927]},"geometry_name":"geometry","properties":{"region_nom_bdd":"Plateaux","prefecture_nom_bdd":"Kpélé","commune_nom_bdd":"Kpélé 1","canton_nom_bdd":"Kpélé-Novivé","nom_localite":"Kpelé-adeta","etablissement_nom":"Inspection des Enseignements Préscolaire et Primaire (IEPP) - Kpélé","etab_adr":"Inspection des Enseignements Préscolaire et Primaire (IEPP) - Kpélé, Kpelé-Adeta, Kpélé-Novivé, Kpélé 1","ouverture_jour":"{lundi,Mardi,Mercredi,Jeudi,Vendredi}","ministere_tutelle":"MEPSTA"}},{"type":"Feature","id":"_mview_admi_etablissements_administration.fid--1b6ae3e2_1a0db278384_-3898","geometry":{"type":"Point","coordinates":[1.1257483,7.53616431]},"geometry_name":"geometry","properties":{"region_nom_bdd":"Plateaux","prefecture_nom_bdd":"Ogou","commune_nom_bdd":"Ogou 1","canton_nom_bdd":"Djama","nom_localite":"Quartier Residence","etablissement_nom":"Inspection des Enseignements Préscolaire et Primaire (IEPP) - Ogou Nord","etab_adr":"Inspection des Enseignements Préscolaire et Primaire (IEPP) - Ogou Nord, Quartier Residence, Djama, Ogou 1, BP86","ouverture_jour":"{lundi,Mardi,Mercredi,Vendredi}","ministere_tutelle":"MEPSTA"}},{"type":"Feature","id":"_mview_admi_etablissements_administration.fid--1b6ae3e2_1a0db278384_-3897","geometry":{"type":"Point","coordinates":[0.57181773,8.78836695]},"geometry_name":"geometry","properties":{"region_nom_bdd":"Centrale","prefecture_nom_bdd":"Mô","commune_nom_bdd":"Mô 1","canton_nom_bdd":"Djarkpanga","nom_localite":"Adjondo","etablissement_nom":"Inspection des Enseignements Préscolaire et Primaire (IEPP) - Mo","etab_adr":"Inspection des Enseignements Préscolaire et Primaire (IEPP) - Mo, Adjondo, Djarkpanga, Mô 1","ouverture_jour":"{lundi,Mardi,Mercredi,Jeudi,Vendredi}","ministere_tutelle":"MEPSTA"}},{"type":"Feature","id":"_mview_admi_etablissements_administration.fid--1b6ae3e2_1a0db278384_-3896","geometry":{"type":"Point","coordinates":[0.19951149,10.8780641]},"geometry_name":"geometry","properties":{"region_nom_bdd":"Savanes","prefecture_nom_bdd":"Tône","commune_nom_bdd":"Tône 1","canton_nom_bdd":"Dapaong","nom_localite":"Commune Tone 1","etablissement_nom":"Inspection des Enseignements Préscolaire et Primaire (IEPP) - Tone Ouest","etab_adr":"Inspection des Enseignements Préscolaire et Primaire (IEPP) - Tone Ouest, Commune Tone 1, Dapaong, Tône 1, BP63","ouverture_jour":"{lundi,Mardi,Mercredi,Jeudi,Vendredi}","ministere_tutelle":"MEPSTA"}},{"type":"Feature","id":"_mview_admi_etablissements_administration.fid--1b6ae3e2_1a0db278384_-3895","geometry":{"type":"Point","coordinates":[1.2084598,6.21896401]},"geometry_name":"geometry","properties":{"region_nom_bdd":"Maritime","prefecture_nom_bdd":"Agoè-Nyivé","commune_nom_bdd":"Agoè-Nyivé 1","canton_nom_bdd":"Agoè-Nyivé","nom_localite":"Nyiveme","etablissement_nom":"Inspection des Enseignements Préscolaire et Primaire (IEPP) - Agoe-Nyive Est","etab_adr":"Inspection des Enseignements Préscolaire et Primaire (IEPP) - Agoe-Nyive Est, Nyiveme, Agoè-Nyivé, Agoè-Nyivé 1","ouverture_jour":"{lundi,Mardi,Mercredi,Jeudi,Vendredi,Samedi}","ministere_tutelle":"MEPSTA"}},{"type":"Feature","id":"_mview_admi_etablissements_administration.fid--1b6ae3e2_1a0db278384_-3894","geometry":{"type":"Point","coordinates":[1.17439718,6.96255518]},"geometry_name":"geometry","properties":{"region_nom_bdd":"Plateaux","prefecture_nom_bdd":"Haho","commune_nom_bdd":"Haho 1","canton_nom_bdd":"Notsé","nom_localite":"Notsé","etablissement_nom":"Inspection des Enseignements Préscolaire et Primaire (IEPP) - Haho Sud","etab_adr":"Inspection des Enseignements Préscolaire et Primaire (IEPP) - Haho Sud, Notsé, Notsé, Haho 1","ouverture_jour":"{lundi,Mardi,Mercredi,Jeudi,Vendredi}","ministere_tutelle":"MEPSTA"}},{"type":"Feature","id":"_mview_admi_etablissements_administration.fid--1b6ae3e2_1a0db278384_-3893","geometry":{"type":"Point","coordinates":[0.74249974,10.32512209]},"geometry_name":"geometry","properties":{"region_nom_bdd":"Savanes","prefecture_nom_bdd":"Oti-Sud","commune_nom_bdd":"Oti-Sud 1","canton_nom_bdd":"Gando","nom_localite":"Gando","etablissement_nom":"Inspection des Enseignements Préscolaire et Primaire (IEPP) - Oti Sud","etab_adr":"Inspection des Enseignements Préscolaire et Primaire (IEPP) - Oti Sud, Gando, Gando, Oti-Sud 1","ouverture_jour":"{lundi,Samedi,Vendredi,Jeudi,Mercredi,Mardi}","ministere_tutelle":"MEPSTA"}},{"type":"Feature","id":"_mview_admi_etablissements_administration.fid--1b6ae3e2_1a0db278384_-3892","geometry":{"type":"Point","coordinates":[0.98502329,8.55213154]},"geometry_name":"geometry","properties":{"region_nom_bdd":"Centrale","prefecture_nom_bdd":"Sotouboua","commune_nom_bdd":"Sotouboua 1","canton_nom_bdd":"Sotouboua","nom_localite":"Sotouboua","etablissement_nom":"Inspection de l'Enseignement Secondaire Général (IESG) - Sotouboua","etab_adr":"Inspection de l'Enseignement Secondaire Général (IESG) - Sotouboua, Sotouboua, Sotouboua, Sotouboua 1, BP98 Sotouboua","ouverture_jour":"{lundi,Mardi,Mercredi,Jeudi,Vendredi}","ministere_tutelle":"MEPSTA"}},{"type":"Feature","id":"_mview_admi_etablissements_administration.fid--1b6ae3e2_1a0db278384_-3891","geometry":{"type":"Point","coordinates":[1.50581892,6.60168809]},"geometry_name":"geometry","properties":{"region_nom_bdd":"Maritime","prefecture_nom_bdd":"Yoto","commune_nom_bdd":"Yoto 1","canton_nom_bdd":"Tabligbo","nom_localite":"Zebe","etablissement_nom":"Inspection des Enseignements Préscolaire et Primaire (IEPP) - Yoto Est","etab_adr":"Inspection des Enseignements Préscolaire et Primaire (IEPP) - Yoto Est, Zebe, Tabligbo, Yoto 1, BP20 Tabligbo","ouverture_jour":"{lundi,Mardi,Mercredi,Jeudi,Vendredi}","ministere_tutelle":"MEPSTA"}},{"type":"Feature","id":"_mview_admi_etablissements_administration.fid--1b6ae3e2_1a0db278384_-3890","geometry":{"type":"Point","coordinates":[1.28263,7.95308667]},"geometry_name":"geometry","properties":{"region_nom_bdd":"Plateaux","prefecture_nom_bdd":"Est-Mono","commune_nom_bdd":"Est-Mono 1","canton_nom_bdd":"Elavagnon","nom_localite":"Akpante","etablissement_nom":"Inspection des Enseignements Préscolaire et Primaire (IEPP) - Est-Mono","etab_adr":"Inspection des Enseignements Préscolaire et Primaire (IEPP) - Est-Mono, Akpante, Elavagnon, Est-Mono 1, BP10","ouverture_jour":"{lundi,Mardi,Mercredi,Jeudi,Vendredi}","ministere_tutelle":"MEPSTA"}},{"type":"Feature","id":"_mview_admi_etablissements_administration.fid--1b6ae3e2_1a0db278384_-388f","geometry":{"type":"Point","coordinates":[1.21373364,6.19401283]},"geometry_name":"geometry","properties":{"region_nom_bdd":"Maritime","prefecture_nom_bdd":"Golfe","commune_nom_bdd":"Golfe 3","canton_nom_bdd":"Bè-Ouest","nom_localite":"Nouvelle Présidence","etablissement_nom":"Personne Responsable des Marchés Publics du MEPSTA (MEPSTA/PRMP)","etab_adr":"Personne Responsable des Marchés Publics du MEPSTA (MEPSTA/PRMP), Nouvelle Présidence, Bè-Ouest, Golfe 3, BP3221 Lomé","ouverture_jour":"{lundi,Mardi,Mercredi,Jeudi,Vendredi}","ministere_tutelle":"MEPSTA"}},{"type":"Feature","id":"_mview_admi_etablissements_administration.fid--1b6ae3e2_1a0db278384_-388e","geometry":{"type":"Point","coordinates":[0.02369451,11.09855008]},"geometry_name":"geometry","properties":{"region_nom_bdd":"Savanes","prefecture_nom_bdd":"Cinkassé","commune_nom_bdd":"Cinkassé 1","canton_nom_bdd":"Cinkassé","nom_localite":"Cinkasse","etablissement_nom":"Inspection des Enseignements Préscolaire et Primaire (IEPP) - Cinkassé","etab_adr":"Inspection des Enseignements Préscolaire et Primaire (IEPP) - Cinkassé, Cinkasse, Boadé, Cinkassé 1, BP100","ouverture_jour":"{lundi,Mardi,Mercredi,Jeudi,Vendredi}","ministere_tutelle":"MEPSTA"}},{"type":"Feature","id":"_mview_admi_etablissements_administration.fid--1b6ae3e2_1a0db278384_-388d","geometry":{"type":"Point","coordinates":[1.41620549,7.00515977]},"geometry_name":"geometry","properties":{"region_nom_bdd":"Plateaux","prefecture_nom_bdd":"Haho","commune_nom_bdd":"Haho 2","canton_nom_bdd":"Asrama","nom_localite":"Asrama","etablissement_nom":"Inspection des Enseignements Préscolaire et Primaire (IEPP) - Haho Est","etab_adr":"Inspection des Enseignements Préscolaire et Primaire (IEPP) - Haho Est, Asrama, Asrama, Haho 2","ouverture_jour":"{lundi,Mardi,Mercredi,Jeudi,Vendredi}","ministere_tutelle":"MEPSTA"}},{"type":"Feature","id":"_mview_admi_etablissements_administration.fid--1b6ae3e2_1a0db278384_-388c","geometry":{"type":"Point","coordinates":[1.20995333,6.42222167]},"geometry_name":"geometry","properties":{"region_nom_bdd":"Maritime","prefecture_nom_bdd":"Zio","commune_nom_bdd":"Zio 1","canton_nom_bdd":"Tsévié","nom_localite":"Daviemondji","etablissement_nom":"Inspection des Enseignements Préscolaire et Primaire (IEPP) - Zio Sud","etab_adr":"Inspection des Enseignements Préscolaire et Primaire (IEPP) - Zio Sud, Daviemondji, Tsévié, Zio 1, BP39 Tsevie","ouverture_jour":"{lundi,Mardi,Mercredi,Jeudi,Vendredi}","ministere_tutelle":"MEPSTA"}},{"type":"Feature","id":"_mview_admi_etablissements_administration.fid--1b6ae3e2_1a0db278384_-388b","geometry":{"type":"Point","coordinates":[1.13533833,8.97980333]},"geometry_name":"geometry","properties":{"region_nom_bdd":"Centrale","prefecture_nom_bdd":"Tchaoudjo","commune_nom_bdd":"Tchaoudjo 1","canton_nom_bdd":"Sokodè (Komah)","nom_localite":"Quartier Administratif","etablissement_nom":"Inspection des Enseignements Préscolaire et Primaire (IEPP) - Tchaoudjo Nord","etab_adr":"Inspection des Enseignements Préscolaire et Primaire (IEPP) - Tchaoudjo Nord, Quartier Administratif, Sokodè (Komah), Tchaoudjo 1, BP109 Sokode","ouverture_jour":"{lundi,Mardi,Mercredi,Jeudi,Vendredi}","ministere_tutelle":"MEPSTA"}},{"type":"Feature","id":"_mview_admi_etablissements_administration.fid--1b6ae3e2_1a0db278384_-388a","geometry":{"type":"Point","coordinates":[1.21257667,6.41539]},"geometry_name":"geometry","properties":{"region_nom_bdd":"Maritime","prefecture_nom_bdd":"Zio","commune_nom_bdd":"Zio 1","canton_nom_bdd":"Tsévié","nom_localite":"Deme","etablissement_nom":"Direction Régionale de l'Education (DRE-M) - Région Maritime","etab_adr":"Direction Régionale de l'Education (DRE-M) - Région Maritime, Deme, Tsévié, Zio 1, BP44","ouverture_jour":"{lundi,Mardi,Mercredi,Jeudi,Vendredi,Samedi}","ministere_tutelle":"MEPSTA"}},{"type":"Feature","id":"_mview_admi_etablissements_administration.fid--1b6ae3e2_1a0db278384_-3889","geometry":{"type":"Point","coordinates":[1.04201828,9.96341962]},"geometry_name":"geometry","properties":{"region_nom_bdd":"Kara","prefecture_nom_bdd":"Kéran","commune_nom_bdd":"Kéran 1","canton_nom_bdd":"Kantè","nom_localite":"Kantè","etablissement_nom":"Inspection des Enseignements Préscolaire et Primaire (IEPP) - Kéran","etab_adr":"Inspection des Enseignements Préscolaire et Primaire (IEPP) - Kéran, Kantè, Kantè, Kéran 1","ouverture_jour":"{lundi,Mardi,Mercredi,Jeudi,Vendredi}","ministere_tutelle":"MEPSTA"}},{"type":"Feature","id":"_mview_admi_etablissements_administration.fid--1b6ae3e2_1a0db278384_-3888","geometry":{"type":"Point","coordinates":[1.14840934,7.51896129]},"geometry_name":"geometry","properties":{"region_nom_bdd":"Plateaux","prefecture_nom_bdd":"Ogou","commune_nom_bdd":"Ogou 1","canton_nom_bdd":"Djama","nom_localite":"Agonou Total","etablissement_nom":"Direction Régionale de l'Education (DRE-PE) - Région Plateaux Est/Atakpamé","etab_adr":"Direction Régionale de l'Education (DRE-PE) - Région Plateaux Est/Atakpamé, Agonou Total, Djama, Ogou 1, BP777","ouverture_jour":"{lundi,Mardi,Mercredi,Jeudi,Vendredi}","ministere_tutelle":"MEPSTA"}},{"type":"Feature","id":"_mview_admi_etablissements_administration.fid--1b6ae3e2_1a0db278384_-3887","geometry":{"type":"Point","coordinates":[1.2139141,6.1938412]},"geometry_name":"geometry","properties":{"region_nom_bdd":"Maritime","prefecture_nom_bdd":"Golfe","commune_nom_bdd":"Golfe 3","canton_nom_bdd":"Bè-Ouest","nom_localite":"Nouvelle Présidence","etablissement_nom":"Direction de la Planification de l'Éducation et de l'Évaluation (MEPSTA/DPEE","etab_adr":"Direction de la Planification de l'Éducation et de l'Évaluation (MEPSTA/DPEE, Nouvelle Présidence, Bè-Ouest, Golfe 3, BP3221 Lomé","ouverture_jour":"{lundi,Mardi,Mercredi,Jeudi,Vendredi}","ministere_tutelle":"MEPSTA"}},{"type":"Feature","id":"_mview_admi_etablissements_administration.fid--1b6ae3e2_1a0db278384_-3886","geometry":{"type":"Point","coordinates":[1.12262612,9.76196163]},"geometry_name":"geometry","properties":{"region_nom_bdd":"Kara","prefecture_nom_bdd":"Doufelgou","commune_nom_bdd":"Doufelgou 1","canton_nom_bdd":"Niamtougou","nom_localite":"Tanfelakeni","etablissement_nom":"Inspection des Enseignements Préscolaire et Primaire (IEPP) - Doufelgou","etab_adr":"Inspection des Enseignements Préscolaire et Primaire (IEPP) - Doufelgou, Tanfelakeni, Niamtougou, Doufelgou 1, BP98 Niamtougou","ouverture_jour":"{lundi,Mardi,Mercredi,Jeudi,Vendredi}","ministere_tutelle":"MEPSTA"}},{"type":"Feature","id":"_mview_admi_etablissements_administration.fid--1b6ae3e2_1a0db278384_-3885","geometry":{"type":"Point","coordinates":[1.12578851,7.53615275]},"geometry_name":"geometry","properties":{"region_nom_bdd":"Plateaux","prefecture_nom_bdd":"Ogou","commune_nom_bdd":"Ogou 1","canton_nom_bdd":"Djama","nom_localite":"Quartier Residence","etablissement_nom":"Inspection des Enseignements Préscolaire et Primaire (IEPP) - Ogou Sud","etab_adr":"Inspection des Enseignements Préscolaire et Primaire (IEPP) - Ogou Sud, Quartier Residence, Djama, Ogou 1, BP86","ouverture_jour":"{lundi,Mardi,Mercredi,Jeudi,Vendredi}","ministere_tutelle":"MEPSTA"}},{"type":"Feature","id":"_mview_admi_etablissements_administration.fid--1b6ae3e2_1a0db278384_-3884","geometry":{"type":"Point","coordinates":[1.22260667,6.134115]},"geometry_name":"geometry","properties":{"region_nom_bdd":"Maritime","prefecture_nom_bdd":"Golfe","commune_nom_bdd":"Golfe 4","canton_nom_bdd":"Amoutivé","nom_localite":"Quartier Des Étoiles","etablissement_nom":"Inspection de l'Enseignement Secondaire Général (IESG) - Golfe Ouest","etab_adr":"Inspection de l'Enseignement Secondaire Général (IESG) - Golfe Ouest, Quartier des Étoiles, Amoutivé, Golfe 4","ouverture_jour":"{lundi,Mardi,Mercredi,Jeudi,Vendredi}","ministere_tutelle":"MEPSTA"}},{"type":"Feature","id":"_mview_admi_etablissements_administration.fid--1b6ae3e2_1a0db278384_-3883","geometry":{"type":"Point","coordinates":[0.78918189,7.6487684]},"geometry_name":"geometry","properties":{"region_nom_bdd":"Plateaux","prefecture_nom_bdd":"Akébou","commune_nom_bdd":"Akébou 1","canton_nom_bdd":"Kougnohou","nom_localite":"Kougnohou","etablissement_nom":"Inspection des Enseignements Préscolaire et Primaire (IEPP) - Akebou","etab_adr":"Inspection des Enseignements Préscolaire et Primaire (IEPP) - Akebou, Kougnohou, Kougnohou, Akébou 1, BP03 Kougnohou","ouverture_jour":"{lundi,Mardi,Mercredi,Jeudi,Vendredi}","ministere_tutelle":"MEPSTA"}},{"type":"Feature","id":"_mview_admi_etablissements_administration.fid--1b6ae3e2_1a0db278384_-3882","geometry":{"type":"Point","coordinates":[1.58696283,6.22570699]},"geometry_name":"geometry","properties":{"region_nom_bdd":"Maritime","prefecture_nom_bdd":"Lacs","commune_nom_bdd":"Lacs 1","canton_nom_bdd":"Aného","nom_localite":"Kpota","etablissement_nom":"Inspection des Enseignements Préscolaire et Primaire (IEPP) - Lacs Ouest","etab_adr":"Inspection des Enseignements Préscolaire et Primaire (IEPP) - Lacs Ouest, Kpota, Aného, Lacs 1, 130BP259 Aneho","ouverture_jour":"{lundi,Mardi,Mercredi,Jeudi,Vendredi}","ministere_tutelle":"MEPSTA"}},{"type":"Feature","id":"_mview_admi_etablissements_administration.fid--1b6ae3e2_1a0db278384_-3881","geometry":{"type":"Point","coordinates":[1.01725,8.65421667]},"geometry_name":"geometry","properties":{"region_nom_bdd":"Centrale","prefecture_nom_bdd":"Sotouboua","commune_nom_bdd":"Sotouboua 2","canton_nom_bdd":"Adjengré","nom_localite":"Tetouta","etablissement_nom":"Inspection des Enseignements Préscolaire et Primaire (IEPP) - Sotouboua Nord","etab_adr":"Inspection des Enseignements Préscolaire et Primaire (IEPP) - Sotouboua Nord, Tetouta, Adjengré, Sotouboua 2, BP15 Adjengre","ouverture_jour":"{lundi,Mardi,Mercredi,Jeudi,Vendredi}","ministere_tutelle":"MEPSTA"}},{"type":"Feature","id":"_mview_admi_etablissements_administration.fid--1b6ae3e2_1a0db278384_-3880","geometry":{"type":"Point","coordinates":[1.19033086,9.54941296]},"geometry_name":"geometry","properties":{"region_nom_bdd":"Kara","prefecture_nom_bdd":"Kozah","commune_nom_bdd":"Kozah 1","canton_nom_bdd":"Commune De Kara","nom_localite":"Ewowou","etablissement_nom":"Direction Régionale de l'Education (DRE-K) - Région Kara","etab_adr":"Direction Régionale de l'Education (DRE-K) - Région Kara, Ewowou, Commune De Kara, Kozah 1","ouverture_jour":"{lundi,Mardi,Mercredi,Jeudi,Vendredi}","ministere_tutelle":"MEPSTA"}},{"type":"Feature","id":"_mview_admi_etablissements_administration.fid--1b6ae3e2_1a0db278384_-387f","geometry":{"type":"Point","coordinates":[1.24622411,9.3639449]},"geometry_name":"geometry","properties":{"region_nom_bdd":"Kara","prefecture_nom_bdd":"Assoli","commune_nom_bdd":"Assoli 1","canton_nom_bdd":"Bafilo","nom_localite":"Quartier Lycee","etablissement_nom":"Inspection des Enseignements Préscolaire et Primaire (IEPP) - Assoli","etab_adr":"Inspection des Enseignements Préscolaire et Primaire (IEPP) - Assoli, Quartier Lycee, Bafilo, Assoli 1, BP05 Bafilo","ouverture_jour":"{lundi,Mardi,Mercredi,Jeudi,Vendredi}","ministere_tutelle":"MEPSTA"}},{"type":"Feature","id":"_mview_admi_etablissements_administration.fid--1b6ae3e2_1a0db278384_-387e","geometry":{"type":"Point","coordinates":[0.93248759,6.42286279]},"geometry_name":"geometry","properties":{"region_nom_bdd":"Maritime","prefecture_nom_bdd":"Avé","commune_nom_bdd":"Avé 1","canton_nom_bdd":"Kévé","nom_localite":"Badja Modji","etablissement_nom":"Inspection des Enseignements Préscolaire et Primaire (IEPP) - Ave","etab_adr":"Inspection des Enseignements Préscolaire et Primaire (IEPP) - Ave, Badja Modji, Kévé, Avé 1, BP04 Keve","ouverture_jour":"{lundi,Mardi,Mercredi,Jeudi,Vendredi}","ministere_tutelle":"MEPSTA"}},{"type":"Feature","id":"_mview_admi_etablissements_administration.fid--1b6ae3e2_1a0db278384_-387d","geometry":{"type":"Point","coordinates":[1.1685917,6.68932687]},"geometry_name":"geometry","properties":{"region_nom_bdd":"Maritime","prefecture_nom_bdd":"Zio","commune_nom_bdd":"Zio 3","canton_nom_bdd":"Agbélouvé","nom_localite":"Zio Nord","etablissement_nom":"Inspection des Enseignements Préscolaire et Primaire (IEPP) - Zio Nord","etab_adr":"Inspection des Enseignements Préscolaire et Primaire (IEPP) - Zio Nord, Zio Nord, Agbélouvé, Zio 3, BP39 Zio Nord","ouverture_jour":"{lundi,Mardi,Mercredi,Jeudi,Vendredi}","ministere_tutelle":"MEPSTA"}},{"type":"Feature","id":"_mview_admi_etablissements_administration.fid--1b6ae3e2_1a0db278384_-387c","geometry":{"type":"Point","coordinates":[1.13500019,8.9786714]},"geometry_name":"geometry","properties":{"region_nom_bdd":"Centrale","prefecture_nom_bdd":"Tchaoudjo","commune_nom_bdd":"Tchaoudjo 1","canton_nom_bdd":"Sokodè (Komah)","nom_localite":"Komah","etablissement_nom":"Direction Régionale de l'Education (DRE-C) - Région Centrale","etab_adr":"Direction Régionale de l'Education (DRE-C) - Région Centrale, Komah, Sokodè (Komah), Tchaoudjo 1, BP113","ouverture_jour":"{lundi,Mercredi,Mardi,Jeudi,Vendredi}","ministere_tutelle":"MEPSTA"}},{"type":"Feature","id":"_mview_admi_etablissements_administration.fid--1b6ae3e2_1a0db278384_-387b","geometry":{"type":"Point","coordinates":[1.21861534,6.1265068]},"geometry_name":"geometry","properties":{"region_nom_bdd":"Maritime","prefecture_nom_bdd":"Golfe","commune_nom_bdd":"Golfe 4","canton_nom_bdd":"Amoutivé","nom_localite":"Quartier Administratif","etablissement_nom":"Projet d'Appui à la Réforme des Collèges (PAREC II)","etab_adr":"Projet d'Appui à la Réforme des Collèges (PAREC II), Quartier Administratif, Amoutivé, Golfe 4, BP011393 Lomé","ouverture_jour":"{lundi,Mardi,Mercredi,Jeudi,Vendredi}","ministere_tutelle":"MEPSTA"}},{"type":"Feature","id":"_mview_admi_etablissements_administration.fid--1b6ae3e2_1a0db278384_-387a","geometry":{"type":"Point","coordinates":[0.62274998,6.91938099]},"geometry_name":"geometry","properties":{"region_nom_bdd":"Plateaux","prefecture_nom_bdd":"Kloto","commune_nom_bdd":"Kloto 1","canton_nom_bdd":"Agome-Kpalime","nom_localite":"Kpalimé","etablissement_nom":"Direction Régionale de l'Education (DRE-PO) - Région Plateaux Ouest","etab_adr":"Direction Régionale de l'Education (DRE-PO) - Région Plateaux Ouest, Kpalimé, Agome-Kpalime, Kloto 1","ouverture_jour":"{lundi,Mardi,Mercredi,Jeudi,Vendredi}","ministere_tutelle":"MEPSTA"}},{"type":"Feature","id":"_mview_admi_etablissements_administration.fid--1b6ae3e2_1a0db278384_-3879","geometry":{"type":"Point","coordinates":[0.63322637,6.91218171]},"geometry_name":"geometry","properties":{"region_nom_bdd":"Plateaux","prefecture_nom_bdd":"Kloto","commune_nom_bdd":"Kloto 1","canton_nom_bdd":"Agome-Kpalime","nom_localite":"Kpalimé","etablissement_nom":"Inspection de l'Enseignement Secondaire Général (IESG) - Kpalimé","etab_adr":"Inspection de l'Enseignement Secondaire Général (IESG) - Kpalimé, Kpalimé, Agome-Kpalime, Kloto 1","ouverture_jour":"{Jeudi,Mercredi,Mardi,lundi,Vendredi}","ministere_tutelle":"MEPSTA"}},{"type":"Feature","id":"_mview_admi_etablissements_administration.fid--1b6ae3e2_1a0db278384_-3878","geometry":{"type":"Point","coordinates":[0.76457071,7.59904546]},"geometry_name":"geometry","properties":{"region_nom_bdd":"Plateaux","prefecture_nom_bdd":"Wawa","commune_nom_bdd":"Wawa 3","canton_nom_bdd":"Klabé-Efoukpa","nom_localite":"Efoukpa","etablissement_nom":"Inspection des Enseignements Préscolaire et Primaire (IEPP) - Wawa Est","etab_adr":"Inspection des Enseignements Préscolaire et Primaire (IEPP) - Wawa Est, Efoukpa, Klabé-Efoukpa, Wawa 3","ouverture_jour":"{Vendredi,Jeudi,Mercredi,Mardi,lundi}","ministere_tutelle":"MEPSTA"}},{"type":"Feature","id":"_mview_admi_etablissements_administration.fid--1b6ae3e2_1a0db278384_-3877","geometry":{"type":"Point","coordinates":[1.24999277,6.13517384]},"geometry_name":"geometry","properties":{"region_nom_bdd":"Maritime","prefecture_nom_bdd":"Golfe","commune_nom_bdd":"Golfe 1","canton_nom_bdd":"Bè-Est","nom_localite":"Be Chateau","etablissement_nom":"Direction des Enseignements Préscolaire et Primaire (MEPSTA/DEPP)","etab_adr":"Direction des Enseignements Préscolaire et Primaire (MEPSTA/DEPP), Be Chateau, Bè-Est, Golfe 1, BP339 Lomé","ouverture_jour":"{lundi,Mardi,Mercredi,Jeudi,Vendredi}","ministere_tutelle":"MEPSTA"}},{"type":"Feature","id":"_mview_admi_etablissements_administration.fid--1b6ae3e2_1a0db278384_-3876","geometry":{"type":"Point","coordinates":[1.18448168,6.21135835]},"geometry_name":"geometry","properties":{"region_nom_bdd":"Maritime","prefecture_nom_bdd":"Agoè-Nyivé","commune_nom_bdd":"Agoè-Nyivé 1","canton_nom_bdd":"Agoè-Nyivé","nom_localite":"Agnonme","etablissement_nom":"Inspection des Enseignements Préscolaire et Primaire (IEPP) - Agoè-Nyivé Ouest","etab_adr":"Inspection des Enseignements Préscolaire et Primaire (IEPP) - Agoè-Nyivé Ouest, Agnonme, Agoè-Nyivé, Agoè-Nyivé 1","ouverture_jour":"{lundi,Mardi,Mercredi,Jeudi,Vendredi}","ministere_tutelle":"MEPSTA"}},{"type":"Feature","id":"_mview_admi_etablissements_administration.fid--1b6ae3e2_1a0db278384_-3875","geometry":{"type":"Point","coordinates":[1.21387889,6.19428884]},"geometry_name":"geometry","properties":{"region_nom_bdd":"Maritime","prefecture_nom_bdd":"Golfe","commune_nom_bdd":"Golfe 3","canton_nom_bdd":"Bè-Ouest","nom_localite":"Nouvelle Présidence","etablissement_nom":"Inspection Générale de l'Education (IGE)","etab_adr":"Inspection Générale de l'Education (IGE), Nouvelle Présidence, Bè-Ouest, Golfe 3, 01BP1393 Lomé","ouverture_jour":"{lundi,Mardi,Mercredi,Jeudi,Vendredi,Samedi}","ministere_tutelle":"MEPSTA"}},{"type":"Feature","id":"_mview_admi_etablissements_administration.fid--1b6ae3e2_1a0db278384_-3874","geometry":{"type":"Point","coordinates":[1.19120333,7.77647833]},"geometry_name":"geometry","properties":{"region_nom_bdd":"Plateaux","prefecture_nom_bdd":"Anié","commune_nom_bdd":"Anié 1","canton_nom_bdd":"Anié","nom_localite":"Anie","etablissement_nom":"Inspection de l'Enseignement Secondaire Général (IESG) - Anié","etab_adr":"Inspection de l'Enseignement Secondaire Général (IESG) - Anié, Anie, Anié, Anié 1","ouverture_jour":"{lundi,Mardi,Mercredi,Jeudi,Vendredi}","ministere_tutelle":"MEPSTA"}},{"type":"Feature","id":"_mview_admi_etablissements_administration.fid--1b6ae3e2_1a0db278384_-3873","geometry":{"type":"Point","coordinates":[1.12886296,7.52642075]},"geometry_name":"geometry","properties":{"region_nom_bdd":"Plateaux","prefecture_nom_bdd":"Ogou","commune_nom_bdd":"Ogou 1","canton_nom_bdd":"Gnagna","nom_localite":"Gnagna","etablissement_nom":"Inspection de l'Enseignement Secondaire Général (IESG) - Atakpamé","etab_adr":"Inspection de l'Enseignement Secondaire Général (IESG) - Atakpamé, Gnagna, Gnagna, Ogou 1, BP287 Atakpame","ouverture_jour":"{lundi,Mardi,Mercredi,Jeudi,Vendredi}","ministere_tutelle":"MEPSTA"}},{"type":"Feature","id":"_mview_admi_etablissements_administration.fid--1b6ae3e2_1a0db278384_-3872","geometry":{"type":"Point","coordinates":[0.47061544,10.35980514]},"geometry_name":"geometry","properties":{"region_nom_bdd":"Savanes","prefecture_nom_bdd":"Oti","commune_nom_bdd":"Oti 1","canton_nom_bdd":"Mango","nom_localite":"Quartier Administratif","etablissement_nom":"Inspection de l'Enseignement Secondaire Général (IESG) - Mango","etab_adr":"Inspection de l'Enseignement Secondaire Général (IESG) - Mango, Quartier Administratif, Mango, Oti 1","ouverture_jour":"{lundi,Mardi,Mercredi,Jeudi,Vendredi}","ministere_tutelle":"MEPSTA"}},{"type":"Feature","id":"_mview_admi_etablissements_administration.fid--1b6ae3e2_1a0db278384_-3871","geometry":{"type":"Point","coordinates":[1.22244103,6.13452011]},"geometry_name":"geometry","properties":{"region_nom_bdd":"Maritime","prefecture_nom_bdd":"Golfe","commune_nom_bdd":"Golfe 4","canton_nom_bdd":"Amoutivé","nom_localite":"Quartier Des Étoiles","etablissement_nom":"Centre National D'Information et d'Orientation Scolaires et Professionnelles (CNIOSP)","etab_adr":"Centre National D'Information et d'Orientation Scolaires et Professionnelles (CNIOSP), Quartier des Étoiles, Amoutivé, Golfe 4, 07BP12343","ouverture_jour":"{lundi,Mardi,Mercredi,Jeudi,Vendredi}","ministere_tutelle":"MEPSTA"}},{"type":"Feature","id":"_mview_admi_etablissements_administration.fid--1b6ae3e2_1a0db278384_-3870","geometry":{"type":"Point","coordinates":[1.3254039,9.7432521]},"geometry_name":"geometry","properties":{"region_nom_bdd":"Kara","prefecture_nom_bdd":"Binah","commune_nom_bdd":"Binah 1","canton_nom_bdd":"Pagouda","nom_localite":"Waze","etablissement_nom":"Inspection des Enseignements Préscolaire et Primaire (IEPP) - Binah","etab_adr":"Inspection des Enseignements Préscolaire et Primaire (IEPP) - Binah, Waze, Pagouda, Binah 1, BP83 Pagouda","ouverture_jour":"{lundi,Mardi,Mercredi,Jeudi,Vendredi}","ministere_tutelle":"MEPSTA"}},{"type":"Feature","id":"_mview_admi_etablissements_administration.fid--1b6ae3e2_1a0db278384_-386f","geometry":{"type":"Point","coordinates":[0.90972561,7.46944969]},"geometry_name":"geometry","properties":{"region_nom_bdd":"Plateaux","prefecture_nom_bdd":"Amou","commune_nom_bdd":"Amou 1","canton_nom_bdd":"Amlamé (Ouma)","nom_localite":"Amlame 2","etablissement_nom":"Inspection des Enseignements Préscolaire et Primaire (IEPP) - Amou Sud","etab_adr":"Inspection des Enseignements Préscolaire et Primaire (IEPP) - Amou Sud, Amlame 2, Amlamé (Ouma), Amou 1, BP77 Amlame","ouverture_jour":"{lundi,Mardi,Mercredi,Jeudi,Vendredi}","ministere_tutelle":"MEPSTA"}},{"type":"Feature","id":"_mview_admi_etablissements_administration.fid--1b6ae3e2_1a0db278384_-386e","geometry":{"type":"Point","coordinates":[1.52877626,6.33919744]},"geometry_name":"geometry","properties":{"region_nom_bdd":"Maritime","prefecture_nom_bdd":"Vo","commune_nom_bdd":"Vo 1","canton_nom_bdd":"Vogan","nom_localite":"Adjrego","etablissement_nom":"Inspection des Enseignements Préscolaire et Primaire (IEPP) - Vo sud","etab_adr":"Inspection des Enseignements Préscolaire et Primaire (IEPP) - Vo sud, Adjrego, Vogan, Vo 1, BP77 Vogan","ouverture_jour":"{lundi,Mardi,Mercredi,Jeudi,Vendredi}","ministere_tutelle":"MEPSTA"}},{"type":"Feature","id":"_mview_admi_etablissements_administration.fid--1b6ae3e2_1a0db278384_-386d","geometry":{"type":"Point","coordinates":[1.13796358,9.47603724]},"geometry_name":"geometry","properties":{"region_nom_bdd":"Kara","prefecture_nom_bdd":"Kozah","commune_nom_bdd":"Kozah 4","canton_nom_bdd":"Atchangbadè","nom_localite":"Pouyo","etablissement_nom":"Inspection des Enseignements Préscolaire et Primaire (IEPP) - Kozah Sud","etab_adr":"Inspection des Enseignements Préscolaire et Primaire (IEPP) - Kozah Sud, Pouyo, Atchangbadè, Kozah 4","ouverture_jour":"{lundi,Mardi,Mercredi,Jeudi,Vendredi}","ministere_tutelle":"MEPSTA"}},{"type":"Feature","id":"_mview_admi_etablissements_administration.fid--1b6ae3e2_1a0db278384_-386c","geometry":{"type":"Point","coordinates":[1.118015,9.763005]},"geometry_name":"geometry","properties":{"region_nom_bdd":"Kara","prefecture_nom_bdd":"Doufelgou","commune_nom_bdd":"Doufelgou 1","canton_nom_bdd":"Niamtougou","nom_localite":"Tanfelakeni","etablissement_nom":"Inspection de l'Enseignement Secondaire Général (IESG) - Kara","etab_adr":"Inspection de l'Enseignement Secondaire Général (IESG) - Kara, Tanfelakeni, Niamtougou, Doufelgou 1","ouverture_jour":"{lundi,Mardi,Mercredi,Jeudi,Vendredi}","ministere_tutelle":"MEPSTA"}},{"type":"Feature","id":"_mview_admi_etablissements_administration.fid--1b6ae3e2_1a0db278384_-386b","geometry":{"type":"Point","coordinates":[1.390385,6.59455]},"geometry_name":"geometry","properties":{"region_nom_bdd":"Maritime","prefecture_nom_bdd":"Yoto","commune_nom_bdd":"Yoto 2","canton_nom_bdd":"Ahépé","nom_localite":"Kpowla","etablissement_nom":"Inspection des Enseignements Préscolaire et Primaire (IEPP) - Yoto Ouest","etab_adr":"Inspection des Enseignements Préscolaire et Primaire (IEPP) - Yoto Ouest, Kpowla, Ahépé, Yoto 2, BP40 Ahepe","ouverture_jour":"{Jeudi,lundi,Mardi,Mercredi,Vendredi}","ministere_tutelle":"MEPSTA"}},{"type":"Feature","id":"_mview_admi_etablissements_administration.fid--1b6ae3e2_1a0db278384_-386a","geometry":{"type":"Point","coordinates":[1.60635361,6.25164899]},"geometry_name":"geometry","properties":{"region_nom_bdd":"Maritime","prefecture_nom_bdd":"Lacs","commune_nom_bdd":"Lacs 1","canton_nom_bdd":"Glidji","nom_localite":"Glidji","etablissement_nom":"Inspection de l'Enseignement Secondaire Général (IESG) - Aného","etab_adr":"Inspection de l'Enseignement Secondaire Général (IESG) - Aného, Glidji, Glidji, Lacs 1","ouverture_jour":"{lundi,Mardi,Mercredi,Jeudi,Vendredi}","ministere_tutelle":"MEPSTA"}},{"type":"Feature","id":"_mview_admi_etablissements_administration.fid--1b6ae3e2_1a0db278384_-3869","geometry":{"type":"Point","coordinates":[1.21730523,6.12662666]},"geometry_name":"geometry","properties":{"region_nom_bdd":"Maritime","prefecture_nom_bdd":"Golfe","commune_nom_bdd":"Golfe 4","canton_nom_bdd":"Amoutivé","nom_localite":"Quartier Administratif","etablissement_nom":"Centre National de Documentation Pédagogique des Technologies de l'Information et de la Communication Pour l'education (CNDPTICE)","etab_adr":"Centre National de Documentation Pédagogique des Technologies de l'Information et de la Communication Pour l'education (CNDPTICE), Quartier Administratif, Amoutivé, Golfe 4, BP1393 Lomé","ouverture_jour":"{lundi,Mardi,Mercredi,Jeudi,Vendredi}","ministere_tutelle":"MEPSTA"}},{"type":"Feature","id":"_mview_admi_etablissements_administration.fid--1b6ae3e2_1a0db278384_-3868","geometry":{"type":"Point","coordinates":[1.21859558,6.12655625]},"geometry_name":"geometry","properties":{"region_nom_bdd":"Maritime","prefecture_nom_bdd":"Golfe","commune_nom_bdd":"Golfe 4","canton_nom_bdd":"Amoutivé","nom_localite":"Quartier Administratif","etablissement_nom":"Projet d'Appui à la Riposte du Système Educatif à la Pandémie au COVID-19 (PARSEP COVID-19)","etab_adr":"Projet d'Appui à la Riposte du Système Educatif à la Pandémie au COVID-19 (PARSEP COVID-19), Quartier Administratif, Amoutivé, Golfe 4, 01BP1393 Lomé","ouverture_jour":"{Vendredi,Jeudi,Mercredi,Mardi,lundi}","ministere_tutelle":"MEPSTA"}},{"type":"Feature","id":"_mview_admi_etablissements_administration.fid--1b6ae3e2_1a0db278384_-3867","geometry":{"type":"Point","coordinates":[1.21863629,6.12657639]},"geometry_name":"geometry","properties":{"region_nom_bdd":"Maritime","prefecture_nom_bdd":"Golfe","commune_nom_bdd":"Golfe 4","canton_nom_bdd":"Amoutivé","nom_localite":"Quartier Administratif","etablissement_nom":"Inspection des Enseignements Préscolaire et Primaire (IEPP) - Lomé Sud","etab_adr":"Inspection des Enseignements Préscolaire et Primaire (IEPP) - Lomé Sud, Quartier Administratif, Amoutivé, Golfe 4, 01BP2309 Lomé","ouverture_jour":"{lundi,Mardi,Mercredi,Jeudi,Vendredi}","ministere_tutelle":"MEPSTA"}},{"type":"Feature","id":"_mview_admi_etablissements_administration.fid--1b6ae3e2_1a0db278384_-3866","geometry":{"type":"Point","coordinates":[1.21814444,6.1264649]},"geometry_name":"geometry","properties":{"region_nom_bdd":"Maritime","prefecture_nom_bdd":"Golfe","commune_nom_bdd":"Golfe 4","canton_nom_bdd":"Amoutivé","nom_localite":"Quartier Administratif","etablissement_nom":"Secrétariat Permanent du Conseil National de l'Enseignement Scolaire (SP/CNES)","etab_adr":"Secrétariat Permanent du Conseil National de l'Enseignement Scolaire (SP/CNES), Quartier Administratif, Amoutivé, Golfe 4, BP1393 Lomé","ouverture_jour":"{Vendredi,Jeudi,Mercredi,Mardi,lundi}","ministere_tutelle":"MEPSTA"}},{"type":"Feature","id":"_mview_admi_etablissements_administration.fid--1b6ae3e2_1a0db278384_-3865","geometry":{"type":"Point","coordinates":[1.16845532,6.95608645]},"geometry_name":"geometry","properties":{"region_nom_bdd":"Plateaux","prefecture_nom_bdd":"Haho","commune_nom_bdd":"Haho 1","canton_nom_bdd":"Notsé","nom_localite":"Notsé","etablissement_nom":"Inspection de l'Enseignement Secondaire Général (IESG) - Notsè","etab_adr":"Inspection de l'Enseignement Secondaire Général (IESG) - Notsè, Notsé, Notsé, Haho 1, BP63","ouverture_jour":"{Vendredi,Jeudi,Mercredi,Mardi,lundi}","ministere_tutelle":"MEPSTA"}},{"type":"Feature","id":"_mview_admi_etablissements_administration.fid--1b6ae3e2_1a0db278384_-3864","geometry":{"type":"Point","coordinates":[1.13399175,8.97957589]},"geometry_name":"geometry","properties":{"region_nom_bdd":"Centrale","prefecture_nom_bdd":"Tchaoudjo","commune_nom_bdd":"Tchaoudjo 1","canton_nom_bdd":"Sokodè (Komah)","nom_localite":"Komah","etablissement_nom":"Inspection de l'Enseignement Secondaire Général (IESG) - Sokodé","etab_adr":"Inspection de l'Enseignement Secondaire Général (IESG) - Sokodé, Komah, Sokodè (Komah), Tchaoudjo 1, 300BP194","ouverture_jour":"{lundi,Mardi,Mercredi,Jeudi,Vendredi,Samedi}","ministere_tutelle":"MEPSTA"}},{"type":"Feature","id":"_mview_admi_etablissements_administration.fid--1b6ae3e2_1a0db278384_-3863","geometry":{"type":"Point","coordinates":[0.78583167,9.25642]},"geometry_name":"geometry","properties":{"region_nom_bdd":"Kara","prefecture_nom_bdd":"Bassar","commune_nom_bdd":"Bassar 1","canton_nom_bdd":"Bassar","nom_localite":"Oukore","etablissement_nom":"Inspection des Enseignements Préscolaire et Primaire (IEPP) - Bassar Sud","etab_adr":"Inspection des Enseignements Préscolaire et Primaire (IEPP) - Bassar Sud, Oukore, Bassar, Bassar 1, BP74","ouverture_jour":"{lundi,Mardi,Mercredi,Jeudi,Vendredi}","ministere_tutelle":"MEPSTA"}},{"type":"Feature","id":"_mview_admi_etablissements_administration.fid--1b6ae3e2_1a0db278384_-3862","geometry":{"type":"Point","coordinates":[1.32397623,6.16779766]},"geometry_name":"geometry","properties":{"region_nom_bdd":"Maritime","prefecture_nom_bdd":"Golfe","commune_nom_bdd":"Golfe 6","canton_nom_bdd":"Baguida","nom_localite":"Baguida","etablissement_nom":"Inspection des Enseignements Préscolaire et Primaire (IEPP) - Lomé Est","etab_adr":"Inspection des Enseignements Préscolaire et Primaire (IEPP) - Lomé Est, Baguida, Baguida, Golfe 6","ouverture_jour":"{lundi,Mardi,Mercredi,Jeudi,Vendredi}","ministere_tutelle":"MEPSTA"}},{"type":"Feature","id":"_mview_admi_etablissements_administration.fid--1b6ae3e2_1a0db278384_-3861","geometry":{"type":"Point","coordinates":[0.20314979,10.8587209]},"geometry_name":"geometry","properties":{"region_nom_bdd":"Savanes","prefecture_nom_bdd":"Tône","commune_nom_bdd":"Tône 1","canton_nom_bdd":"Dapaong","nom_localite":"Dapaong","etablissement_nom":"Direction Régionale de l'Education (DRE-S) - Région Savanes","etab_adr":"Direction Régionale de l'Education (DRE-S) - Région Savanes, Dapaong, Dapaong, Tône 1, BP180","ouverture_jour":"{lundi,Mardi,Mercredi,Jeudi,Vendredi}","ministere_tutelle":"MEPSTA"}},{"type":"Feature","id":"_mview_admi_etablissements_administration.fid--1b6ae3e2_1a0db278384_-3860","geometry":{"type":"Point","coordinates":[1.14233272,9.64350231]},"geometry_name":"geometry","properties":{"region_nom_bdd":"Kara","prefecture_nom_bdd":"Kozah","commune_nom_bdd":"Kozah 2","canton_nom_bdd":"Pya","nom_localite":"Pya-laou","etablissement_nom":"Inspection des Enseignements Préscolaire et Primaire (IEPP) - Kozah Nord","etab_adr":"Inspection des Enseignements Préscolaire et Primaire (IEPP) - Kozah Nord, Pya-Laou, Pya, Kozah 2, BP36 Pya","ouverture_jour":"{lundi,Mardi,Mercredi,Jeudi,Vendredi}","ministere_tutelle":"MEPSTA"}},{"type":"Feature","id":"_mview_admi_etablissements_administration.fid--1b6ae3e2_1a0db278384_-385f","geometry":{"type":"Point","coordinates":[1.13505557,8.9795064]},"geometry_name":"geometry","properties":{"region_nom_bdd":"Centrale","prefecture_nom_bdd":"Tchaoudjo","commune_nom_bdd":"Tchaoudjo 1","canton_nom_bdd":"Sokodè (Komah)","nom_localite":"Quartier Administratif","etablissement_nom":"Inspection des Enseignements Préscolaire et Primaire (IEPP) - Tchaoudjo Sud","etab_adr":"Inspection des Enseignements Préscolaire et Primaire (IEPP) - Tchaoudjo Sud, Quartier Administratif, Sokodè (Komah), Tchaoudjo 1, BP125 Sokode","ouverture_jour":"{lundi,Mardi,Mercredi,Jeudi,Vendredi}","ministere_tutelle":"MEPSTA"}},{"type":"Feature","id":"_mview_admi_etablissements_administration.fid--1b6ae3e2_1a0db278384_-385e","geometry":{"type":"Point","coordinates":[0.69125756,7.19586867]},"geometry_name":"geometry","properties":{"region_nom_bdd":"Plateaux","prefecture_nom_bdd":"Danyi","commune_nom_bdd":"Danyi 1","canton_nom_bdd":"Danyi-Atigba","nom_localite":"Danyi Apeyeme","etablissement_nom":"Inspection des Enseignements Préscolaire et Primaire (IEPP) - Danyi","etab_adr":"Inspection des Enseignements Préscolaire et Primaire (IEPP) - Danyi, Danyi Apeyeme, Danyi-Atigba, Danyi 1, BP05 Danyi","ouverture_jour":"{lundi,Mardi,Mercredi,Jeudi,Vendredi}","ministere_tutelle":"MEPSTA"}},{"type":"Feature","id":"_mview_admi_etablissements_administration.fid--1b6ae3e2_1a0db278384_-385d","geometry":{"type":"Point","coordinates":[0.20308387,10.85096407]},"geometry_name":"geometry","properties":{"region_nom_bdd":"Savanes","prefecture_nom_bdd":"Tône","commune_nom_bdd":"Tône 1","canton_nom_bdd":"Dapaong","nom_localite":"Worgou","etablissement_nom":"Inspection des Enseignements Préscolaire et Primaire (IEPP) - Tone Est","etab_adr":"Inspection des Enseignements Préscolaire et Primaire (IEPP) - Tone Est, Worgou, Dapaong, Tône 1, BP180 Dre","ouverture_jour":"{Vendredi,Jeudi,Mercredi,Mardi,lundi}","ministere_tutelle":"MEPSTA"}},{"type":"Feature","id":"_mview_admi_etablissements_administration.fid--1b6ae3e2_1a0db278384_-385c","geometry":{"type":"Point","coordinates":[1.22200253,6.13129451]},"geometry_name":"geometry","properties":{"region_nom_bdd":"Maritime","prefecture_nom_bdd":"Golfe","commune_nom_bdd":"Golfe 4","canton_nom_bdd":"Amoutivé","nom_localite":"Freau Jardin","etablissement_nom":"Inspection des Enseignements Préscolaire et Primaire (IEPP) - Lomé Centre","etab_adr":"Inspection des Enseignements Préscolaire et Primaire (IEPP) - Lomé Centre, DRE, Freau Jardin, Amoutivé, Golfe 4, BP2109 Lomé","ouverture_jour":"{lundi,Mardi,Mercredi,Jeudi,Vendredi}","ministere_tutelle":"MEPSTA"}},{"type":"Feature","id":"_mview_admi_etablissements_administration.fid--1b6ae3e2_1a0db278384_-385b","geometry":{"type":"Point","coordinates":[1.41461667,9.03863833]},"geometry_name":"geometry","properties":{"region_nom_bdd":"Centrale","prefecture_nom_bdd":"Tchamba","commune_nom_bdd":"Tchamba 1","canton_nom_bdd":"Larini","nom_localite":"Tilata","etablissement_nom":"Inspection des Enseignements Préscolaire et Primaire (IEPP) - Tchamba Ouest","etab_adr":"Inspection des Enseignements Préscolaire et Primaire (IEPP) - Tchamba Ouest, Tilata, Larini, Tchamba 1, BP34","ouverture_jour":"{lundi,Mardi,Mercredi,Jeudi,Vendredi}","ministere_tutelle":"MEPSTA"}},{"type":"Feature","id":"_mview_admi_etablissements_administration.fid--1b6ae3e2_1a0db278384_-385a","geometry":{"type":"Point","coordinates":[1.62037245,7.01969518]},"geometry_name":"geometry","properties":{"region_nom_bdd":"Plateaux","prefecture_nom_bdd":"Moyen-Mono","commune_nom_bdd":"Moyen-Mono 1","canton_nom_bdd":"Tohoun","nom_localite":"Tohoun","etablissement_nom":"Inspection des Enseignements Préscolaire et Primaire (IEPP) - Moyen-Mono","etab_adr":"Inspection des Enseignements Préscolaire et Primaire (IEPP) - Moyen-Mono, Tohoun, Tohoun, Moyen-Mono 1","ouverture_jour":"{lundi,Mardi,Mercredi,Jeudi,Vendredi}","ministere_tutelle":"MEPSTA"}},{"type":"Feature","id":"_mview_admi_etablissements_administration.fid--1b6ae3e2_1a0db278384_-3859","geometry":{"type":"Point","coordinates":[1.23792786,6.15743786]},"geometry_name":"geometry","properties":{"region_nom_bdd":"Maritime","prefecture_nom_bdd":"Golfe","commune_nom_bdd":"Golfe 2","canton_nom_bdd":"Bè-Centre","nom_localite":"Anoukafou","etablissement_nom":"Inspection des Enseignements Préscolaire et Primaire (IEPP) - Lomé Aéroport","etab_adr":"Inspection des Enseignements Préscolaire et Primaire (IEPP) - Lomé Aéroport, Anoukafou, Bè-Centre, Golfe 2, BP2309 Lomé","ouverture_jour":"{lundi,Mardi,Mercredi,Jeudi,Vendredi}","ministere_tutelle":"MEPSTA"}},{"type":"Feature","id":"_mview_admi_etablissements_administration.fid--1b6ae3e2_1a0db278384_-3858","geometry":{"type":"Point","coordinates":[0.80904281,9.45987407]},"geometry_name":"geometry","properties":{"region_nom_bdd":"Kara","prefecture_nom_bdd":"Bassar","commune_nom_bdd":"Bassar 3","canton_nom_bdd":"Kabou","nom_localite":"Kabou","etablissement_nom":"Inspection des Enseignements Préscolaire et Primaire (IEPP) - Bassar Nord","etab_adr":"Inspection des Enseignements Préscolaire et Primaire (IEPP) - Bassar Nord, Kabou, Kabou, Bassar 3","ouverture_jour":"{lundi,Mardi,Mercredi,Jeudi,Vendredi}","ministere_tutelle":"MEPSTA"}},{"type":"Feature","id":"_mview_admi_etablissements_administration.fid--1b6ae3e2_1a0db278384_-3857","geometry":{"type":"Point","coordinates":[1.17803486,7.17676133]},"geometry_name":"geometry","properties":{"region_nom_bdd":"Plateaux","prefecture_nom_bdd":"Haho","commune_nom_bdd":"Haho 4","canton_nom_bdd":"Wahala","nom_localite":"Wahala","etablissement_nom":"Inspection des Enseignements Préscolaire et Primaire (IEPP) - Haho Nord","etab_adr":"Inspection des Enseignements Préscolaire et Primaire (IEPP) - Haho Nord, Wahala, Wahala, Haho 4, BP77 Atakpame","ouverture_jour":"{lundi,Mardi,Mercredi,Jeudi,Vendredi}","ministere_tutelle":"MEPSTA"}},{"type":"Feature","id":"_mview_admi_etablissements_administration.fid--1b6ae3e2_1a0db278384_-3856","geometry":{"type":"Point","coordinates":[0.61223809,9.67332206]},"geometry_name":"geometry","properties":{"region_nom_bdd":"Kara","prefecture_nom_bdd":"Dankpen","commune_nom_bdd":"Dankpen 1","canton_nom_bdd":"Guérin-Kouka","nom_localite":"Guerin-kouka","etablissement_nom":"Inspection des Enseignements Préscolaire et Primaire (IEPP) - Dankpen","etab_adr":"Inspection des Enseignements Préscolaire et Primaire (IEPP) - Dankpen, Guerin-Kouka, Guérin-Kouka, Dankpen 1, BP63","ouverture_jour":"{lundi,Mardi,Mercredi,Jeudi,Vendredi}","ministere_tutelle":"MEPSTA"}},{"type":"Feature","id":"_mview_admi_etablissements_administration.fid--1b6ae3e2_1a0db278384_-3855","geometry":{"type":"Point","coordinates":[0.47038311,10.35956843]},"geometry_name":"geometry","properties":{"region_nom_bdd":"Savanes","prefecture_nom_bdd":"Oti","commune_nom_bdd":"Oti 1","canton_nom_bdd":"Mango","nom_localite":"Quartier Administratif","etablissement_nom":"Inspection des Enseignements Préscolaire et Primaire (IEPP) - Oti Nord","etab_adr":"Inspection des Enseignements Préscolaire et Primaire (IEPP) - Oti Nord, Quartier Administratif, Mango, Oti 1, BP37 Mango","ouverture_jour":"{lundi,Mardi,Mercredi,Jeudi,Vendredi}","ministere_tutelle":"MEPSTA"}},{"type":"Feature","id":"_mview_admi_etablissements_administration.fid--1b6ae3e2_1a0db278384_-3854","geometry":{"type":"Point","coordinates":[1.5679041,6.4747078]},"geometry_name":"geometry","properties":{"region_nom_bdd":"Maritime","prefecture_nom_bdd":"Vo","commune_nom_bdd":"Vo 3","canton_nom_bdd":"Dzrékpo","nom_localite":"Dzrekpo Centre","etablissement_nom":"Inspection des Enseignements Préscolaire et Primaire (IEPP) - Vo Nord","etab_adr":"Inspection des Enseignements Préscolaire et Primaire (IEPP) - Vo Nord, Dzrekpo Centre, Dzrékpo, Vo 3, BP10 Vogan","ouverture_jour":"{lundi,Mardi,Mercredi,Jeudi,Vendredi}","ministere_tutelle":"MEPSTA"}},{"type":"Feature","id":"_mview_admi_etablissements_administration.fid--1b6ae3e2_1a0db278384_-3853","geometry":{"type":"Point","coordinates":[0.20042054,10.66600338]},"geometry_name":"geometry","properties":{"region_nom_bdd":"Savanes","prefecture_nom_bdd":"Tandjoaré","commune_nom_bdd":"Tandjoaré 1","canton_nom_bdd":"Bogou","nom_localite":"Nandodani","etablissement_nom":"Inspection des Enseignements Préscolaire et Primaire (IEPP) - Tandjouare","etab_adr":"Inspection des Enseignements Préscolaire et Primaire (IEPP) - Tandjouare, Nandodani, Bogou, Tandjoaré 1, BP14 Bombouaka","ouverture_jour":"{lundi,Mardi,Mercredi,Jeudi,Vendredi}","ministere_tutelle":"MEPSTA"}},{"type":"Feature","id":"_mview_admi_etablissements_administration.fid--1b6ae3e2_1a0db278384_-3852","geometry":{"type":"Point","coordinates":[1.21612933,6.13158608]},"geometry_name":"geometry","properties":{"region_nom_bdd":"Maritime","prefecture_nom_bdd":"Golfe","commune_nom_bdd":"Golfe 4","canton_nom_bdd":"Amoutivé","nom_localite":"Nyakonakpoe","etablissement_nom":"Inspection des Enseignements Préscolaire et Primaire (IEPP) - Lomé Ouest","etab_adr":"Inspection des Enseignements Préscolaire et Primaire (IEPP) - Lomé Ouest, Nyakonakpoe, Amoutivé, Golfe 4","ouverture_jour":"{lundi,Mardi,Mercredi,Jeudi,Vendredi}","ministere_tutelle":"MEPSTA"}},{"type":"Feature","id":"_mview_admi_etablissements_administration.fid--1b6ae3e2_1a0db278384_-3851","geometry":{"type":"Point","coordinates":[1.10369729,7.54234622]},"geometry_name":"geometry","properties":{"region_nom_bdd":"Plateaux","prefecture_nom_bdd":"Amou","commune_nom_bdd":"Amou 3","canton_nom_bdd":"Hihéatro","nom_localite":"Hiheatro","etablissement_nom":"Inspection des Enseignements Préscolaire et Primaire (IEPP) - Amou Nord","etab_adr":"Inspection des Enseignements Préscolaire et Primaire (IEPP) - Amou Nord, Hiheatro, Hihéatro, Amou 3","ouverture_jour":"{lundi,Mardi,Mercredi,Jeudi,Vendredi}","ministere_tutelle":"MEPSTA"}},{"type":"Feature","id":"_mview_admi_etablissements_administration.fid--1b6ae3e2_1a0db278384_-3850","geometry":{"type":"Point","coordinates":[1.21192333,6.43366667]},"geometry_name":"geometry","properties":{"region_nom_bdd":"Maritime","prefecture_nom_bdd":"Zio","commune_nom_bdd":"Zio 1","canton_nom_bdd":"Tsévié","nom_localite":"Agbalipe","etablissement_nom":"Inspection de l'Enseignement Secondaire Général (IESG) - Tsévié","etab_adr":"Inspection de l'Enseignement Secondaire Général (IESG) - Tsévié, Agbalipe, Tsévié, Zio 1, BP42","ouverture_jour":"{lundi,Mardi,Mercredi,Jeudi,Vendredi}","ministere_tutelle":"MEPSTA"}},{"type":"Feature","id":"_mview_admi_etablissements_administration.fid--1b6ae3e2_1a0db278384_-384f","geometry":{"type":"Point","coordinates":[1.21380171,6.19384357]},"geometry_name":"geometry","properties":{"region_nom_bdd":"Maritime","prefecture_nom_bdd":"Golfe","commune_nom_bdd":"Golfe 3","canton_nom_bdd":"Bè-Ouest","nom_localite":"Be-ouest","etablissement_nom":"Secrétariat Technique Permanent du Plan Sectoriel de l'Éducation (STPPSE)","etab_adr":"Secrétariat Technique Permanent du Plan Sectoriel de l'Éducation (STPPSE), Be-Ouest, Bè-Ouest, Golfe 3","ouverture_jour":"Nsp","ministere_tutelle":"MEPSTA"}},{"type":"Feature","id":"_mview_admi_etablissements_administration.fid--1b6ae3e2_1a0db278384_-384e","geometry":{"type":"Point","coordinates":[1.19415397,7.76959776]},"geometry_name":"geometry","properties":{"region_nom_bdd":"Plateaux","prefecture_nom_bdd":"Anié","commune_nom_bdd":"Anié 1","canton_nom_bdd":"Anié","nom_localite":"Anie","etablissement_nom":"Inspection des Enseignements Préscolaire et Primaire (IEPP) - Anié","etab_adr":"Inspection des Enseignements Préscolaire et Primaire (IEPP) - Anié, Anie, Anié, Anié 1, BP11 Anie","ouverture_jour":"{lundi,Mardi,Mercredi,Jeudi,Vendredi}","ministere_tutelle":"MEPSTA"}},{"type":"Feature","id":"_mview_admi_etablissements_administration.fid--1b6ae3e2_1a0db278384_-384d","geometry":{"type":"Point","coordinates":[0.81627375,10.84507171]},"geometry_name":"geometry","properties":{"region_nom_bdd":"Savanes","prefecture_nom_bdd":"Kpendjal","commune_nom_bdd":"Kpendjal 1","canton_nom_bdd":"Mandouri","nom_localite":"Koula","etablissement_nom":"Inspection des Enseignements Préscolaire et Primaire (IEPP) - Kpendjal","etab_adr":"Inspection des Enseignements Préscolaire et Primaire (IEPP) - Kpendjal, Koula, Mandouri, Kpendjal 1","ouverture_jour":"{lundi,Mercredi,Jeudi,Mardi,Vendredi}","ministere_tutelle":"MEPSTA"}},{"type":"Feature","id":"_mview_admi_etablissements_administration.fid--1b6ae3e2_1a0db278384_-384c","geometry":{"type":"Point","coordinates":[0.98558211,8.33068845]},"geometry_name":"geometry","properties":{"region_nom_bdd":"Centrale","prefecture_nom_bdd":"Blitta","commune_nom_bdd":"Blitta 1","canton_nom_bdd":"Blitta","nom_localite":"Blitta Gare","etablissement_nom":"Inspection des Enseignements Préscolaire et Primaire (IEPP) - Blitta Est","etab_adr":"Inspection des Enseignements Préscolaire et Primaire (IEPP) - Blitta Est, Blitta Gare, Blitta, Blitta 1, BP27 Blitta","ouverture_jour":"{Vendredi,Jeudi,Mercredi,Mardi,lundi}","ministere_tutelle":"MEPSTA"}},{"type":"Feature","id":"_mview_admi_etablissements_administration.fid--1b6ae3e2_1a0db278384_-384b","geometry":{"type":"Point","coordinates":[0.60969449,7.59618916]},"geometry_name":"geometry","properties":{"region_nom_bdd":"Plateaux","prefecture_nom_bdd":"Wawa","commune_nom_bdd":"Wawa 1","canton_nom_bdd":"Badou","nom_localite":"Kessibo","etablissement_nom":"Inspection de l'Enseignement Secondaire Général (IESG) - Badou","etab_adr":"Inspection de l'Enseignement Secondaire Général (IESG) - Badou, Kessibo, Badou, Wawa 1","ouverture_jour":"{lundi,Mardi,Mercredi,Jeudi,Vendredi}","ministere_tutelle":"MEPSTA"}},{"type":"Feature","id":"_mview_admi_etablissements_administration.fid--1b6ae3e2_1a0db278384_-384a","geometry":{"type":"Point","coordinates":[0.60958833,7.59550333]},"geometry_name":"geometry","properties":{"region_nom_bdd":"Plateaux","prefecture_nom_bdd":"Wawa","commune_nom_bdd":"Wawa 1","canton_nom_bdd":"Badou","nom_localite":"Kessibo","etablissement_nom":"Inspection des Enseignements Préscolaire et Primaire (IEPP) - Wawa Ouest","etab_adr":"Inspection des Enseignements Préscolaire et Primaire (IEPP) - Wawa Ouest, Kessibo, Badou, Wawa 1","ouverture_jour":"{lundi,Mardi,Jeudi,Mercredi,Vendredi}","ministere_tutelle":"MEPSTA"}},{"type":"Feature","id":"_mview_admi_etablissements_administration.fid--1b6ae3e2_1a0db278384_-3849","geometry":{"type":"Point","coordinates":[1.22469297,6.15199063]},"geometry_name":"geometry","properties":{"region_nom_bdd":"Maritime","prefecture_nom_bdd":"Golfe","commune_nom_bdd":"Golfe 3","canton_nom_bdd":"Bè-Ouest","nom_localite":"Doumassesse","etablissement_nom":"Office du Baccalauréat (OB)","etab_adr":"Office du Baccalauréat (OB), Doumassesse, Bè-Ouest, Golfe 3","ouverture_jour":"{lundi,Mardi,Mercredi,Jeudi,Vendredi}","ministere_tutelle":"MEPSTA, MESR"}},{"type":"Feature","id":"_mview_admi_etablissements_administration.fid--1b6ae3e2_1a0db278384_-3848","geometry":{"type":"Point","coordinates":[0.784385,9.25651167]},"geometry_name":"geometry","properties":{"region_nom_bdd":"Kara","prefecture_nom_bdd":"Bassar","commune_nom_bdd":"Bassar 1","canton_nom_bdd":"Bassar","nom_localite":"Oukore","etablissement_nom":"Inspection de l'Enseignement Secondaire Général (IESG) - Bassar","etab_adr":"Inspection de l'Enseignement Secondaire Général (IESG) - Bassar, Oukore, Bassar, Bassar 1, BP07","ouverture_jour":"{lundi,Mardi,Mercredi,Jeudi,Vendredi}","ministere_tutelle":"MEPSTA"}},{"type":"Feature","id":"_mview_admi_etablissements_administration.fid--1b6ae3e2_1a0db278384_-3847","geometry":{"type":"Point","coordinates":[1.2138366,6.1942024]},"geometry_name":"geometry","properties":{"region_nom_bdd":"Maritime","prefecture_nom_bdd":"Golfe","commune_nom_bdd":"Golfe 3","canton_nom_bdd":"Bè-Ouest","nom_localite":"Nouvelle Présidence","etablissement_nom":"Cabinet du Ministère de l'Enseignement Primaire, Secondaire, Technique et Artisanal (MEPSTA)","etab_adr":"Cabinet du Ministère de l'Enseignement Primaire, Secondaire, Technique et Artisanal (MEPSTA), Nouvelle Présidence, Bè-Ouest, Golfe 3","ouverture_jour":"{lundi,Mardi,Mercredi,Jeudi,Vendredi}","ministere_tutelle":"MEPSTA"}},{"type":"Feature","id":"_mview_admi_etablissements_administration.fid--1b6ae3e2_1a0db278384_-3846","geometry":{"type":"Point","coordinates":[1.21769204,6.12668163]},"geometry_name":"geometry","properties":{"region_nom_bdd":"Maritime","prefecture_nom_bdd":"Golfe","commune_nom_bdd":"Golfe 4","canton_nom_bdd":"Amoutivé","nom_localite":"Quartier Administratif","etablissement_nom":"Ministère de l'Enseignement Primaire Secondaire Technique et de l'Artisanat (MEPSTA)","etab_adr":"Ministère de l'Enseignement Primaire Secondaire Technique et de l'Artisanat (MEPSTA), Quartier Administratif, Amoutivé, Golfe 4","ouverture_jour":"Nsp","ministere_tutelle":"MEPSTA"}},{"type":"Feature","id":"_mview_admi_etablissements_administration.fid--1b6ae3e2_1a0db278384_-3845","geometry":{"type":"Point","coordinates":[1.19012714,9.54980332]},"geometry_name":"geometry","properties":{"region_nom_bdd":"Kara","prefecture_nom_bdd":"Kozah","commune_nom_bdd":"Kozah 1","canton_nom_bdd":"Commune De Kara","nom_localite":"Kozah","etablissement_nom":"Inspection des Enseignements Préscolaire et Primaire (IEPP) - Kozah Centre","etab_adr":"BP653 Kara","ouverture_jour":"{Jeudi,Mardi,Mercredi,Vendredi,lundi}","ministere_tutelle":"MEPSTA"}},{"type":"Feature","id":"_mview_admi_etablissements_administration.fid--1b6ae3e2_1a0db278384_-3844","geometry":{"type":"Point","coordinates":[1.11801572,9.76296481]},"geometry_name":"geometry","properties":{"region_nom_bdd":"Kara","prefecture_nom_bdd":"Doufelgou","commune_nom_bdd":"Doufelgou 1","canton_nom_bdd":"Niamtougou","nom_localite":"Niamtougou","etablissement_nom":"Inspection de l'Enseignement Secondaire Général (IESG) - Niamtougou","etab_adr":"Nsp","ouverture_jour":"Nsp","ministere_tutelle":"MEPSTA"}},{"type":"Feature","id":"_mview_admi_etablissements_administration.fid--1b6ae3e2_1a0db278384_-3843","geometry":{"type":"Point","coordinates":[1.20716733,6.43411267]},"geometry_name":"geometry","properties":{"region_nom_bdd":"Maritime","prefecture_nom_bdd":"Zio","commune_nom_bdd":"Zio 1","canton_nom_bdd":"Tsévié","nom_localite":"Tsevie","etablissement_nom":"Inspection des Enseignements Préscolaire et Primaire (IEPP) - Zio Centre","etab_adr":"SC BP 39","ouverture_jour":"{Jeudi,Mardi,Mercredi,Vendredi,lundi}","ministere_tutelle":"MEPSTA"}},{"type":"Feature","id":"_mview_admi_etablissements_administration.fid--1b6ae3e2_1a0db278384_-3842","geometry":{"type":"Point","coordinates":[1.59469166,8.74746066]},"geometry_name":"geometry","properties":{"region_nom_bdd":"Centrale","prefecture_nom_bdd":"Tchamba","commune_nom_bdd":"Tchamba 3","canton_nom_bdd":"Kaboli","nom_localite":"Kaboli","etablissement_nom":"Inspection des Enseignements Préscolaire et Primaire (IEPP)-Tchamba Est","etab_adr":"Néant","ouverture_jour":"{Jeudi,Mardi,Mercredi,Vendredi,lundi}","ministere_tutelle":"MEPSTA"}}],"totalFeatures":101,"numberMatched":101,"numberReturned":101,"timeStamp":"2026-09-26T00:40:34.585Z","crs":{"type":"name","properties":{"name":"urn:ogc:def:crs:EPSG::4326"}}}