{"type":"FeatureCollection","features":[{"type":"Feature","id":"_mview_admi_etablissements_administration.fid--1b6ae3e2_1a0db278384_-38b0","geometry":{"type":"Point","coordinates":[1.22947625,6.14672385]},"geometry_name":"geometry","properties":{"region_nom_bdd":"Maritime","prefecture_nom_bdd":"Golfe","commune_nom_bdd":"Golfe 3","canton_nom_bdd":"Bè-Ouest","nom_localite":"Tokoin Elavagnon Lycee","etablissement_nom":"Société Teolis - Direction Générale","etab_adr":"Société Teolis - Direction Générale, Tokoin Elavagnon Lycee, Bè-Ouest, Golfe 3","ouverture_jour":"{lundi,Mardi,Mercredi,Jeudi,Vendredi}","ministere_tutelle":"MENTD"}},{"type":"Feature","id":"_mview_admi_etablissements_administration.fid--1b6ae3e2_1a0db278384_-38af","geometry":{"type":"Point","coordinates":[1.2020106,6.2038982]},"geometry_name":"geometry","properties":{"region_nom_bdd":"Maritime","prefecture_nom_bdd":"Agoè-Nyivé","commune_nom_bdd":"Agoè-Nyivé 1","canton_nom_bdd":"Agoè-Nyivé","nom_localite":"Cacaveli","etablissement_nom":"Direction Technique Togocom","etab_adr":"Direction Technique Togocom, Cacaveli","ouverture_jour":"{Lundi,Mardi,Mercredi,jeudi,Vendredi}","ministere_tutelle":"MENTD"}},{"type":"Feature","id":"_mview_admi_etablissements_administration.fid--1b6ae3e2_1a0db278384_-38ae","geometry":{"type":"Point","coordinates":[1.21204937,6.12835201]},"geometry_name":"geometry","properties":{"region_nom_bdd":"Maritime","prefecture_nom_bdd":"Golfe","commune_nom_bdd":"Golfe 4","canton_nom_bdd":"Amoutivé","nom_localite":"Quartier Administratif","etablissement_nom":"Ministere de l'Economie Numérique et de la Transformation Digitale (MENTD)","etab_adr":"Ministere de l'Economie Numérique et de la Transformation Digitale (MENTD), Quartier Administratif, Amoutivé, Golfe 4","ouverture_jour":"{lundi,Mardi,Mercredi,Jeudi,Vendredi}","ministere_tutelle":"MENTD"}},{"type":"Feature","id":"_mview_admi_etablissements_administration.fid--1b6ae3e2_1a0db278384_-38ad","geometry":{"type":"Point","coordinates":[1.19609667,6.17036167]},"geometry_name":"geometry","properties":{"region_nom_bdd":"Maritime","prefecture_nom_bdd":"Golfe","commune_nom_bdd":"Golfe 5","canton_nom_bdd":"Aflao-Gakli","nom_localite":"Adinamoto","etablissement_nom":"Division Device And Accessory Togocom","etab_adr":"Division Device And Accessory Togocom, Adinamoto","ouverture_jour":"{Lundi,Mardi,Mercredi,jeudi,Vendredi}","ministere_tutelle":"MENTD"}},{"type":"Feature","id":"_mview_admi_etablissements_administration.fid--1b6ae3e2_1a0db278384_-38ac","geometry":{"type":"Point","coordinates":[1.2126393,6.18768334]},"geometry_name":"geometry","properties":{"region_nom_bdd":"Maritime","prefecture_nom_bdd":"Golfe","commune_nom_bdd":"Golfe 3","canton_nom_bdd":"Bè-Ouest","nom_localite":"Cite Oua","etablissement_nom":"Autorité de Régulation des Communications Électroniques et des Postes (ARCEP)","etab_adr":"Autorité de Régulation des Communications Électroniques et des Postes (ARCEP), Cite Oua, Bè-Ouest, Golfe 3, BP358 Lome","ouverture_jour":"{lundi,Mardi,Mercredi,Jeudi,Vendredi}","ministere_tutelle":"MENTD"}},{"type":"Feature","id":"_mview_admi_etablissements_administration.fid--1b6ae3e2_1a0db278384_-38ab","geometry":{"type":"Point","coordinates":[1.21181129,6.1288975]},"geometry_name":"geometry","properties":{"region_nom_bdd":"Maritime","prefecture_nom_bdd":"Golfe","commune_nom_bdd":"Golfe 4","canton_nom_bdd":"Amoutivé","nom_localite":"Nyekonakpoe","etablissement_nom":"Société des Postes du Togo (SPT) - Direction Générale","etab_adr":"Société des Postes du Togo (SPT) - Direction Générale, Nyekonakpoe, Amoutivé, Golfe 4","ouverture_jour":"{lundi,Mardi,Mercredi,Jeudi,Vendredi}","ministere_tutelle":"MENTD"}},{"type":"Feature","id":"_mview_admi_etablissements_administration.fid--1b6ae3e2_1a0db278384_-38aa","geometry":{"type":"Point","coordinates":[1.22388591,6.13355745]},"geometry_name":"geometry","properties":{"region_nom_bdd":"Maritime","prefecture_nom_bdd":"Golfe","commune_nom_bdd":"Golfe 4","canton_nom_bdd":"Amoutivé","nom_localite":"Nyékonakpoé","etablissement_nom":"Direction générale SPT Lome","etab_adr":"Avenue Nicolas Grunitsky, www.laposte.tg","ouverture_jour":"{lundi,Mardi,Mercredi,Jeudi,Vendredi}","ministere_tutelle":"MENTD"}},{"type":"Feature","id":"_mview_admi_etablissements_administration.fid--1b6ae3e2_1a0db278384_-38a9","geometry":{"type":"Point","coordinates":[1.17544565,6.21243525]},"geometry_name":"geometry","properties":{"region_nom_bdd":"Maritime","prefecture_nom_bdd":"Agoè-Nyivé","commune_nom_bdd":"Agoè-Nyivé 3","canton_nom_bdd":"Vakpossito","nom_localite":"Anome Leo 2000","etablissement_nom":"Direction Technique Moov","etab_adr":"Direction Technique Moov, Anome Leo 2000","ouverture_jour":"{Lundi,Mardi,Mercredi,jeudi,Vendredi,Samedi,Dimanche}","ministere_tutelle":"MENTD"}},{"type":"Feature","id":"_mview_admi_etablissements_administration.fid--1b6ae3e2_1a0db278384_-38a8","geometry":{"type":"Point","coordinates":[1.2109921,6.19385687]},"geometry_name":"geometry","properties":{"region_nom_bdd":"Maritime","prefecture_nom_bdd":"Golfe","commune_nom_bdd":"Golfe 3","canton_nom_bdd":"Bè-Ouest","nom_localite":"Agbalepedo","etablissement_nom":"Direction Générale Togocom","etab_adr":"Direction Générale Togocom, Agbalepedo","ouverture_jour":"{Lundi,Mardi,Mercredi,jeudi,Vendredi}","ministere_tutelle":"MENTD"}},{"type":"Feature","id":"_mview_admi_etablissements_administration.fid--1b6ae3e2_1a0db278384_-38a7","geometry":{"type":"Point","coordinates":[1.24075778,6.15222262]},"geometry_name":"geometry","properties":{"region_nom_bdd":"Maritime","prefecture_nom_bdd":"Golfe","commune_nom_bdd":"Golfe 1","canton_nom_bdd":"Bè-Est","nom_localite":"Be","etablissement_nom":"Direction Générale Moov Togo","etab_adr":"Direction Générale Moov Togo, Be","ouverture_jour":"{Lundi,Mardi,Mercredi,jeudi,Vendredi,Samedi}","ministere_tutelle":"MENTD"}}],"totalFeatures":10,"numberMatched":10,"numberReturned":10,"timeStamp":"2026-09-26T00:40:33.453Z","crs":{"type":"name","properties":{"name":"urn:ogc:def:crs:EPSG::4326"}}}