{"type":"FeatureCollection","features":[{"type":"Feature","id":"_mview_admi_etablissements_administration.fid--1b6ae3e2_1a0db278384_-394b","geometry":{"type":"Point","coordinates":[1.39655536,6.35718171]},"geometry_name":"geometry","properties":{"region_nom_bdd":"Maritime","prefecture_nom_bdd":"Vo","commune_nom_bdd":"Vo 4","canton_nom_bdd":"Hahotoé","nom_localite":"Hahotoe","etablissement_nom":"Société Nouvelle des Phosphates du Togo (SNPT)","etab_adr":"Société Nouvelle des Phosphates du Togo (SNPT), Hahotoe, Hahotoé, Vo 4","ouverture_jour":"{lundi,Mardi,Mercredi,Jeudi,Vendredi}","ministere_tutelle":"MDEM"}},{"type":"Feature","id":"_mview_admi_etablissements_administration.fid--1b6ae3e2_1a0db278384_-394a","geometry":{"type":"Point","coordinates":[1.1251482,7.52860595]},"geometry_name":"geometry","properties":{"region_nom_bdd":"Plateaux","prefecture_nom_bdd":"Ogou","commune_nom_bdd":"Ogou 1","canton_nom_bdd":"Gnagna","nom_localite":"Adanlegbedi","etablissement_nom":"Direction Régionale des Mines et de la Géologie (DRMG) - Régions Plateaux/Centrale","etab_adr":"Direction Régionale des Mines et de la Géologie (DRMG) - Régions Plateaux/Centrale, Adanlegbedi, Gnagna, Ogou 1","ouverture_jour":"{lundi,Mardi,Mercredi,Jeudi,Vendredi}","ministere_tutelle":"MDEM"}},{"type":"Feature","id":"_mview_admi_etablissements_administration.fid--1b6ae3e2_1a0db278384_-3949","geometry":{"type":"Point","coordinates":[1.22153764,6.15598284]},"geometry_name":"geometry","properties":{"region_nom_bdd":"Maritime","prefecture_nom_bdd":"Golfe","commune_nom_bdd":"Golfe 3","canton_nom_bdd":"Bè-Ouest","nom_localite":"Garages Central","etablissement_nom":"Agence Togolaise de l'Electrification Rurale et des Énergies Renouvelables (AT2ER)","etab_adr":"Agence Togolaise de l'Electrification Rurale et des Énergies Renouvelables (AT2ER), 503, Rue de la Binah, Garages Central, Bè-Ouest, Golfe 3","ouverture_jour":"{lundi,Mardi,Mercredi,Jeudi,Vendredi}","ministere_tutelle":"MDEM"}},{"type":"Feature","id":"_mview_admi_etablissements_administration.fid--1b6ae3e2_1a0db278384_-3948","geometry":{"type":"Point","coordinates":[1.21146872,6.12588596]},"geometry_name":"geometry","properties":{"region_nom_bdd":"Maritime","prefecture_nom_bdd":"Golfe","commune_nom_bdd":"Golfe 4","canton_nom_bdd":"Amoutivé","nom_localite":"Quartier Administratif","etablissement_nom":"Communauté Électrique du Bénin (CEB) - Direction Générale","etab_adr":"Communauté Électrique du Bénin (CEB) - Direction Générale, Quartier Administratif, Amoutivé, Golfe 4, BP1368 Lomé","ouverture_jour":"{lundi,Mardi,Mercredi,Jeudi,Vendredi}","ministere_tutelle":"MDEM"}},{"type":"Feature","id":"_mview_admi_etablissements_administration.fid--1b6ae3e2_1a0db278384_-3947","geometry":{"type":"Point","coordinates":[1.2248831,6.154943]},"geometry_name":"geometry","properties":{"region_nom_bdd":"Maritime","prefecture_nom_bdd":"Golfe","commune_nom_bdd":"Golfe 3","canton_nom_bdd":"Bè-Ouest","nom_localite":"Doumassesse","etablissement_nom":"Ministère des Mines et de l'Énergie (MDEM)","etab_adr":"Ministère des Mines et de l'Énergie (MDEM), Doumassesse, Bè-Ouest, Golfe 3, BP4227 Lomé","ouverture_jour":"{lundi,Mardi,Mercredi,Jeudi,Vendredi}","ministere_tutelle":"MDEM"}},{"type":"Feature","id":"_mview_admi_etablissements_administration.fid--1b6ae3e2_1a0db278384_-3946","geometry":{"type":"Point","coordinates":[1.23325323,6.15554709]},"geometry_name":"geometry","properties":{"region_nom_bdd":"Maritime","prefecture_nom_bdd":"Golfe","commune_nom_bdd":"Golfe 2","canton_nom_bdd":"Bè-Centre","nom_localite":"Nukafu","etablissement_nom":"Société SOMAYAF - Direction Générale","etab_adr":"Société SOMAYAF - Direction Générale, Nukafu, Bè-Centre, Golfe 2, BP3250 Lomé","ouverture_jour":"{lundi,Mardi,Mercredi,Jeudi,Vendredi,Samedi}","ministere_tutelle":"MDEM, MCICL"}},{"type":"Feature","id":"_mview_admi_etablissements_administration.fid--1b6ae3e2_1a0db278384_-3945","geometry":{"type":"Point","coordinates":[1.19229167,9.56024167]},"geometry_name":"geometry","properties":{"region_nom_bdd":"Kara","prefecture_nom_bdd":"Kozah","commune_nom_bdd":"Kozah 1","canton_nom_bdd":"Commune De Kara","nom_localite":"Nsp","etablissement_nom":"Direction Régionale des Mines et de la Géologie (DRMG) - Régions Kara/Savanes","etab_adr":"Direction Régionale des Mines et de la Géologie (DRMG) - Régions Kara/Savanes, , Commune De Kara, Kozah 1","ouverture_jour":"{Vendredi,Jeudi,Mercredi,lundi,Mardi}","ministere_tutelle":"MDEM"}},{"type":"Feature","id":"_mview_admi_etablissements_administration.fid--1b6ae3e2_1a0db278384_-3944","geometry":{"type":"Point","coordinates":[1.22010069,6.1256705]},"geometry_name":"geometry","properties":{"region_nom_bdd":"Maritime","prefecture_nom_bdd":"Golfe","commune_nom_bdd":"Golfe 4","canton_nom_bdd":"Amoutivé","nom_localite":"Quartier Administratif","etablissement_nom":"Compagnie Energie Electrique du Togo (CEET) - Direction Générale","etab_adr":"Compagnie Energie Electrique du Togo (CEET) - Direction Générale, Quartier Administratif, Amoutivé, Golfe 4","ouverture_jour":"Nsp","ministere_tutelle":"MDEM"}},{"type":"Feature","id":"_mview_admi_etablissements_administration.fid--1b6ae3e2_1a0db278384_-3943","geometry":{"type":"Point","coordinates":[1.13628592,8.99828689]},"geometry_name":"geometry","properties":{"region_nom_bdd":"Centrale","prefecture_nom_bdd":"Tchaoudjo","commune_nom_bdd":"Tchaoudjo 1","canton_nom_bdd":"Kpangalam","nom_localite":"Kpangalam","etablissement_nom":"Compagnie Energie Electrique du Togo (CEET) - Direction Région Centrale Est","etab_adr":"Compagnie Energie Electrique du Togo (CEET) - Direction Région Centrale Est, Kpangalam, Kpangalam, Tchaoudjo 1, BP42","ouverture_jour":"{lundi,Mardi,Mercredi,Jeudi,Vendredi}","ministere_tutelle":"MDEM"}},{"type":"Feature","id":"_mview_admi_etablissements_administration.fid--1b6ae3e2_1a0db278384_-3942","geometry":{"type":"Point","coordinates":[1.18952805,6.20555869]},"geometry_name":"geometry","properties":{"region_nom_bdd":"Maritime","prefecture_nom_bdd":"Golfe","commune_nom_bdd":"Golfe 5","canton_nom_bdd":"Aflao-Gakli","nom_localite":"Adidoadin","etablissement_nom":"Société SANOL - Direction Générale","etab_adr":"Société SANOL - Direction Générale, Adidoadin, Aflao-Gakli, Golfe 5, 04BP30 Lomé","ouverture_jour":"{Vendredi,Jeudi,Mercredi,Mardi,lundi}","ministere_tutelle":"MDEM, MCICL"}},{"type":"Feature","id":"_mview_admi_etablissements_administration.fid--1b6ae3e2_1a0db278384_-3941","geometry":{"type":"Point","coordinates":[1.21903075,6.130074]},"geometry_name":"geometry","properties":{"region_nom_bdd":"Maritime","prefecture_nom_bdd":"Golfe","commune_nom_bdd":"Golfe 4","canton_nom_bdd":"Amoutivé","nom_localite":"Quartier Administratif","etablissement_nom":"Comité de Suivi des Fluctuations des Prix des Produits Pétroliers (CSFPPP)","etab_adr":"Comité de Suivi des Fluctuations des Prix des Produits Pétroliers (CSFPPP), Quartier Administratif, Amoutivé, Golfe 4","ouverture_jour":"{lundi,Mardi,Mercredi,Jeudi,Vendredi}","ministere_tutelle":"MCICL, MDEM"}},{"type":"Feature","id":"_mview_admi_etablissements_administration.fid--1b6ae3e2_1a0db278384_-3940","geometry":{"type":"Point","coordinates":[1.23723861,6.1894186]},"geometry_name":"geometry","properties":{"region_nom_bdd":"Maritime","prefecture_nom_bdd":"Golfe","commune_nom_bdd":"Golfe 2","canton_nom_bdd":"Bè-Centre","nom_localite":"Hedzranaowé","etablissement_nom":"Initiative pour la Transparence dans les Industries Extractives (ITIE)","etab_adr":"Initiative pour la Transparence dans les Industries Extractives (INTIE), Hedzranaowé, Bè-Centre, Golfe 2, 08BP8288 Lomé 8","ouverture_jour":"{lundi,Mardi,Mercredi,Jeudi,Vendredi}","ministere_tutelle":"MDEM"}},{"type":"Feature","id":"_mview_admi_etablissements_administration.fid--1b6ae3e2_1a0db278384_-393f","geometry":{"type":"Point","coordinates":[1.2255873,6.13596945]},"geometry_name":"geometry","properties":{"region_nom_bdd":"Maritime","prefecture_nom_bdd":"Golfe","commune_nom_bdd":"Golfe 4","canton_nom_bdd":"Amoutivé","nom_localite":"Amoutive","etablissement_nom":"Société Nouvelle des Phosphates du Togo (SNPT) - Direction Générale","etab_adr":"Société Nouvelle des Phosphates du Togo (SNPT) - Direction Générale, Dans les locaux de la BTCI, Amoutive, Amoutivé, Golfe 4","ouverture_jour":"{lundi,Mardi,Mercredi,Jeudi,Vendredi}","ministere_tutelle":"MDEM"}},{"type":"Feature","id":"_mview_admi_etablissements_administration.fid--1b6ae3e2_1a0db278384_-393e","geometry":{"type":"Point","coordinates":[1.3046,6.15966]},"geometry_name":"geometry","properties":{"region_nom_bdd":"Maritime","prefecture_nom_bdd":"Golfe","commune_nom_bdd":"Golfe 6","canton_nom_bdd":"Baguida","nom_localite":"Baguida","etablissement_nom":"Société T-Oil - Direction Générale","etab_adr":"Société T-Oil - Direction Générale, Raffinerie du Port de Lomé, Baguida, Baguida, Golfe 6","ouverture_jour":"{lundi,Mardi,Mercredi,Jeudi,Vendredi}","ministere_tutelle":"MDEM, MCICL"}},{"type":"Feature","id":"_mview_admi_etablissements_administration.fid--1b6ae3e2_1a0db278384_-393d","geometry":{"type":"Point","coordinates":[1.244324,6.16213651]},"geometry_name":"geometry","properties":{"region_nom_bdd":"Maritime","prefecture_nom_bdd":"Golfe","commune_nom_bdd":"Golfe 2","canton_nom_bdd":"Bè-Centre","nom_localite":"Hedzranaowé","etablissement_nom":"Société Total Energie Togo - Direction Générale","etab_adr":"Société Total Energie Togo - Direction Générale, Hedzranaowé, Bè-Centre, Golfe 2","ouverture_jour":"{lundi,Mardi,Mercredi,Jeudi,Vendredi}","ministere_tutelle":"MDEM, MCICL"}},{"type":"Feature","id":"_mview_admi_etablissements_administration.fid--1b6ae3e2_1a0db278384_-393c","geometry":{"type":"Point","coordinates":[1.22478061,6.15482587]},"geometry_name":"geometry","properties":{"region_nom_bdd":"Maritime","prefecture_nom_bdd":"Golfe","commune_nom_bdd":"Golfe 3","canton_nom_bdd":"Bè-Ouest","nom_localite":"Doumassesse","etablissement_nom":"Autorite de Reglementation du Secteur de l'Electricité (ARSE)","etab_adr":"Autorite de Reglementation du Secteur de l'Electricité (ARSE), Doumassesse, Bè-Ouest, Golfe 3, BP4227 Lomé","ouverture_jour":"{lundi,Mardi,Mercredi,Jeudi,Vendredi}","ministere_tutelle":"MDEM"}},{"type":"Feature","id":"_mview_admi_etablissements_administration.fid--1b6ae3e2_1a0db278384_-393b","geometry":{"type":"Point","coordinates":[0.196565,10.87109333]},"geometry_name":"geometry","properties":{"region_nom_bdd":"Savanes","prefecture_nom_bdd":"Tône","commune_nom_bdd":"Tône 1","canton_nom_bdd":"Dapaong","nom_localite":"Dapaong","etablissement_nom":"Direction Régionale Des Savanes De La CEET","etab_adr":"Direction Régionale Des Savanes De La Ceet, Dapaong","ouverture_jour":"{Vendredi,jeudi,Mercredi,Mardi,Lundi}","ministere_tutelle":"MDEM"}},{"type":"Feature","id":"_mview_admi_etablissements_administration.fid--1b6ae3e2_1a0db278384_-393a","geometry":{"type":"Point","coordinates":[1.21033,6.41920333]},"geometry_name":"geometry","properties":{"region_nom_bdd":"Maritime","prefecture_nom_bdd":"Zio","commune_nom_bdd":"Zio 1","canton_nom_bdd":"Tsévié","nom_localite":"Tsevie","etablissement_nom":"Direction Régionale des Mines et de la Géologie (DRMG) - Région Maritime","etab_adr":"160 BP 28 Tsevie / 23304057","ouverture_jour":"{Jeudi,Mardi,Mercredi,Vendredi,lundi}","ministere_tutelle":"MDEM"}}],"totalFeatures":18,"numberMatched":18,"numberReturned":18,"timeStamp":"2026-09-26T00:40:28.852Z","crs":{"type":"name","properties":{"name":"urn:ogc:def:crs:EPSG::4326"}}}