{"type":"FeatureCollection","features":[{"type":"Feature","id":"_mview_admi_etablissements_administration.fid--1b6ae3e2_1a0db278384_-396c","geometry":{"type":"Point","coordinates":[0.7948685,7.66397697]},"geometry_name":"geometry","properties":{"region_nom_bdd":"Plateaux","prefecture_nom_bdd":"Akébou","commune_nom_bdd":"Akébou 1","canton_nom_bdd":"Kougnohou","nom_localite":"Kougnohou","etablissement_nom":"Agence Nationale Appui Au Developpement A Base (ANADEB) de Akebou","etab_adr":"Nsp","ouverture_jour":"N/a","ministere_tutelle":"MDBJEJ"}},{"type":"Feature","id":"_mview_admi_etablissements_administration.fid--1b6ae3e2_1a0db278384_-396b","geometry":{"type":"Point","coordinates":[1.14107739,8.97901255]},"geometry_name":"geometry","properties":{"region_nom_bdd":"Centrale","prefecture_nom_bdd":"Tchaoudjo","commune_nom_bdd":"Tchaoudjo 1","canton_nom_bdd":"Sokodè (Komah)","nom_localite":"Komah","etablissement_nom":"Agence Nationale de Volontariat du Togo (ANVT) - Centrale","etab_adr":"Agence Nationale de Volontariat du Togo (ANVT) - Centrale, Komah, Sokodè (Komah), Tchaoudjo 1, 01BP2801","ouverture_jour":"{lundi,Mardi,Mercredi,Jeudi,Vendredi}","ministere_tutelle":"MDBJEJ"}},{"type":"Feature","id":"_mview_admi_etablissements_administration.fid--1b6ae3e2_1a0db278384_-396a","geometry":{"type":"Point","coordinates":[0.69009833,7.19638667]},"geometry_name":"geometry","properties":{"region_nom_bdd":"Plateaux","prefecture_nom_bdd":"Danyi","commune_nom_bdd":"Danyi 1","canton_nom_bdd":"Danyi-Atigba","nom_localite":"Apeyeme","etablissement_nom":"Agence Nationale de Développement à la Base (ANADEB) - Danyi","etab_adr":"Agence Nationale de Développement à la Base (ANADEB) - Danyi, Apeyeme, Danyi-Atigba, Danyi 1","ouverture_jour":"{Vendredi,Jeudi,Mercredi,Mardi,lundi}","ministere_tutelle":"MDBJEJ"}},{"type":"Feature","id":"_mview_admi_etablissements_administration.fid--1b6ae3e2_1a0db278384_-3969","geometry":{"type":"Point","coordinates":[0.19941302,10.89073823]},"geometry_name":"geometry","properties":{"region_nom_bdd":"Savanes","prefecture_nom_bdd":"Tône","commune_nom_bdd":"Tône 1","canton_nom_bdd":"Dapaong","nom_localite":"Nassablé","etablissement_nom":"Incubateur Nunya lab - Dapaong","etab_adr":"Incubateur Nunya lab - Dapaong, Nassablé, Dapaong, Tône 1","ouverture_jour":"{lundi,Mercredi,Mardi,Vendredi,Jeudi,Samedi}","ministere_tutelle":"MDBJEJ"}},{"type":"Feature","id":"_mview_admi_etablissements_administration.fid--1b6ae3e2_1a0db278384_-3968","geometry":{"type":"Point","coordinates":[1.20982131,6.4168876]},"geometry_name":"geometry","properties":{"region_nom_bdd":"Maritime","prefecture_nom_bdd":"Zio","commune_nom_bdd":"Zio 1","canton_nom_bdd":"Tsévié","nom_localite":"Daviemondji Atitoe","etablissement_nom":"Agence Nationale de Développement à la Base (ANADEB) - Région Maritime","etab_adr":"Villa Malou 01 BP 2098 Lomé Togo","ouverture_jour":"{lundi,Mardi,Mercredi,Jeudi,Vendredi}","ministere_tutelle":"MDBJEJ"}},{"type":"Feature","id":"_mview_admi_etablissements_administration.fid--1b6ae3e2_1a0db278384_-3967","geometry":{"type":"Point","coordinates":[1.1425852,7.52032737]},"geometry_name":"geometry","properties":{"region_nom_bdd":"Plateaux","prefecture_nom_bdd":"Ogou","commune_nom_bdd":"Ogou 1","canton_nom_bdd":"Gnagna","nom_localite":"Nyekonakpoe","etablissement_nom":"Agence Nationale de Volontariat du Togo (ANVT) - Plateaux","etab_adr":"Agence Nationale de Volontariat du Togo (ANVT) - Plateaux, Nyekonakpoe, Gnagna, Ogou 1","ouverture_jour":"{lundi,Mardi,Mercredi,Jeudi,Vendredi}","ministere_tutelle":"MDBJEJ"}},{"type":"Feature","id":"_mview_admi_etablissements_administration.fid--1b6ae3e2_1a0db278384_-3966","geometry":{"type":"Point","coordinates":[0.61223142,9.67921447]},"geometry_name":"geometry","properties":{"region_nom_bdd":"Kara","prefecture_nom_bdd":"Dankpen","commune_nom_bdd":"Dankpen 1","canton_nom_bdd":"Guérin-Kouka","nom_localite":"Guerin-kouka","etablissement_nom":"Agence Nationale de Développement à la Base (ANADEB) - Guerin Kouka","etab_adr":"Agence Nationale de Développement à la Base (ANADEB) - Guerin Kouka, Guerin-Kouka, Guérin-Kouka, Dankpen 1, BP2098 Lomé","ouverture_jour":"{lundi,Mardi,Mercredi,Jeudi,Vendredi}","ministere_tutelle":"MDBJEJ"}},{"type":"Feature","id":"_mview_admi_etablissements_administration.fid--1b6ae3e2_1a0db278384_-3965","geometry":{"type":"Point","coordinates":[0.7341,7.13478]},"geometry_name":"geometry","properties":{"region_nom_bdd":"Plateaux","prefecture_nom_bdd":"Kpélé","commune_nom_bdd":"Kpélé 1","canton_nom_bdd":"Kpélé-Novivé","nom_localite":"Kpelé-adeta","etablissement_nom":"Agence Nationale de Volontariat du Togo (ANVT) - Kpele","etab_adr":"Agence Nationale de Volontariat du Togo (ANVT) - Kpele, Kpelé-Adeta, Kpélé-Novivé, Kpélé 1, BP2801 Lomé","ouverture_jour":"{Vendredi,Jeudi,Mercredi,Mardi,lundi}","ministere_tutelle":"MDBJEJ"}},{"type":"Feature","id":"_mview_admi_etablissements_administration.fid--1b6ae3e2_1a0db278384_-3964","geometry":{"type":"Point","coordinates":[1.20066075,6.21458319]},"geometry_name":"geometry","properties":{"region_nom_bdd":"Maritime","prefecture_nom_bdd":"Agoè-Nyivé","commune_nom_bdd":"Agoè-Nyivé 1","canton_nom_bdd":"Agoè-Nyivé","nom_localite":"Cacaveli","etablissement_nom":"Conseil National de la Jeunesse du Togo (CNJT)","etab_adr":"Conseil National de la Jeunesse du Togo (CNJT), Cacaveli, Agoè-Nyivé, Agoè-Nyivé 1, 05BP677 Lomé","ouverture_jour":"{lundi,Mardi,Mercredi,Jeudi,Vendredi}","ministere_tutelle":"MDBJEJ"}},{"type":"Feature","id":"_mview_admi_etablissements_administration.fid--1b6ae3e2_1a0db278384_-3963","geometry":{"type":"Point","coordinates":[1.15278697,7.49780636]},"geometry_name":"geometry","properties":{"region_nom_bdd":"Plateaux","prefecture_nom_bdd":"Ogou","commune_nom_bdd":"Ogou 1","canton_nom_bdd":"Gnagna","nom_localite":"Talo","etablissement_nom":"Agence Nationale de Développement à la Base (ANADEB) - Région Plateaux","etab_adr":"Agence Nationale de Développement à la Base (ANADEB) - Région Plateaux, Derrière la CEET, Talo, Gnagna, Ogou 1","ouverture_jour":"{lundi,Mardi,Mercredi,Jeudi,Vendredi}","ministere_tutelle":"MDBJEJ"}},{"type":"Feature","id":"_mview_admi_etablissements_administration.fid--1b6ae3e2_1a0db278384_-3962","geometry":{"type":"Point","coordinates":[1.2133366,6.12234382]},"geometry_name":"geometry","properties":{"region_nom_bdd":"Maritime","prefecture_nom_bdd":"Golfe","commune_nom_bdd":"Golfe 4","canton_nom_bdd":"Amoutivé","nom_localite":"Quartier Administratif","etablissement_nom":"Projet d'Appui à l'Employabilité et à l'Insertion des Jeunes dans les Secteurs Porteurs (PAEIJ-SP)","etab_adr":"Projet d'Appui à l'Employabilité et à l'Insertion des Jeunes dans les Secteurs Porteurs (PAEIJ-SP), Quartier Administratif, Amoutivé, Golfe 4, 01BP1299 Lomé","ouverture_jour":"{lundi,Mardi,Mercredi,Jeudi,Vendredi}","ministere_tutelle":"MDBJEJ"}},{"type":"Feature","id":"_mview_admi_etablissements_administration.fid--1b6ae3e2_1a0db278384_-3961","geometry":{"type":"Point","coordinates":[1.17152813,6.95914625]},"geometry_name":"geometry","properties":{"region_nom_bdd":"Plateaux","prefecture_nom_bdd":"Haho","commune_nom_bdd":"Haho 1","canton_nom_bdd":"Notsé","nom_localite":"Notsé","etablissement_nom":"Agence Nationale de Volontariat du Togo (ANVT) - Notsé","etab_adr":"Agence Nationale de Volontariat du Togo (ANVT) - Notsé, Notsé, Notsé, Haho 1","ouverture_jour":"{Vendredi,Jeudi,Mercredi,Mardi,lundi}","ministere_tutelle":"MDBJEJ"}},{"type":"Feature","id":"_mview_admi_etablissements_administration.fid--1b6ae3e2_1a0db278384_-3960","geometry":{"type":"Point","coordinates":[1.17801301,6.93966016]},"geometry_name":"geometry","properties":{"region_nom_bdd":"Plateaux","prefecture_nom_bdd":"Haho","commune_nom_bdd":"Haho 1","canton_nom_bdd":"Notsé","nom_localite":"Alinou","etablissement_nom":"Agence Nationale Appui Au Developpement A Base (ANADEB) Alinou","etab_adr":"Nsp","ouverture_jour":"{lundi,mardi,mercredi,jeudi,vendredi}","ministere_tutelle":"MDBJEJ"}},{"type":"Feature","id":"_mview_admi_etablissements_administration.fid--1b6ae3e2_1a0db278384_-395f","geometry":{"type":"Point","coordinates":[1.21390784,6.41522233]},"geometry_name":"geometry","properties":{"region_nom_bdd":"Maritime","prefecture_nom_bdd":"Zio","commune_nom_bdd":"Zio 1","canton_nom_bdd":"Tsévié","nom_localite":"Atikoume Deviemondji","etablissement_nom":"Agence Nationale de Volontariat du Togo (ANVT) - Maritime","etab_adr":"Agence Nationale de Volontariat du Togo (ANVT) - Maritime, Atikoume Deviemondji, Tsévié, Zio 1","ouverture_jour":"{lundi,Mardi,Mercredi,Jeudi,Vendredi}","ministere_tutelle":"MDBJEJ"}},{"type":"Feature","id":"_mview_admi_etablissements_administration.fid--1b6ae3e2_1a0db278384_-395e","geometry":{"type":"Point","coordinates":[0.73411,7.13479833]},"geometry_name":"geometry","properties":{"region_nom_bdd":"Plateaux","prefecture_nom_bdd":"Kpélé","commune_nom_bdd":"Kpélé 1","canton_nom_bdd":"Kpélé-Novivé","nom_localite":"Kpelé-adeta","etablissement_nom":"Agence Nationale de Développement à la Base (ANADEB) - Kpele","etab_adr":"Agence Nationale de Développement à la Base (ANADEB) - Kpele, Kpelé-Adeta, Kpélé-Novivé, Kpélé 1","ouverture_jour":"{lundi,Mardi,Mercredi,Jeudi,Vendredi,Samedi}","ministere_tutelle":"MDBJEJ"}},{"type":"Feature","id":"_mview_admi_etablissements_administration.fid--1b6ae3e2_1a0db278384_-395d","geometry":{"type":"Point","coordinates":[0.63218542,6.90526749]},"geometry_name":"geometry","properties":{"region_nom_bdd":"Plateaux","prefecture_nom_bdd":"Kloto","commune_nom_bdd":"Kloto 1","canton_nom_bdd":"Agome-Kpalime","nom_localite":"Kpalime","etablissement_nom":"Agence Nationale Appui Au Developpement A Base (ANADEB) de Kpalimé","etab_adr":"Nsp","ouverture_jour":"{lundi,mardi,mercredi,jeudi,vendredi,samedi}","ministere_tutelle":"MDBJEJ"}},{"type":"Feature","id":"_mview_admi_etablissements_administration.fid--1b6ae3e2_1a0db278384_-395c","geometry":{"type":"Point","coordinates":[1.61509977,6.24752372]},"geometry_name":"geometry","properties":{"region_nom_bdd":"Maritime","prefecture_nom_bdd":"Lacs","commune_nom_bdd":"Lacs 1","canton_nom_bdd":"Glidji","nom_localite":"Zebe","etablissement_nom":"Agence Nationale de Développement à la Base (ANADEB) - Aneho","etab_adr":"Agence Nationale de Développement à la Base (ANADEB) - Aneho, Zebe, Glidji, Lacs 1","ouverture_jour":"{lundi,Mardi,Mercredi,Jeudi,Vendredi}","ministere_tutelle":"MDBJEJ"}},{"type":"Feature","id":"_mview_admi_etablissements_administration.fid--1b6ae3e2_1a0db278384_-395b","geometry":{"type":"Point","coordinates":[1.13943684,8.97183531]},"geometry_name":"geometry","properties":{"region_nom_bdd":"Centrale","prefecture_nom_bdd":"Tchaoudjo","commune_nom_bdd":"Tchaoudjo 1","canton_nom_bdd":"Sokodè (Komah)","nom_localite":"Komah","etablissement_nom":"Agence Nationale de Développement à la Base (ANADEB) - Région Centrale","etab_adr":"Agence Nationale de Développement à la Base (ANADEB) - Région Centrale, Komah, Sokodè (Komah), Tchaoudjo 1","ouverture_jour":"{lundi,Mardi,Mercredi,Jeudi,Vendredi,Samedi}","ministere_tutelle":"MDBJEJ"}},{"type":"Feature","id":"_mview_admi_etablissements_administration.fid--1b6ae3e2_1a0db278384_-395a","geometry":{"type":"Point","coordinates":[1.66440936,6.42019237]},"geometry_name":"geometry","properties":{"region_nom_bdd":"Maritime","prefecture_nom_bdd":"Bas-Mono","commune_nom_bdd":"Bas-Mono 2","canton_nom_bdd":"Attitogon","nom_localite":"Attitogon","etablissement_nom":"Conseil Préfectoral de la Jeunesse (CPJ) d'Attitogon","etab_adr":"Conseil Préfectoral de la Jeunesse (CPJ) d'Attitogon, Attitogon, Attitogon, Bas-Mono 2","ouverture_jour":"{lundi,Mardi,Mercredi,Jeudi,Vendredi,Samedi}","ministere_tutelle":"MDBJEJ"}},{"type":"Feature","id":"_mview_admi_etablissements_administration.fid--1b6ae3e2_1a0db278384_-3959","geometry":{"type":"Point","coordinates":[0.19970861,10.8455325]},"geometry_name":"geometry","properties":{"region_nom_bdd":"Savanes","prefecture_nom_bdd":"Tône","commune_nom_bdd":"Tône 1","canton_nom_bdd":"Dapaong","nom_localite":"Worgou","etablissement_nom":"Agence Nationale de Développement à la Base (ANADEB) - Région Savanes","etab_adr":"Agence Nationale de Développement à la Base (ANADEB) - Région Savanes, Worgou, Dapaong, Tône 1, BP173","ouverture_jour":"{lundi,Mardi,Mercredi,Jeudi,Vendredi}","ministere_tutelle":"MDBJEJ"}},{"type":"Feature","id":"_mview_admi_etablissements_administration.fid--1b6ae3e2_1a0db278384_-3958","geometry":{"type":"Point","coordinates":[1.19961792,9.55009253]},"geometry_name":"geometry","properties":{"region_nom_bdd":"Kara","prefecture_nom_bdd":"Kozah","commune_nom_bdd":"Kozah 1","canton_nom_bdd":"Commune De Kara","nom_localite":"Tomde","etablissement_nom":"Agence Nationale de Développement à la Base (ANADEB) - Région Kara","etab_adr":"Agence Nationale de Développement à la Base (ANADEB) - Région Kara, Tomde, Commune De Kara, Kozah 1, BP2098","ouverture_jour":"{Vendredi,Jeudi,Mercredi,Mardi,lundi}","ministere_tutelle":"MDBJEJ"}},{"type":"Feature","id":"_mview_admi_etablissements_administration.fid--1b6ae3e2_1a0db278384_-3957","geometry":{"type":"Point","coordinates":[1.20727924,6.1894085]},"geometry_name":"geometry","properties":{"region_nom_bdd":"Maritime","prefecture_nom_bdd":"Golfe","commune_nom_bdd":"Golfe 5","canton_nom_bdd":"Aflao-Gakli","nom_localite":"Gta","etablissement_nom":"Coalition Nationale Pour l'Emploi des Jeunes (CNPEJ)","etab_adr":"Coalition Nationale Pour l'Emploi des Jeunes (CNPEJ), GTA, Aflao-Gakli, Golfe 5","ouverture_jour":"{lundi,Mardi,Mercredi,Jeudi,Vendredi}","ministere_tutelle":"MDBJEJ"}},{"type":"Feature","id":"_mview_admi_etablissements_administration.fid--1b6ae3e2_1a0db278384_-3956","geometry":{"type":"Point","coordinates":[0.61221918,9.6791645]},"geometry_name":"geometry","properties":{"region_nom_bdd":"Kara","prefecture_nom_bdd":"Dankpen","commune_nom_bdd":"Dankpen 1","canton_nom_bdd":"Guérin-Kouka","nom_localite":"Guerin-kouka","etablissement_nom":"Agence Nationale de Volontariat du Togo (ANVT) - Guérin Kouka","etab_adr":"Agence Nationale de Volontariat du Togo (ANVT) - Guérin Kouka, Guerin-Kouka, Guérin-Kouka, Dankpen 1","ouverture_jour":"{lundi,Mardi,Mercredi,Jeudi,Vendredi}","ministere_tutelle":"MDBJEJ"}},{"type":"Feature","id":"_mview_admi_etablissements_administration.fid--1b6ae3e2_1a0db278384_-3955","geometry":{"type":"Point","coordinates":[1.18731763,6.18922853]},"geometry_name":"geometry","properties":{"region_nom_bdd":"Maritime","prefecture_nom_bdd":"Golfe","commune_nom_bdd":"Golfe 5","canton_nom_bdd":"Aflao-Gakli","nom_localite":"Djidjolé","etablissement_nom":"Programme National de Développement de la Plateforme Multifonctionnel (PNDPM)","etab_adr":"Programme National de Développement de la Plateforme Multifonctionnel (PNDPM), ANADEB, Djidjolé, Aflao-Gakli, Golfe 5, 01BP2098 Lomé","ouverture_jour":"{lundi,Mardi,Mercredi,Jeudi,Vendredi}","ministere_tutelle":"MDBJEJ"}},{"type":"Feature","id":"_mview_admi_etablissements_administration.fid--1b6ae3e2_1a0db278384_-3954","geometry":{"type":"Point","coordinates":[1.20295423,6.17753019]},"geometry_name":"geometry","properties":{"region_nom_bdd":"Maritime","prefecture_nom_bdd":"Golfe","commune_nom_bdd":"Golfe 3","canton_nom_bdd":"Bè-Ouest","nom_localite":"Klikame","etablissement_nom":"Agence Nationale de Volontariat du Togo (ANVT) - Afiao Gakii","etab_adr":"Agence Nationale de Volontariat du Togo (ANVT) - Afiao Gakii, Klikame, Bè-Ouest, Golfe 3","ouverture_jour":"Nsp","ministere_tutelle":"MDBJEJ"}},{"type":"Feature","id":"_mview_admi_etablissements_administration.fid--1b6ae3e2_1a0db278384_-3953","geometry":{"type":"Point","coordinates":[1.19423857,6.18723801]},"geometry_name":"geometry","properties":{"region_nom_bdd":"Maritime","prefecture_nom_bdd":"Golfe","commune_nom_bdd":"Golfe 5","canton_nom_bdd":"Aflao-Gakli","nom_localite":"Agbalepedogan","etablissement_nom":"Agence Nationale de Développement à la Base (ANADEB) - Lomé","etab_adr":"Agence Nationale de Développement à la Base (ANADEB) - Lomé, Agbalepedogan, Aflao-Gakli, Golfe 5, 01BP2098 Lomé 1","ouverture_jour":"{lundi,Mardi,Mercredi,Jeudi,Vendredi}","ministere_tutelle":"MDBJEJ"}},{"type":"Feature","id":"_mview_admi_etablissements_administration.fid--1b6ae3e2_1a0db278384_-3952","geometry":{"type":"Point","coordinates":[1.2031571,6.176314]},"geometry_name":"geometry","properties":{"region_nom_bdd":"Maritime","prefecture_nom_bdd":"Golfe","commune_nom_bdd":"Golfe 3","canton_nom_bdd":"Bè-Ouest","nom_localite":"Klikame","etablissement_nom":"Fonds d'Appui aux Initiatives Économiques des Jeunes (FAIEJ)","etab_adr":"Fonds d'Appui aux Initiatives Économiques des Jeunes (FAIEJ), Klikame, Bè-Ouest, Golfe 3, 02BP20791 Lomé","ouverture_jour":"{lundi,Mardi,Mercredi,Jeudi,Vendredi}","ministere_tutelle":"MDBJEJ"}},{"type":"Feature","id":"_mview_admi_etablissements_administration.fid--1b6ae3e2_1a0db278384_-3951","geometry":{"type":"Point","coordinates":[1.20556833,9.55440333]},"geometry_name":"geometry","properties":{"region_nom_bdd":"Kara","prefecture_nom_bdd":"Kozah","commune_nom_bdd":"Kozah 1","canton_nom_bdd":"Commune De Kara","nom_localite":"Nsp","etablissement_nom":"Agence Nationale de Volontariat du Togo (ANVT) - Kara","etab_adr":"Agence Nationale de Volontariat du Togo (ANVT) - Kara, , Commune De Kara, Kozah 1","ouverture_jour":"{Vendredi,Jeudi,Mercredi,Mardi,lundi}","ministere_tutelle":"MDBJEJ"}},{"type":"Feature","id":"_mview_admi_etablissements_administration.fid--1b6ae3e2_1a0db278384_-3950","geometry":{"type":"Point","coordinates":[1.2164191,6.18304335]},"geometry_name":"geometry","properties":{"region_nom_bdd":"Maritime","prefecture_nom_bdd":"Golfe","commune_nom_bdd":"Golfe 3","canton_nom_bdd":"Bè-Ouest","nom_localite":"Cite Oua","etablissement_nom":"Ministère du Développement à la Base, de la Jeunesse et de l'Emploi des Jeunes (MDBJEJ)","etab_adr":"Ministère du Développement à la Base, de la Jeunesse et de l'Emploi des Jeunes (MDBJEJ), Cite Oua, Bè-Ouest, Golfe 3, BP1299 Lomé","ouverture_jour":"{Vendredi,Jeudi,Mercredi,Mardi,lundi}","ministere_tutelle":"MDBJEJ"}},{"type":"Feature","id":"_mview_admi_etablissements_administration.fid--1b6ae3e2_1a0db278384_-394f","geometry":{"type":"Point","coordinates":[0.60848514,7.58685796]},"geometry_name":"geometry","properties":{"region_nom_bdd":"Plateaux","prefecture_nom_bdd":"Wawa","commune_nom_bdd":"Wawa 1","canton_nom_bdd":"Badou","nom_localite":"Badou","etablissement_nom":"Agence Nationale de Volontariat du Togo (ANVT) - Badou","etab_adr":"Agence Nationale de Volontariat du Togo (ANVT) - Badou, Badou, Badou, Wawa 1","ouverture_jour":"{lundi,Mercredi,Mardi,Jeudi,Vendredi}","ministere_tutelle":"MDBJEJ"}},{"type":"Feature","id":"_mview_admi_etablissements_administration.fid--1b6ae3e2_1a0db278384_-394e","geometry":{"type":"Point","coordinates":[1.17965588,9.54740831]},"geometry_name":"geometry","properties":{"region_nom_bdd":"Kara","prefecture_nom_bdd":"Kozah","commune_nom_bdd":"Kozah 1","canton_nom_bdd":"Commune De Kara","nom_localite":"Dongoyo","etablissement_nom":"Agence Nationale d'Appui au Développement à la Base (ANADEB) Antenne de la région de la Kara","etab_adr":"N/a","ouverture_jour":"{Jeudi,Mardi,Vendredi,Mercredi,lundi}","ministere_tutelle":"MDBJEJ"}},{"type":"Feature","id":"_mview_admi_etablissements_administration.fid--1b6ae3e2_1a0db278384_-394d","geometry":{"type":"Point","coordinates":[0.60490783,7.58504667]},"geometry_name":"geometry","properties":{"region_nom_bdd":"Plateaux","prefecture_nom_bdd":"Wawa","commune_nom_bdd":"Wawa 1","canton_nom_bdd":"Badou","nom_localite":"Lomnava","etablissement_nom":"Agence Nationale D Appui Au Developpement A La Base (ANADEB) de Wawa","etab_adr":"Nsp","ouverture_jour":"{lundi,mardi,mercredi,jeudi,vendredi}","ministere_tutelle":"MDBJEJ"}},{"type":"Feature","id":"_mview_admi_etablissements_administration.fid--1b6ae3e2_1a0db278384_-394c","geometry":{"type":"Point","coordinates":[0.59343148,6.98118349]},"geometry_name":"geometry","properties":{"region_nom_bdd":"Plateaux","prefecture_nom_bdd":"Kloto","commune_nom_bdd":"Kloto 3","canton_nom_bdd":"Kouma","nom_localite":"Dunyo","etablissement_nom":"Centre Rurale d'Activité Sociaux Éducatif","etab_adr":"Néant","ouverture_jour":"{Jeudi,Mardi,Mercredi,Vendredi,lundi}","ministere_tutelle":"MDBJEJ"}}],"totalFeatures":33,"numberMatched":33,"numberReturned":33,"timeStamp":"2026-09-26T00:40:27.956Z","crs":{"type":"name","properties":{"name":"urn:ogc:def:crs:EPSG::4326"}}}