{"type":"FeatureCollection","features":[{"type":"Feature","id":"_mview_admi_etablissements_administration.fid--1b6ae3e2_1a0db278384_-37cf","geometry":{"type":"Point","coordinates":[1.20852703,6.1886333]},"geometry_name":"geometry","properties":{"region_nom_bdd":"Maritime","prefecture_nom_bdd":"Golfe","commune_nom_bdd":"Golfe 3","canton_nom_bdd":"Bè-Ouest","nom_localite":"Agbalepedo","etablissement_nom":"Ministère de la Promotion de l'Investissement (MPI)","etab_adr":"Ministère de la Promotion de l'Investissement (MPI), Agbalepedo, Bè-Ouest, Golfe 3, BP3250 Lomé","ouverture_jour":"{lundi,Mardi,Mercredi,Jeudi,Vendredi}","ministere_tutelle":"MPI"}},{"type":"Feature","id":"_mview_admi_etablissements_administration.fid--1b6ae3e2_1a0db278384_-37ce","geometry":{"type":"Point","coordinates":[1.20857681,6.18851552]},"geometry_name":"geometry","properties":{"region_nom_bdd":"Maritime","prefecture_nom_bdd":"Golfe","commune_nom_bdd":"Golfe 3","canton_nom_bdd":"Bè-Ouest","nom_localite":"Université De Lomé","etablissement_nom":"Société d'Administration de la Zone Franche (SAZOF)","etab_adr":"Société d'Administration de la Zone Franche (SAZOF), Université de Lomé, Bè-Ouest, Golfe 3, BP3250 Lomé","ouverture_jour":"{lundi,Mardi,Mercredi,Jeudi,Vendredi}","ministere_tutelle":"MPI"}},{"type":"Feature","id":"_mview_admi_etablissements_administration.fid--1b6ae3e2_1a0db278384_-37cd","geometry":{"type":"Point","coordinates":[1.29833395,6.15374438]},"geometry_name":"geometry","properties":{"region_nom_bdd":"Maritime","prefecture_nom_bdd":"Golfe","commune_nom_bdd":"Golfe 6","canton_nom_bdd":"Baguida","nom_localite":"Zone Portuaire","etablissement_nom":"SAZOF Zone portuaire","etab_adr":"Zone portuaire bâtiment OTR","ouverture_jour":null,"ministere_tutelle":"MCICL, MPI"}},{"type":"Feature","id":"_mview_admi_etablissements_administration.fid--1b6ae3e2_1a0db278384_-37cc","geometry":{"type":"Point","coordinates":[1.21702954,6.31074094]},"geometry_name":"geometry","properties":{"region_nom_bdd":"Maritime","prefecture_nom_bdd":"Agoè-Nyivé","commune_nom_bdd":"Agoè-Nyivé 6","canton_nom_bdd":"Adétikopé","nom_localite":"Adetikope","etablissement_nom":"Direction Générale Plateforme Industrielle d'Adetikope(PIA)","etab_adr":"Adetikope","ouverture_jour":"{lundi,Vendredi,Mercredi,Samedi,Mardi,Jeudi}","ministere_tutelle":"MCICL, MPI"}}],"totalFeatures":4,"numberMatched":4,"numberReturned":4,"timeStamp":"2026-09-26T00:40:49.353Z","crs":{"type":"name","properties":{"name":"urn:ogc:def:crs:EPSG::4326"}}}