{"type":"FeatureCollection","features":[{"type":"Feature","id":"_mview_admi_etablissements_administration.fid--1b6ae3e2_1a0db278384_-38b7","geometry":{"type":"Point","coordinates":[1.07928568,10.14611689]},"geometry_name":"geometry","properties":{"region_nom_bdd":"Kara","prefecture_nom_bdd":"Kéran","commune_nom_bdd":"Kéran 3","canton_nom_bdd":"Nadoba","nom_localite":"Nadoba","etablissement_nom":"Chef de poste contrôle vétérinaire (CPV) de NADOBA","etab_adr":"N/a","ouverture_jour":"{Jeudi,Mardi,Mercredi,Vendredi,lundi}","ministere_tutelle":"MEMPPC"}},{"type":"Feature","id":"_mview_admi_etablissements_administration.fid--1b6ae3e2_1a0db278384_-38b6","geometry":{"type":"Point","coordinates":[1.04221394,9.96219025]},"geometry_name":"geometry","properties":{"region_nom_bdd":"Kara","prefecture_nom_bdd":"Kéran","commune_nom_bdd":"Kéran 1","canton_nom_bdd":"Kantè","nom_localite":"Kante","etablissement_nom":"Section du Controle Vétérinaire Préfectorale (SCVP) - Keran","etab_adr":"néant","ouverture_jour":"{Jeudi,Mardi,Mercredi,Vendredi,lundi}","ministere_tutelle":"MEMPPC"}},{"type":"Feature","id":"_mview_admi_etablissements_administration.fid--1b6ae3e2_1a0db278384_-38b5","geometry":{"type":"Point","coordinates":[1.21204913,6.1290886]},"geometry_name":"geometry","properties":{"region_nom_bdd":"Maritime","prefecture_nom_bdd":"Golfe","commune_nom_bdd":"Golfe 4","canton_nom_bdd":"Amoutivé","nom_localite":"Quartier Administratif","etablissement_nom":"Ministère de l'Économie Maritime de la Pêche et de la Protection Côtière (MEMPPC)","etab_adr":"Ministère de l'Économie Maritime de la Pêche et de la Protection Côtière (MEMPPC), Quartier Administratif, Amoutivé, Golfe 4","ouverture_jour":"Nsp","ministere_tutelle":"MEMPPC"}},{"type":"Feature","id":"_mview_admi_etablissements_administration.fid--1b6ae3e2_1a0db278384_-38b4","geometry":{"type":"Point","coordinates":[1.31149483,6.15436679]},"geometry_name":"geometry","properties":{"region_nom_bdd":"Maritime","prefecture_nom_bdd":"Golfe","commune_nom_bdd":"Golfe 6","canton_nom_bdd":"Baguida","nom_localite":"Port De Peche De Lome","etablissement_nom":"Port de Pêche de Lomé","etab_adr":"Nsp","ouverture_jour":"{Lundi,Mardi,Mercredi,jeudi,Vendredi,Samedi}","ministere_tutelle":"MEMPPC"}},{"type":"Feature","id":"_mview_admi_etablissements_administration.fid--1b6ae3e2_1a0db278384_-38b3","geometry":{"type":"Point","coordinates":[1.27733362,6.14055686]},"geometry_name":"geometry","properties":{"region_nom_bdd":"Maritime","prefecture_nom_bdd":"Golfe","commune_nom_bdd":"Golfe 1","canton_nom_bdd":"Bè-Est","nom_localite":"Zone Portuaire","etablissement_nom":"Port Autonome de Lomé","etab_adr":"Nsp","ouverture_jour":"{Lundi,Mardi,Mercredi,jeudi,Vendredi}","ministere_tutelle":"MEMPPC"}},{"type":"Feature","id":"_mview_admi_etablissements_administration.fid--1b6ae3e2_1a0db278384_-38b2","geometry":{"type":"Point","coordinates":[1.21210033,6.12909748]},"geometry_name":"geometry","properties":{"region_nom_bdd":"Maritime","prefecture_nom_bdd":"Golfe","commune_nom_bdd":"Golfe 4","canton_nom_bdd":"Amoutivé","nom_localite":"Maritime","etablissement_nom":"Direction des Pêches et l’Aquaculture (MEMPPC/DPA)","etab_adr":"Nsp","ouverture_jour":"{Jeudi,Mardi,Mercredi,Vendredi,lundi}","ministere_tutelle":"MEMPPC"}},{"type":"Feature","id":"_mview_admi_etablissements_administration.fid--1b6ae3e2_1a0db278384_-38b1","geometry":{"type":"Point","coordinates":[1.27461308,6.15094292]},"geometry_name":"geometry","properties":{"region_nom_bdd":"Maritime","prefecture_nom_bdd":"Golfe","commune_nom_bdd":"Golfe 1","canton_nom_bdd":"Bè-Est","nom_localite":"Akodessewa","etablissement_nom":"Direction des Affaires Maritimes (MEMPPC/DAM)","etab_adr":"01 BP4771","ouverture_jour":"{Jeudi,Mardi,Mercredi,Vendredi,lundi}","ministere_tutelle":"MEMPPC"}}],"totalFeatures":7,"numberMatched":7,"numberReturned":7,"timeStamp":"2026-09-26T00:40:32.501Z","crs":{"type":"name","properties":{"name":"urn:ogc:def:crs:EPSG::4326"}}}