{"type":"FeatureCollection","features":[{"type":"Feature","id":"_mview_agences_etablissements_agences.fid--1b6ae3e2_1a0d7fec089_78da","geometry":{"type":"Point","coordinates":[1.47785601,6.20783982]},"geometry_name":"geometry","properties":{"region_nom_bdd":"Maritime","prefecture_nom_bdd":"Lacs","commune_nom_bdd":"Lacs 3","canton_nom_bdd":"Agbodrafo","nom_localite":"Agbodrafo","etab_nom":"Agence de la poste Agbodrafo","etab_adresse":"Agence de Poste Agbodrafo, BP2626","etab_jour":"{Lundi,Mardi,Mercredi,jeudi,Vendredi,Samedi}","etab_creation_date":"1970","activite_statut":"{Utilise}","activite_categorie":"Agence SPT","toilette_type":"N/a"}},{"type":"Feature","id":"_mview_agences_etablissements_agences.fid--1b6ae3e2_1a0d7fec089_78db","geometry":{"type":"Point","coordinates":[1.70978667,6.335255]},"geometry_name":"geometry","properties":{"region_nom_bdd":"Maritime","prefecture_nom_bdd":"Lacs","commune_nom_bdd":"Lacs 2","canton_nom_bdd":"Aklakou","nom_localite":"Aklakou","etab_nom":"Agence de la poste Aklakou","etab_adresse":"Agence de Poste Aklakou, BP2626","etab_jour":"{Lundi,Mardi,Mercredi,jeudi,Vendredi,Samedi}","etab_creation_date":"2009","activite_statut":"{Utilise}","activite_categorie":"Agence SPT","toilette_type":"{WCs}"}},{"type":"Feature","id":"_mview_agences_etablissements_agences.fid--1b6ae3e2_1a0d7fec089_78dc","geometry":{"type":"Point","coordinates":[1.60694667,6.32866333]},"geometry_name":"geometry","properties":{"region_nom_bdd":"Maritime","prefecture_nom_bdd":"Lacs","commune_nom_bdd":"Lacs 4","canton_nom_bdd":"Anfoin","nom_localite":"Anfoin","etab_nom":"Agence de la poste Anfoin","etab_adresse":"Agence de Poste Anfoin, BP2626","etab_jour":"{Lundi,Mardi,Mercredi,jeudi,Vendredi,Samedi}","etab_creation_date":"1949","activite_statut":"{Utilise}","activite_categorie":"Agence SPT","toilette_type":"{WCs}"}},{"type":"Feature","id":"_mview_agences_etablissements_agences.fid--1b6ae3e2_1a0d7fec089_78dd","geometry":{"type":"Point","coordinates":[0.56408,8.78292333]},"geometry_name":"geometry","properties":{"region_nom_bdd":"Centrale","prefecture_nom_bdd":"Mô","commune_nom_bdd":"Mô 1","canton_nom_bdd":"Djarkpanga","nom_localite":"Djarkpanga","etab_nom":"Agence de la poste Djarkpanga","etab_adresse":"Agence de Poste Djarkpanga, Djarkpanga, 01BP2626 Lomé 01","etab_jour":"{Lundi,Mardi,Mercredi,jeudi,Vendredi,Samedi}","etab_creation_date":"2020","activite_statut":"{Utilise}","activite_categorie":"Agence SPT","toilette_type":"{Latrines a eau}"}},{"type":"Feature","id":"_mview_agences_etablissements_agences.fid--1b6ae3e2_1a0d7fec089_78de","geometry":{"type":"Point","coordinates":[1.14036333,8.98507667]},"geometry_name":"geometry","properties":{"region_nom_bdd":"Centrale","prefecture_nom_bdd":"Tchaoudjo","commune_nom_bdd":"Tchaoudjo 1","canton_nom_bdd":"Sokodè (Komah)","nom_localite":"Zongo","etab_nom":"Agence de la poste Sokode","etab_adresse":"Agence de Poste Sokode, Zongo, BP2626","etab_jour":"{Lundi,Mardi,Mercredi,jeudi,Vendredi,Samedi}","etab_creation_date":"1956","activite_statut":"{Utilise}","activite_categorie":"Agence SPT","toilette_type":"{Douches}"}},{"type":"Feature","id":"_mview_agences_etablissements_agences.fid--1b6ae3e2_1a0d7fec089_78df","geometry":{"type":"Point","coordinates":[1.13625333,9.00962167]},"geometry_name":"geometry","properties":{"region_nom_bdd":"Centrale","prefecture_nom_bdd":"Tchaoudjo","commune_nom_bdd":"Tchaoudjo 1","canton_nom_bdd":"Kpangalam","nom_localite":"Kpangalam ","etab_nom":"Agence de la poste Sokodé Kpangalam","etab_adresse":"Agence de Poste Bureau de Kpangalam, Kpangalam , BP2626","etab_jour":"{Lundi,Mardi,Mercredi,jeudi,Vendredi,Samedi}","etab_creation_date":"2009","activite_statut":"{Utilise}","activite_categorie":"Agence SPT","toilette_type":"{WCs}"}},{"type":"Feature","id":"_mview_agences_etablissements_agences.fid--1b6ae3e2_1a0d7fec089_78e0","geometry":{"type":"Point","coordinates":[1.51708333,8.83733333]},"geometry_name":"geometry","properties":{"region_nom_bdd":"Centrale","prefecture_nom_bdd":"Tchamba","commune_nom_bdd":"Tchamba 2","canton_nom_bdd":"Koussountou","nom_localite":"Koussoumtou","etab_nom":"Agence de la poste Koussountou","etab_adresse":"Bureau de Poste Koussountou, Koussoumtou, 01BP2626 Lomé","etab_jour":"{Lundi,Mardi,Mercredi,jeudi,Vendredi,Samedi}","etab_creation_date":"2020","activite_statut":"{Utilise}","activite_categorie":"Agence SPT","toilette_type":"{WCs,Douches,Latrines a eau}"}},{"type":"Feature","id":"_mview_agences_etablissements_agences.fid--1b6ae3e2_1a0d7fec089_78e1","geometry":{"type":"Point","coordinates":[1.59600833,8.74814833]},"geometry_name":"geometry","properties":{"region_nom_bdd":"Centrale","prefecture_nom_bdd":"Tchamba","commune_nom_bdd":"Tchamba 3","canton_nom_bdd":"Kaboli","nom_localite":"Kaboli","etab_nom":"Agence de la poste Kaboli","etab_adresse":"Bureau de Poste Kaboli, Kaboli, BP2626","etab_jour":"{Lundi,Mardi,Mercredi,jeudi,Vendredi,Samedi}","etab_creation_date":"1993","activite_statut":"{Utilise}","activite_categorie":"Agence SPT","toilette_type":"{Douches,WCs,Latrines a eau}"}},{"type":"Feature","id":"_mview_agences_etablissements_agences.fid--1b6ae3e2_1a0d7fec089_78e2","geometry":{"type":"Point","coordinates":[0.97761001,8.56440437]},"geometry_name":"geometry","properties":{"region_nom_bdd":"Centrale","prefecture_nom_bdd":"Sotouboua","commune_nom_bdd":"Sotouboua 1","canton_nom_bdd":"Sotouboua","nom_localite":"Sonde","etab_nom":"Agence de la poste Sotouboua","etab_adresse":"Agence de Poste Sotouboua, Sonde, BP2626 Lomé ","etab_jour":"{Lundi,Mardi,Mercredi,jeudi,Vendredi,Samedi}","etab_creation_date":"1973","activite_statut":"{Utilise}","activite_categorie":"Agence SPT","toilette_type":"{Latrines a eau,WCs}"}},{"type":"Feature","id":"_mview_agences_etablissements_agences.fid--1b6ae3e2_1a0d7fec089_78e3","geometry":{"type":"Point","coordinates":[1.41778333,9.02053667]},"geometry_name":"geometry","properties":{"region_nom_bdd":"Centrale","prefecture_nom_bdd":"Tchamba","commune_nom_bdd":"Tchamba 1","canton_nom_bdd":"Tchamba","nom_localite":"Boutchowa","etab_nom":"Agence de la poste Tchamba","etab_adresse":"Bureau de Poste Tchamba, Boutchowa, BP2626","etab_jour":"{Lundi,Mardi,Mercredi,jeudi,Vendredi,Samedi}","etab_creation_date":"1980","activite_statut":"{Utilise}","activite_categorie":"Agence SPT","toilette_type":"{WCs}"}},{"type":"Feature","id":"_mview_agences_etablissements_agences.fid--1b6ae3e2_1a0d7fec089_78e4","geometry":{"type":"Point","coordinates":[1.01906928,8.65930295]},"geometry_name":"geometry","properties":{"region_nom_bdd":"Centrale","prefecture_nom_bdd":"Sotouboua","commune_nom_bdd":"Sotouboua 2","canton_nom_bdd":"Adjengré","nom_localite":"Adéwi Adjengre","etab_nom":"Agence de la poste Adjengre","etab_adresse":"Agence de Poste Adjengre, Adéwi Adjengre, BP26 26 ","etab_jour":"{Lundi,Mardi,Mercredi,jeudi,Vendredi,Samedi}","etab_creation_date":"1993","activite_statut":"{Utilise}","activite_categorie":"Agence SPT","toilette_type":"{WCs}"}},{"type":"Feature","id":"_mview_agences_etablissements_agences.fid--1b6ae3e2_1a0d7fec089_78e5","geometry":{"type":"Point","coordinates":[1.21259167,6.22613333]},"geometry_name":"geometry","properties":{"region_nom_bdd":"Maritime","prefecture_nom_bdd":"Agoè-Nyivé","commune_nom_bdd":"Agoè-Nyivé 1","canton_nom_bdd":"Agoè-Nyivé","nom_localite":"Atchanvé","etab_nom":"Agence de la poste Atchanvé","etab_adresse":"Agence de Poste Du Togo, Atchanvé, BP2626","etab_jour":"{Lundi,Mardi,Mercredi,jeudi,Vendredi,Samedi}","etab_creation_date":"2011","activite_statut":"{Utilise}","activite_categorie":"Agence SPT","toilette_type":"{WCs}"}},{"type":"Feature","id":"_mview_agences_etablissements_agences.fid--1b6ae3e2_1a0d7fec089_78e6","geometry":{"type":"Point","coordinates":[0.97827088,8.32460844]},"geometry_name":"geometry","properties":{"region_nom_bdd":"Centrale","prefecture_nom_bdd":"Blitta","commune_nom_bdd":"Blitta 1","canton_nom_bdd":"Blitta","nom_localite":"Blitta Gare","etab_nom":"Agence de la poste Blitta","etab_adresse":"Agence de Poste Blitta, Blitta Gare, BP2626","etab_jour":"{Lundi,Mardi,Mercredi,jeudi,Vendredi,Samedi}","etab_creation_date":"1949","activite_statut":"{Utilise}","activite_categorie":"Agence SPT","toilette_type":"{Latrines a eau}"}},{"type":"Feature","id":"_mview_agences_etablissements_agences.fid--1b6ae3e2_1a0d7fec089_78e7","geometry":{"type":"Point","coordinates":[0.96499833,8.183875]},"geometry_name":"geometry","properties":{"region_nom_bdd":"Centrale","prefecture_nom_bdd":"Blitta","commune_nom_bdd":"Blitta 1","canton_nom_bdd":"Pagala-Gare","nom_localite":"Pagala Gare","etab_nom":"Agence de la poste Pagala Gare","etab_adresse":"Agence de Poste Pagala Gare, Pagala Gare, BP2626 Lomé","etab_jour":"{Lundi,Mardi,Mercredi,jeudi,Vendredi,Samedi}","etab_creation_date":"1993","activite_statut":"{Utilise}","activite_categorie":"Agence SPT","toilette_type":"{Latrines a eau}"}},{"type":"Feature","id":"_mview_agences_etablissements_agences.fid--1b6ae3e2_1a0d7fec089_78e8","geometry":{"type":"Point","coordinates":[1.13456539,8.2269966]},"geometry_name":"geometry","properties":{"region_nom_bdd":"Centrale","prefecture_nom_bdd":"Blitta","commune_nom_bdd":"Blitta 2","canton_nom_bdd":"Agbandi","nom_localite":"Agbandi ","etab_nom":"Point Poste Agbandi","etab_adresse":"Agence de Poste Spt de Agbandi, Agbandi , BP2626","etab_jour":"{Lundi,Mardi,Mercredi,jeudi,Vendredi,Samedi}","etab_creation_date":"2015","activite_statut":"{Ferme}","activite_categorie":"Agence SPT","toilette_type":"Nsp"}},{"type":"Feature","id":"_mview_agences_etablissements_agences.fid--1b6ae3e2_1a0d7fec089_78e9","geometry":{"type":"Point","coordinates":[1.20107585,9.20684776]},"geometry_name":"geometry","properties":{"region_nom_bdd":"Centrale","prefecture_nom_bdd":"Tchaoudjo","commune_nom_bdd":"Tchaoudjo 3","canton_nom_bdd":"Aléhéridè","nom_localite":"Aleheride ","etab_nom":"Point Poste Aleheride","etab_adresse":"Agence de Poste Spt de Aleheride, Aleheride , BP2626","etab_jour":"N/a","etab_creation_date":"2015","activite_statut":"{Abandonne}","activite_categorie":"Agence SPT","toilette_type":"Nsp"}},{"type":"Feature","id":"_mview_agences_etablissements_agences.fid--1b6ae3e2_1a0d7fec089_78ea","geometry":{"type":"Point","coordinates":[1.32606167,6.16836667]},"geometry_name":"geometry","properties":{"region_nom_bdd":"Maritime","prefecture_nom_bdd":"Golfe","commune_nom_bdd":"Golfe 6","canton_nom_bdd":"Baguida","nom_localite":"Baguida","etab_nom":"Agence de la poste Baguida","etab_adresse":"Agence de Poste Baguida, Baguidan, BP2626","etab_jour":"{Lundi,Mardi,Mercredi,jeudi,Vendredi,Samedi}","etab_creation_date":"2004","activite_statut":"{Utilise}","activite_categorie":"Agence SPT","toilette_type":"{WCs}"}},{"type":"Feature","id":"_mview_agences_etablissements_agences.fid--1b6ae3e2_1a0d7fec089_78eb","geometry":{"type":"Point","coordinates":[1.34471087,6.16929975]},"geometry_name":"geometry","properties":{"region_nom_bdd":"Maritime","prefecture_nom_bdd":"Golfe","commune_nom_bdd":"Golfe 6","canton_nom_bdd":"Baguida","nom_localite":"Avepozo","etab_nom":"Franchise Postale Avepozo","etab_adresse":"Agence de Poste Avepozo, Avepozo, BP2626","etab_jour":"{Samedi,Vendredi,jeudi,Mercredi,Mardi,Lundi}","etab_creation_date":"2019","activite_statut":"{Utilise}","activite_categorie":"Agence SPT","toilette_type":"{WCs}"}},{"type":"Feature","id":"_mview_agences_etablissements_agences.fid--1b6ae3e2_1a0d7fec089_78ec","geometry":{"type":"Point","coordinates":[1.21685929,6.31763378]},"geometry_name":"geometry","properties":{"region_nom_bdd":"Maritime","prefecture_nom_bdd":"Agoè-Nyivé","commune_nom_bdd":"Agoè-Nyivé 6","canton_nom_bdd":"Adétikopé","nom_localite":"Adetikope Centre","etab_nom":"Franchise Postale Adetikope","etab_adresse":"Agence de Poste Adetikope, Adetikope Centre, Poste Mairie","etab_jour":"{Lundi,Mardi,Mercredi,jeudi,Vendredi,Samedi}","etab_creation_date":"2017","activite_statut":"{Utilise}","activite_categorie":"Agence SPT","toilette_type":"{WCs,Douches}"}},{"type":"Feature","id":"_mview_agences_etablissements_agences.fid--1b6ae3e2_1a0d7fec089_78ed","geometry":{"type":"Point","coordinates":[1.201105,6.19845]},"geometry_name":"geometry","properties":{"region_nom_bdd":"Maritime","prefecture_nom_bdd":"Agoè-Nyivé","commune_nom_bdd":"Agoè-Nyivé 1","canton_nom_bdd":"Agoè-Nyivé","nom_localite":"Agbalepedogan","etab_nom":"Agence de la poste Agbalepedogan","etab_adresse":"Agence de Poste  Agbalepedogan, Agbalepedogan, BP2626","etab_jour":"{Lundi,Mardi,Mercredi,jeudi,Vendredi,Samedi}","etab_creation_date":"2004","activite_statut":"{Utilise}","activite_categorie":"Agence SPT","toilette_type":"{WCs}"}},{"type":"Feature","id":"_mview_agences_etablissements_agences.fid--1b6ae3e2_1a0d7fec089_78ee","geometry":{"type":"Point","coordinates":[1.16866,6.21900333]},"geometry_name":"geometry","properties":{"region_nom_bdd":"Maritime","prefecture_nom_bdd":"Agoè-Nyivé","commune_nom_bdd":"Agoè-Nyivé 3","canton_nom_bdd":"Vakpossito","nom_localite":"Télessou","etab_nom":"Agence de la poste Télessou","etab_adresse":"Agence de Poste Vakpossito, Vakpossito, BP2626","etab_jour":"{Lundi,Mardi,Mercredi,jeudi,Vendredi,Samedi}","etab_creation_date":"2018","activite_statut":"{Utilise}","activite_categorie":"Agence SPT","toilette_type":"{WCs,Douches}"}},{"type":"Feature","id":"_mview_agences_etablissements_agences.fid--1b6ae3e2_1a0d7fec089_78ef","geometry":{"type":"Point","coordinates":[1.14911333,6.233285]},"geometry_name":"geometry","properties":{"region_nom_bdd":"Maritime","prefecture_nom_bdd":"Agoè-Nyivé","commune_nom_bdd":"Agoè-Nyivé 5","canton_nom_bdd":"Sanguera","nom_localite":"Zossime","etab_nom":"Franchise Postale Zossime","etab_adresse":"Agence de Poste Zossime, Zossime, BP2626","etab_jour":"{Lundi,Mardi,Mercredi,jeudi,Vendredi,Samedi}","etab_creation_date":"2020","activite_statut":"{Utilise}","activite_categorie":"Agence SPT","toilette_type":"{Latrines a eau}"}},{"type":"Feature","id":"_mview_agences_etablissements_agences.fid--1b6ae3e2_1a0d7fec089_78f0","geometry":{"type":"Point","coordinates":[1.19859454,6.23097316]},"geometry_name":"geometry","properties":{"region_nom_bdd":"Maritime","prefecture_nom_bdd":"Agoè-Nyivé","commune_nom_bdd":"Agoè-Nyivé 1","canton_nom_bdd":"Agoè-Nyivé","nom_localite":"Agoe Assiyeye","etab_nom":"Agence de la poste Agoe Assiyeye","etab_adresse":"Agence de Poste D Agoe Assiyeye, Agoe Assiyeye, 01BP2626","etab_jour":"{Lundi,Mardi,Mercredi,jeudi,Vendredi,Samedi}","etab_creation_date":"2004","activite_statut":"{Utilise}","activite_categorie":"Agence SPT","toilette_type":"{Latrines a eau,Douches}"}},{"type":"Feature","id":"_mview_agences_etablissements_agences.fid--1b6ae3e2_1a0d7fec089_78f1","geometry":{"type":"Point","coordinates":[1.209355,6.25381667]},"geometry_name":"geometry","properties":{"region_nom_bdd":"Maritime","prefecture_nom_bdd":"Agoè-Nyivé","commune_nom_bdd":"Agoè-Nyivé 4","canton_nom_bdd":"Togblekope","nom_localite":"Zongo","etab_nom":"Agence de la poste Agoe Zongo","etab_adresse":"Agence de Poste Agoe Zongo, Zongo, BP2626","etab_jour":"{Lundi,Mercredi,Mardi,jeudi,Vendredi,Samedi}","etab_creation_date":"2010","activite_statut":"{Utilise}","activite_categorie":"Agence SPT","toilette_type":"Nsp"}},{"type":"Feature","id":"_mview_agences_etablissements_agences.fid--1b6ae3e2_1a0d7fec089_78f2","geometry":{"type":"Point","coordinates":[1.2222859,6.2319597]},"geometry_name":"geometry","properties":{"region_nom_bdd":"Maritime","prefecture_nom_bdd":"Agoè-Nyivé","commune_nom_bdd":"Agoè-Nyivé 1","canton_nom_bdd":"Agoè-Nyivé","nom_localite":"Agoe Adjougba","etab_nom":"Franchise Postale D'Agoe Adjougba","etab_adresse":"Agence de Poste D'Agoe Adjougba, Agoe Adjougba, BP2626","etab_jour":"{Lundi,Mardi,Mercredi,jeudi,Vendredi,Samedi}","etab_creation_date":"2020","activite_statut":"{Utilise}","activite_categorie":"Agence SPT","toilette_type":"{Latrines a eau}"}},{"type":"Feature","id":"_mview_agences_etablissements_agences.fid--1b6ae3e2_1a0d7fec089_78f3","geometry":{"type":"Point","coordinates":[1.17216952,6.18025496]},"geometry_name":"geometry","properties":{"region_nom_bdd":"Maritime","prefecture_nom_bdd":"Golfe","commune_nom_bdd":"Golfe 5","canton_nom_bdd":"Aflao-Gakli","nom_localite":"Adidogomé","etab_nom":"Agence de la poste Adidogomé","etab_adresse":"Agence de Poste Adidogomé, Adidogomé, BP2626","etab_jour":"{Lundi,Mardi,Mercredi,jeudi,Vendredi,Samedi}","etab_creation_date":"2007","activite_statut":"{Utilise}","activite_categorie":"Agence SPT","toilette_type":"Nsp"}},{"type":"Feature","id":"_mview_agences_etablissements_agences.fid--1b6ae3e2_1a0d7fec089_78f4","geometry":{"type":"Point","coordinates":[1.14417289,6.20401798]},"geometry_name":"geometry","properties":{"region_nom_bdd":"Maritime","prefecture_nom_bdd":"Golfe","commune_nom_bdd":"Golfe 7","canton_nom_bdd":"Aflao-Sagbado","nom_localite":"Apedokoe","etab_nom":"Agence de la poste Apédokoè","etab_adresse":"Agence de Poste Apedokoe, Apedokoe, BP2626","etab_jour":"{Lundi,Mardi,Mercredi,jeudi,Vendredi,Samedi}","etab_creation_date":"2012","activite_statut":"{Utilise}","activite_categorie":"Agence SPT","toilette_type":"{WCs}"}},{"type":"Feature","id":"_mview_agences_etablissements_agences.fid--1b6ae3e2_1a0d7fec089_78f5","geometry":{"type":"Point","coordinates":[1.11927655,6.19370903]},"geometry_name":"geometry","properties":{"region_nom_bdd":"Maritime","prefecture_nom_bdd":"Golfe","commune_nom_bdd":"Golfe 7","canton_nom_bdd":"Aflao-Sagbado","nom_localite":"Segbe ","etab_nom":"Franchise Postale Segbe","etab_adresse":"Agence de Poste Segbe, Segbe , BP2626","etab_jour":"{Lundi,Mardi,Mercredi,jeudi,Vendredi,Samedi}","etab_creation_date":"2019","activite_statut":"Nsp","activite_categorie":"Agence SPT","toilette_type":"Nsp"}},{"type":"Feature","id":"_mview_agences_etablissements_agences.fid--1b6ae3e2_1a0d7fec089_78f6","geometry":{"type":"Point","coordinates":[1.18183107,6.19997035]},"geometry_name":"geometry","properties":{"region_nom_bdd":"Maritime","prefecture_nom_bdd":"Golfe","commune_nom_bdd":"Golfe 5","canton_nom_bdd":"Aflao-Gakli","nom_localite":"Avedji","etab_nom":"Agence de la poste Avedji","etab_adresse":"Agence de Poste Avedji, Avedji, 01BP2626","etab_jour":"{Lundi,Mardi,Mercredi,jeudi,Vendredi,Samedi}","etab_creation_date":"2010","activite_statut":"{Utilise}","activite_categorie":"Agence SPT","toilette_type":"{Douches,WCs}"}},{"type":"Feature","id":"_mview_agences_etablissements_agences.fid--1b6ae3e2_1a0d7fec089_78f7","geometry":{"type":"Point","coordinates":[1.16491667,6.20442333]},"geometry_name":"geometry","properties":{"region_nom_bdd":"Maritime","prefecture_nom_bdd":"Golfe","commune_nom_bdd":"Golfe 5","canton_nom_bdd":"Aflao-Gakli","nom_localite":"Amadahome","etab_nom":"Franchise Postale Amadahome","etab_adresse":"Agence de Poste Amandahome, Amadahome, BP2626 Lomé","etab_jour":"{Lundi,Mardi,Mercredi,jeudi,Vendredi,Samedi}","etab_creation_date":"2017","activite_statut":"{Utilise}","activite_categorie":"Agence SPT","toilette_type":"{WCs}"}},{"type":"Feature","id":"_mview_agences_etablissements_agences.fid--1b6ae3e2_1a0d7fec089_78f8","geometry":{"type":"Point","coordinates":[1.20322,6.16935333]},"geometry_name":"geometry","properties":{"region_nom_bdd":"Maritime","prefecture_nom_bdd":"Golfe","commune_nom_bdd":"Golfe 3","canton_nom_bdd":"Bè-Ouest","nom_localite":"Atikoume","etab_nom":"Agence de la poste Atikoume","etab_adresse":"Agence de Poste Atikoume, Atikoume, BP2626","etab_jour":"{Lundi,Mardi,Mercredi,jeudi,Vendredi,Samedi}","etab_creation_date":"2011","activite_statut":"{Utilise}","activite_categorie":"Agence SPT","toilette_type":"{WCs}"}},{"type":"Feature","id":"_mview_agences_etablissements_agences.fid--1b6ae3e2_1a0d7fec089_78f9","geometry":{"type":"Point","coordinates":[1.11715167,6.22777333]},"geometry_name":"geometry","properties":{"region_nom_bdd":"Maritime","prefecture_nom_bdd":"Agoè-Nyivé","commune_nom_bdd":"Agoè-Nyivé 5","canton_nom_bdd":"Sanguera","nom_localite":"Sanguera ","etab_nom":"Franchise Postale Sanguera","etab_adresse":"Agence de Poste Sanguera, Sanguera , 26BP26","etab_jour":"{Lundi,Mardi,Mercredi,jeudi,Vendredi,Samedi}","etab_creation_date":"2017","activite_statut":"{Utilise}","activite_categorie":"Agence SPT","toilette_type":"{Douches,Latrines a eau}"}},{"type":"Feature","id":"_mview_agences_etablissements_agences.fid--1b6ae3e2_1a0d7fec089_78fa","geometry":{"type":"Point","coordinates":[1.25156733,6.16821684]},"geometry_name":"geometry","properties":{"region_nom_bdd":"Maritime","prefecture_nom_bdd":"Golfe","commune_nom_bdd":"Golfe 2","canton_nom_bdd":"Bè-Centre","nom_localite":"Aviation ","etab_nom":"Agence de la poste Aeroport","etab_adresse":"Agence de Poste Aviation, Aviation , BP2626","etab_jour":"{Lundi,Mardi,Mercredi,jeudi,Vendredi,Samedi}","etab_creation_date":"1972","activite_statut":"{Utilise}","activite_categorie":"Agence SPT","toilette_type":"{WCs}"}},{"type":"Feature","id":"_mview_agences_etablissements_agences.fid--1b6ae3e2_1a0d7fec089_78fb","geometry":{"type":"Point","coordinates":[1.14956722,6.26727411]},"geometry_name":"geometry","properties":{"region_nom_bdd":"Maritime","prefecture_nom_bdd":"Agoè-Nyivé","commune_nom_bdd":"Agoè-Nyivé 2","canton_nom_bdd":"Légbassito","nom_localite":"Legbassito","etab_nom":"Franchise Postale Legbassito","etab_adresse":"Agence de Poste Legbassito, Legbassito, BP2626","etab_jour":"{Lundi,Mardi,Mercredi,jeudi,Vendredi,Samedi}","etab_creation_date":"2018","activite_statut":"{Utilise}","activite_categorie":"Agence SPT","toilette_type":"{WCs}"}},{"type":"Feature","id":"_mview_agences_etablissements_agences.fid--1b6ae3e2_1a0d7fec089_78fc","geometry":{"type":"Point","coordinates":[1.22087633,6.15227622]},"geometry_name":"geometry","properties":{"region_nom_bdd":"Maritime","prefecture_nom_bdd":"Golfe","commune_nom_bdd":"Golfe 3","canton_nom_bdd":"Bè-Ouest","nom_localite":"Gbonvie","etab_nom":"Agence de la poste Gbonvie","etab_adresse":"Agence de Poste Gbonvie, Gbonvie, BP2626","etab_jour":"{Lundi,Mardi,Mercredi,jeudi,Vendredi,Samedi}","etab_creation_date":"2007","activite_statut":"{Utilise}","activite_categorie":"Agence SPT","toilette_type":"Nsp"}},{"type":"Feature","id":"_mview_agences_etablissements_agences.fid--1b6ae3e2_1a0d7fec089_78fd","geometry":{"type":"Point","coordinates":[1.23389626,6.16451729]},"geometry_name":"geometry","properties":{"region_nom_bdd":"Maritime","prefecture_nom_bdd":"Golfe","commune_nom_bdd":"Golfe 3","canton_nom_bdd":"Bè-Ouest","nom_localite":"Wuiti","etab_nom":"Agence de la poste Wuiti","etab_adresse":"Agence de Poste Wuiti, Wuiti, BP2626","etab_jour":"{Lundi,Mardi,Mercredi,jeudi,Vendredi,Samedi}","etab_creation_date":"1990","activite_statut":"{Utilise}","activite_categorie":"Agence SPT","toilette_type":"{WCs}"}},{"type":"Feature","id":"_mview_agences_etablissements_agences.fid--1b6ae3e2_1a0d7fec089_78fe","geometry":{"type":"Point","coordinates":[1.20901777,6.12738489]},"geometry_name":"geometry","properties":{"region_nom_bdd":"Maritime","prefecture_nom_bdd":"Golfe","commune_nom_bdd":"Golfe 4","canton_nom_bdd":"Amoutivé","nom_localite":"Nyekonakpoe","etab_nom":"Agence de la poste Nyekonakpoe","etab_adresse":"Agence de Poste Nyekonakpoe, Nyekonakpoe, BP2626","etab_jour":"{Lundi,Mardi,Mercredi,jeudi,Vendredi,Samedi}","etab_creation_date":"1967","activite_statut":"{Utilise}","activite_categorie":"Agence SPT","toilette_type":"{WCs}"}},{"type":"Feature","id":"_mview_agences_etablissements_agences.fid--1b6ae3e2_1a0d7fec089_78ff","geometry":{"type":"Point","coordinates":[1.24048412,6.18179831]},"geometry_name":"geometry","properties":{"region_nom_bdd":"Maritime","prefecture_nom_bdd":"Golfe","commune_nom_bdd":"Golfe 2","canton_nom_bdd":"Bè-Centre","nom_localite":"Hedzranawoe","etab_nom":"Agence de la poste Hedzranawoe","etab_adresse":"Agence de Poste Hedzranawoe, Hedzranawoe, BP2626","etab_jour":"{Lundi,Mardi,Mercredi,jeudi,Vendredi,Samedi}","etab_creation_date":"2011","activite_statut":"{Utilise}","activite_categorie":"Agence SPT","toilette_type":"{WCs}"}},{"type":"Feature","id":"_mview_agences_etablissements_agences.fid--1b6ae3e2_1a0d7fec089_7900","geometry":{"type":"Point","coordinates":[1.24570514,6.14098489]},"geometry_name":"geometry","properties":{"region_nom_bdd":"Maritime","prefecture_nom_bdd":"Golfe","commune_nom_bdd":"Golfe 1","canton_nom_bdd":"Bè-Est","nom_localite":"Be ","etab_nom":"Agence de la poste EMS","etab_adresse":"Agence de Poste Ems, Be , BP2626","etab_jour":"{Lundi,Mardi,Mercredi,jeudi,Vendredi,Samedi}","etab_creation_date":"1967","activite_statut":"{Utilise}","activite_categorie":"Agence SPT","toilette_type":"{WCs}"}},{"type":"Feature","id":"_mview_agences_etablissements_agences.fid--1b6ae3e2_1a0d7fec089_7901","geometry":{"type":"Point","coordinates":[1.24055288,6.20119341]},"geometry_name":"geometry","properties":{"region_nom_bdd":"Maritime","prefecture_nom_bdd":"Golfe","commune_nom_bdd":"Golfe 3","canton_nom_bdd":"Bè-Ouest","nom_localite":"Kegue","etab_nom":"Agence de la poste Kegue","etab_adresse":"Agence de Poste Kegue, Kegue, BP2626","etab_jour":"{Lundi,Mardi,Mercredi,jeudi,Vendredi,Samedi}","etab_creation_date":"2010","activite_statut":"{Utilise}","activite_categorie":"Agence SPT","toilette_type":"{WCs}"}},{"type":"Feature","id":"_mview_agences_etablissements_agences.fid--1b6ae3e2_1a0d7fec089_7902","geometry":{"type":"Point","coordinates":[1.20887869,6.14847052]},"geometry_name":"geometry","properties":{"region_nom_bdd":"Maritime","prefecture_nom_bdd":"Golfe","commune_nom_bdd":"Golfe 3","canton_nom_bdd":"Bè-Ouest","nom_localite":"Tokoin Seminaire","etab_nom":"Agence de la poste Tokoin Seminaire","etab_adresse":"Agence de Poste Tokoin Seminaire, Tokoin Seminaire, BP2626","etab_jour":"{Lundi,Mardi,Mercredi,jeudi,Vendredi,Samedi}","etab_creation_date":"1967","activite_statut":"{Utilise}","activite_categorie":"Agence SPT","toilette_type":"{WCs}"}},{"type":"Feature","id":"_mview_agences_etablissements_agences.fid--1b6ae3e2_1a0d7fec089_7903","geometry":{"type":"Point","coordinates":[1.22351123,6.13385485]},"geometry_name":"geometry","properties":{"region_nom_bdd":"Maritime","prefecture_nom_bdd":"Golfe","commune_nom_bdd":"Golfe 4","canton_nom_bdd":"Amoutivé","nom_localite":"Centrale","etab_nom":"Agence de la poste Centrale de Lome","etab_adresse":"Agence de Poste Centrale de Lome, Centrale, BP2626","etab_jour":"{Lundi,Mardi,Mercredi,jeudi,Vendredi,Samedi}","etab_creation_date":"1921","activite_statut":"{Utilise}","activite_categorie":"Agence SPT","toilette_type":"{WCs}"}},{"type":"Feature","id":"_mview_agences_etablissements_agences.fid--1b6ae3e2_1a0d7fec089_7904","geometry":{"type":"Point","coordinates":[1.2156422,6.16312174]},"geometry_name":"geometry","properties":{"region_nom_bdd":"Maritime","prefecture_nom_bdd":"Golfe","commune_nom_bdd":"Golfe 3","canton_nom_bdd":"Bè-Ouest","nom_localite":"Doumassesse","etab_nom":"Agence de la poste Doumassesse","etab_adresse":"Agence de Poste Doumassesse, Doumassesse, BP2626","etab_jour":"{Lundi,Mardi,Mercredi,jeudi,Vendredi,Samedi}","etab_creation_date":"2007","activite_statut":"{Utilise}","activite_categorie":"Agence SPT","toilette_type":"Nsp"}},{"type":"Feature","id":"_mview_agences_etablissements_agences.fid--1b6ae3e2_1a0d7fec089_7905","geometry":{"type":"Point","coordinates":[1.0471595,9.9596739]},"geometry_name":"geometry","properties":{"region_nom_bdd":"Kara","prefecture_nom_bdd":"Kéran","commune_nom_bdd":"Kéran 1","canton_nom_bdd":"Kantè","nom_localite":"Ate-kande","etab_nom":"Agence de la poste Kante","etab_adresse":"Agence de Poste Kante, Ate-Kande, BP2626","etab_jour":"{Lundi,Mardi,Mercredi,jeudi,Vendredi,Samedi}","etab_creation_date":"1953","activite_statut":"{Utilise}","activite_categorie":"Agence SPT","toilette_type":"{Latrines a eau}"}},{"type":"Feature","id":"_mview_agences_etablissements_agences.fid--1b6ae3e2_1a0d7fec089_7906","geometry":{"type":"Point","coordinates":[1.24272091,9.35673589]},"geometry_name":"geometry","properties":{"region_nom_bdd":"Kara","prefecture_nom_bdd":"Assoli","commune_nom_bdd":"Assoli 1","canton_nom_bdd":"Bafilo","nom_localite":"N'kassaide","etab_nom":"Agence de la poste Bafilo","etab_adresse":"Agence de Poste Bafilo, N'Kassaide, BP2626","etab_jour":"{Lundi,Mardi,Mercredi,jeudi,Vendredi,Samedi}","etab_creation_date":"1950","activite_statut":"{Utilise}","activite_categorie":"Agence SPT","toilette_type":"{WCs}"}},{"type":"Feature","id":"_mview_agences_etablissements_agences.fid--1b6ae3e2_1a0d7fec089_7907","geometry":{"type":"Point","coordinates":[1.32544628,9.75040224]},"geometry_name":"geometry","properties":{"region_nom_bdd":"Kara","prefecture_nom_bdd":"Binah","commune_nom_bdd":"Binah 1","canton_nom_bdd":"Pagouda","nom_localite":"Waze","etab_nom":"Agence de la poste Pagouda","etab_adresse":"Agence de Poste Waze, Waze, BP2626","etab_jour":"{Lundi,Mardi,Mercredi,jeudi,Vendredi,Samedi}","etab_creation_date":"1973","activite_statut":"{Utilise}","activite_categorie":"Agence SPT","toilette_type":"{WCs,Douches}"}},{"type":"Feature","id":"_mview_agences_etablissements_agences.fid--1b6ae3e2_1a0d7fec089_7908","geometry":{"type":"Point","coordinates":[1.30832664,9.65886022]},"geometry_name":"geometry","properties":{"region_nom_bdd":"Kara","prefecture_nom_bdd":"Binah","commune_nom_bdd":"Binah 2","canton_nom_bdd":"Kétao","nom_localite":"Zongo","etab_nom":"Agence de la poste Ketao","etab_adresse":"Agence de Poste Ketao, Zongo, BP2626","etab_jour":"{Lundi,Mardi,Mercredi,jeudi,Vendredi,Samedi}","etab_creation_date":"1963","activite_statut":"Nsp","activite_categorie":"Agence SPT","toilette_type":"Nsp"}},{"type":"Feature","id":"_mview_agences_etablissements_agences.fid--1b6ae3e2_1a0d7fec089_7909","geometry":{"type":"Point","coordinates":[0.60877828,9.68507548]},"geometry_name":"geometry","properties":{"region_nom_bdd":"Kara","prefecture_nom_bdd":"Dankpen","commune_nom_bdd":"Dankpen 1","canton_nom_bdd":"Guérin-Kouka","nom_localite":"Guérin Kouka Centre ","etab_nom":"Agence de la poste Guérin Kouka","etab_adresse":"Agence de Poste Guérin Kouka, Guérin Kouka Centre , BP2626","etab_jour":"{Lundi,Mardi,Mercredi,jeudi,Vendredi,Samedi}","etab_creation_date":"1990","activite_statut":"{Utilise}","activite_categorie":"Agence SPT","toilette_type":"Nsp"}},{"type":"Feature","id":"_mview_agences_etablissements_agences.fid--1b6ae3e2_1a0d7fec089_790a","geometry":{"type":"Point","coordinates":[1.19492333,9.54812667]},"geometry_name":"geometry","properties":{"region_nom_bdd":"Kara","prefecture_nom_bdd":"Kozah","commune_nom_bdd":"Kozah 1","canton_nom_bdd":"Commune De Kara","nom_localite":"Kara","etab_nom":"Agence de la poste Cofac Kara","etab_adresse":"Agence de Poste Cofac Kara, Kara, BP2626-400 Kara","etab_jour":"{Lundi,Mardi,Mercredi,jeudi,Vendredi,Samedi}","etab_creation_date":"1948","activite_statut":"{Utilise}","activite_categorie":"Agence SPT","toilette_type":"{Latrines a eau}"}},{"type":"Feature","id":"_mview_agences_etablissements_agences.fid--1b6ae3e2_1a0d7fec089_790b","geometry":{"type":"Point","coordinates":[1.14449993,9.65308024]},"geometry_name":"geometry","properties":{"region_nom_bdd":"Kara","prefecture_nom_bdd":"Kozah","commune_nom_bdd":"Kozah 2","canton_nom_bdd":"Pya","nom_localite":"Akei","etab_nom":"Agence de la poste Pya","etab_adresse":"Agence de Poste Pya, Akei, BP2626","etab_jour":"{Lundi,Mardi,Mercredi,jeudi,Vendredi,Samedi}","etab_creation_date":"1949","activite_statut":"{En construction}","activite_categorie":"Agence SPT","toilette_type":"{WCs,Douches}"}},{"type":"Feature","id":"_mview_agences_etablissements_agences.fid--1b6ae3e2_1a0d7fec089_790c","geometry":{"type":"Point","coordinates":[1.18966833,9.54995333]},"geometry_name":"geometry","properties":{"region_nom_bdd":"Kara","prefecture_nom_bdd":"Kozah","commune_nom_bdd":"Kozah 1","canton_nom_bdd":"Commune De Kara","nom_localite":"Pkiyinboua","etab_nom":"Agence de la poste Kara","etab_adresse":"Agence de Poste Kara, Pkiyinboua, BP2626 ","etab_jour":"{Lundi,Mardi,Mercredi,jeudi,Vendredi,Samedi}","etab_creation_date":"1950","activite_statut":"{Utilise}","activite_categorie":"Agence SPT","toilette_type":"{WCs,Douches}"}},{"type":"Feature","id":"_mview_agences_etablissements_agences.fid--1b6ae3e2_1a0d7fec089_790d","geometry":{"type":"Point","coordinates":[0.779545,9.26213333]},"geometry_name":"geometry","properties":{"region_nom_bdd":"Kara","prefecture_nom_bdd":"Bassar","commune_nom_bdd":"Bassar 1","canton_nom_bdd":"Bassar","nom_localite":"Bassar","etab_nom":"Agence de la poste Bassar","etab_adresse":"Agence de Poste Bassar, Bassar, BP2626","etab_jour":"{Lundi,Mardi,Mercredi,jeudi,Vendredi,Samedi}","etab_creation_date":"1959","activite_statut":"{Utilise}","activite_categorie":"Agence SPT","toilette_type":"{Latrines a eau}"}},{"type":"Feature","id":"_mview_agences_etablissements_agences.fid--1b6ae3e2_1a0d7fec089_790e","geometry":{"type":"Point","coordinates":[0.81145204,9.45432966]},"geometry_name":"geometry","properties":{"region_nom_bdd":"Kara","prefecture_nom_bdd":"Bassar","commune_nom_bdd":"Bassar 3","canton_nom_bdd":"Kabou","nom_localite":"Okpandoupou","etab_nom":"Agence de la poste Kabou","etab_adresse":"Agence de Poste Okpandoupou, Okpandoupou, BP2626","etab_jour":"{Lundi,Mardi,Mercredi,jeudi,Vendredi,Samedi}","etab_creation_date":"1993","activite_statut":"{Utilise}","activite_categorie":"Agence SPT","toilette_type":"{Latrines a eau}"}},{"type":"Feature","id":"_mview_agences_etablissements_agences.fid--1b6ae3e2_1a0d7fec089_790f","geometry":{"type":"Point","coordinates":[1.10857667,9.76592167]},"geometry_name":"geometry","properties":{"region_nom_bdd":"Kara","prefecture_nom_bdd":"Doufelgou","commune_nom_bdd":"Doufelgou 1","canton_nom_bdd":"Niamtougou","nom_localite":"Niamtougou ","etab_nom":"Agence de la poste Niamtougou","etab_adresse":"Agence de Poste Niamtougou, Niamtougou , BP2626","etab_jour":"{Lundi,Mardi,jeudi,Mercredi,Vendredi,Samedi}","etab_creation_date":"1965","activite_statut":"{Utilise}","activite_categorie":"Agence SPT","toilette_type":"{WCs}"}},{"type":"Feature","id":"_mview_agences_etablissements_agences.fid--1b6ae3e2_1a0d7fec089_7910","geometry":{"type":"Point","coordinates":[0.61570666,9.52499802]},"geometry_name":"geometry","properties":{"region_nom_bdd":"Kara","prefecture_nom_bdd":"Dankpen","commune_nom_bdd":"Dankpen 3","canton_nom_bdd":"Bapuré","nom_localite":"Bapuré","etab_nom":"Point Poste Bapuré","etab_adresse":"Agence de Poste Bapuré, Bapuré, BP2626","etab_jour":"N/a","etab_creation_date":"2020","activite_statut":"{Ferme}","activite_categorie":"Agence SPT","toilette_type":"Nsp"}},{"type":"Feature","id":"_mview_agences_etablissements_agences.fid--1b6ae3e2_1a0d7fec089_7911","geometry":{"type":"Point","coordinates":[1.201455,9.820835]},"geometry_name":"geometry","properties":{"region_nom_bdd":"Kara","prefecture_nom_bdd":"Doufelgou","commune_nom_bdd":"Doufelgou 1","canton_nom_bdd":"Siou","nom_localite":"Siou","etab_nom":"Point Poste Siou","etab_adresse":"Agence de Poste Siou, Siou, BP2626","etab_jour":"{Lundi,Mardi,Mercredi,jeudi,Vendredi,Samedi}","etab_creation_date":"2015","activite_statut":"{Ferme}","activite_categorie":"Agence SPT","toilette_type":"Nsp"}},{"type":"Feature","id":"_mview_agences_etablissements_agences.fid--1b6ae3e2_1a0d7fec089_7912","geometry":{"type":"Point","coordinates":[1.13218833,9.47943333]},"geometry_name":"geometry","properties":{"region_nom_bdd":"Kara","prefecture_nom_bdd":"Kozah","commune_nom_bdd":"Kozah 4","canton_nom_bdd":"Atchangbadè","nom_localite":"Atchangbade","etab_nom":"Point Poste Atchangbade","etab_adresse":"Point Poste Acthangbade, Atchangbade, BP2626","etab_jour":"{Lundi,Mardi,Mercredi,jeudi,Vendredi,Samedi}","etab_creation_date":"2020","activite_statut":"{Utilise}","activite_categorie":"Agence SPT","toilette_type":"Nsp"}},{"type":"Feature","id":"_mview_agences_etablissements_agences.fid--1b6ae3e2_1a0d7fec089_7913","geometry":{"type":"Point","coordinates":[0.62456667,9.42206]},"geometry_name":"geometry","properties":{"region_nom_bdd":"Kara","prefecture_nom_bdd":"Bassar","commune_nom_bdd":"Bassar 2","canton_nom_bdd":"Bangeli","nom_localite":"Bangeli","etab_nom":"Point Poste Bangeli","etab_adresse":"Agence de Poste Bangeli, Bangeli, BP2626","etab_jour":"{Lundi,Mardi,Mercredi,jeudi,Vendredi,Samedi}","etab_creation_date":"2021","activite_statut":"{Utilise}","activite_categorie":"Agence SPT","toilette_type":"{Douches,Latrines a eau}"}},{"type":"Feature","id":"_mview_agences_etablissements_agences.fid--1b6ae3e2_1a0d7fec089_7914","geometry":{"type":"Point","coordinates":[1.176876,9.69404514]},"geometry_name":"geometry","properties":{"region_nom_bdd":"Kara","prefecture_nom_bdd":"Kozah","commune_nom_bdd":"Kozah 2","canton_nom_bdd":"Kouméa","nom_localite":"Tchoïde ","etab_nom":"Point Poste Koumea","etab_adresse":"Point Poste Koumea, Tchoïde , BP2626","etab_jour":"{Lundi,Mardi,Mercredi,jeudi,Vendredi,Samedi}","etab_creation_date":"2015","activite_statut":"{Utilise}","activite_categorie":"Agence SPT","toilette_type":"Nsp"}},{"type":"Feature","id":"_mview_agences_etablissements_agences.fid--1b6ae3e2_1a0d7fec089_7915","geometry":{"type":"Point","coordinates":[1.50036425,6.5883932]},"geometry_name":"geometry","properties":{"region_nom_bdd":"Maritime","prefecture_nom_bdd":"Yoto","commune_nom_bdd":"Yoto 1","canton_nom_bdd":"Tabligbo","nom_localite":"Tabligbo ","etab_nom":"Agence de la poste Tabligbo ","etab_adresse":"Agence de Poste Tabligbo , Tabligbo , BP2626","etab_jour":"{Lundi,Mardi,Mercredi,jeudi,Vendredi,Samedi}","etab_creation_date":"1963","activite_statut":"{Utilise}","activite_categorie":"Agence SPT","toilette_type":"{WCs}"}},{"type":"Feature","id":"_mview_agences_etablissements_agences.fid--1b6ae3e2_1a0d7fec089_7916","geometry":{"type":"Point","coordinates":[1.28114333,6.25077333]},"geometry_name":"geometry","properties":{"region_nom_bdd":"Maritime","prefecture_nom_bdd":"Zio","commune_nom_bdd":"Zio 1","canton_nom_bdd":"Djagblé","nom_localite":"Djagble","etab_nom":"Franchise Postale Djagble","etab_adresse":"Agence de Poste Djagble, Djagble, 34BP06","etab_jour":"{Lundi,Mardi,Mercredi,jeudi,Vendredi,Samedi}","etab_creation_date":"2020","activite_statut":"{Utilise}","activite_categorie":"Agence SPT","toilette_type":"{WCs,Douches}"}},{"type":"Feature","id":"_mview_agences_etablissements_agences.fid--1b6ae3e2_1a0d7fec089_7917","geometry":{"type":"Point","coordinates":[1.16776883,6.67162655]},"geometry_name":"geometry","properties":{"region_nom_bdd":"Maritime","prefecture_nom_bdd":"Zio","commune_nom_bdd":"Zio 3","canton_nom_bdd":"Agbélouvé","nom_localite":"Zongo","etab_nom":"Agence de la poste Agbelouve","etab_adresse":"Agence de Poste Agbelouve, Zongo, BP2626 AGBELOUVE","etab_jour":"{Lundi,Mardi,Mercredi,jeudi,Vendredi,Samedi}","etab_creation_date":"1991","activite_statut":"{Utilise}","activite_categorie":"Agence SPT","toilette_type":"{Latrines a eau}"}},{"type":"Feature","id":"_mview_agences_etablissements_agences.fid--1b6ae3e2_1a0d7fec089_7918","geometry":{"type":"Point","coordinates":[0.92421333,6.435395]},"geometry_name":"geometry","properties":{"region_nom_bdd":"Maritime","prefecture_nom_bdd":"Avé","commune_nom_bdd":"Avé 1","canton_nom_bdd":"Kévé","nom_localite":"Quartier Latin","etab_nom":"Agence de la poste Keve","etab_adresse":"Agence de Poste Keve, Quartier Latin, BP2626","etab_jour":"{Lundi,Mardi,Mercredi,jeudi,Vendredi,Samedi}","etab_creation_date":"1980","activite_statut":"{Inacheve}","activite_categorie":"Agence SPT","toilette_type":"{Latrines a eau}"}},{"type":"Feature","id":"_mview_agences_etablissements_agences.fid--1b6ae3e2_1a0d7fec089_7919","geometry":{"type":"Point","coordinates":[1.618425,6.49692833]},"geometry_name":"geometry","properties":{"region_nom_bdd":"Maritime","prefecture_nom_bdd":"Bas-Mono","commune_nom_bdd":"Bas-Mono 1","canton_nom_bdd":"Afagnan-Gbléta","nom_localite":"Gbleta ","etab_nom":"Agence de la poste Afagnan Gbleta","etab_adresse":"Agence de Poste Afagnan Gbleta, Gbleta , BP2626","etab_jour":"{Lundi,Mardi,Mercredi,jeudi,Vendredi,Samedi}","etab_creation_date":"2009","activite_statut":"Nsp","activite_categorie":"Agence SPT","toilette_type":"Nsp"}},{"type":"Feature","id":"_mview_agences_etablissements_agences.fid--1b6ae3e2_1a0d7fec089_791a","geometry":{"type":"Point","coordinates":[1.59746941,6.22809563]},"geometry_name":"geometry","properties":{"region_nom_bdd":"Maritime","prefecture_nom_bdd":"Lacs","commune_nom_bdd":"Lacs 1","canton_nom_bdd":"Aného","nom_localite":"Magna","etab_nom":"Agence de la poste Aneho","etab_adresse":"Agence de Poste Aneho, Magna, BP2626","etab_jour":"{Lundi,Mardi,Mercredi,jeudi,Vendredi,Samedi}","etab_creation_date":"1920","activite_statut":"{Utilise}","activite_categorie":"Agence SPT","toilette_type":"{WCs}"}},{"type":"Feature","id":"_mview_agences_etablissements_agences.fid--1b6ae3e2_1a0d7fec089_791b","geometry":{"type":"Point","coordinates":[1.61684167,7.02393]},"geometry_name":"geometry","properties":{"region_nom_bdd":"Plateaux","prefecture_nom_bdd":"Moyen-Mono","commune_nom_bdd":"Moyen-Mono 1","canton_nom_bdd":"Tohoun","nom_localite":"Tohoun","etab_nom":"Agence de la poste Tohoun","etab_adresse":"Agence de Poste Tohoun, Tohoun, 01BP2626 Lomé 01","etab_jour":"{Lundi,Mardi,Mercredi,jeudi,Vendredi,Samedi}","etab_creation_date":"1989","activite_statut":"{Utilise}","activite_categorie":"Agence SPT","toilette_type":"Nsp"}},{"type":"Feature","id":"_mview_agences_etablissements_agences.fid--1b6ae3e2_1a0d7fec089_791c","geometry":{"type":"Point","coordinates":[1.28569216,7.95934933]},"geometry_name":"geometry","properties":{"region_nom_bdd":"Plateaux","prefecture_nom_bdd":"Est-Mono","commune_nom_bdd":"Est-Mono 1","canton_nom_bdd":"Elavagnon","nom_localite":"Amedeka","etab_nom":"Agence de la poste Elavagnon","etab_adresse":"Agence de Poste Elavagnon, Amedeka, BPLomé2626 ","etab_jour":"{Lundi,Mardi,Mercredi,jeudi,Vendredi,Samedi}","etab_creation_date":"1993","activite_statut":"{Utilise}","activite_categorie":"Agence SPT","toilette_type":"{WCs}"}},{"type":"Feature","id":"_mview_agences_etablissements_agences.fid--1b6ae3e2_1a0d7fec089_791d","geometry":{"type":"Point","coordinates":[0.60843833,7.58560167]},"geometry_name":"geometry","properties":{"region_nom_bdd":"Plateaux","prefecture_nom_bdd":"Wawa","commune_nom_bdd":"Wawa 1","canton_nom_bdd":"Badou","nom_localite":"Badou","etab_nom":"Agence de la poste Badou","etab_adresse":"Agence de Poste Badou, Badou, BP2626","etab_jour":"{Lundi,Mardi,Mercredi,jeudi,Vendredi,Samedi}","etab_creation_date":"1956","activite_statut":"{Utilise}","activite_categorie":"Agence SPT","toilette_type":"{Latrines a eau}"}},{"type":"Feature","id":"_mview_agences_etablissements_agences.fid--1b6ae3e2_1a0d7fec089_791e","geometry":{"type":"Point","coordinates":[1.10399209,7.5342516]},"geometry_name":"geometry","properties":{"region_nom_bdd":"Plateaux","prefecture_nom_bdd":"Amou","commune_nom_bdd":"Amou 3","canton_nom_bdd":"Hihéatro","nom_localite":"Hiheatro ","etab_nom":"Agence de la poste Hiheatro","etab_adresse":"Agence de Poste Hiheatro, Hiheatro , BP2626","etab_jour":"{Lundi,Mardi,Mercredi,jeudi,Vendredi,Samedi}","etab_creation_date":"2018","activite_statut":"{Utilise}","activite_categorie":"Agence SPT","toilette_type":"{Latrines a eau}"}},{"type":"Feature","id":"_mview_agences_etablissements_agences.fid--1b6ae3e2_1a0d7fec089_791f","geometry":{"type":"Point","coordinates":[1.16257974,7.30563714]},"geometry_name":"geometry","properties":{"region_nom_bdd":"Plateaux","prefecture_nom_bdd":"Ogou","commune_nom_bdd":"Ogou 3","canton_nom_bdd":"Gléi","nom_localite":"Akpata","etab_nom":"Agence de la poste Gléi","etab_adresse":"Agence de Poste Akpata, Akpata, BP2626 La Poste","etab_jour":"{Lundi,Mardi,Mercredi,jeudi,Vendredi,Samedi}","etab_creation_date":"1989","activite_statut":"{Utilise}","activite_categorie":"Agence SPT","toilette_type":"{WCs}"}},{"type":"Feature","id":"_mview_agences_etablissements_agences.fid--1b6ae3e2_1a0d7fec089_7920","geometry":{"type":"Point","coordinates":[0.63175632,6.90791953]},"geometry_name":"geometry","properties":{"region_nom_bdd":"Plateaux","prefecture_nom_bdd":"Kloto","commune_nom_bdd":"Kloto 1","canton_nom_bdd":"Agome-Kpalime","nom_localite":"Kpalime ","etab_nom":"Agence de la poste Kpalime ","etab_adresse":"Agence de Poste Kpalime , Kpalime , BP2626","etab_jour":"{Lundi,Mardi,Mercredi,jeudi,Vendredi,Samedi}","etab_creation_date":"1951","activite_statut":"{Utilise}","activite_categorie":"Agence SPT","toilette_type":"{Latrines a eau,Douches}"}},{"type":"Feature","id":"_mview_agences_etablissements_agences.fid--1b6ae3e2_1a0d7fec089_7921","geometry":{"type":"Point","coordinates":[0.78754601,7.65636757]},"geometry_name":"geometry","properties":{"region_nom_bdd":"Plateaux","prefecture_nom_bdd":"Akébou","commune_nom_bdd":"Akébou 1","canton_nom_bdd":"Kougnohou","nom_localite":"Kougnohou","etab_nom":"Agence de la poste Kougnohou","etab_adresse":"Agence de Poste Kougnohou, Kougnohou, BP2626","etab_jour":"{Lundi,Mardi,Mercredi,jeudi,Vendredi,Samedi}","etab_creation_date":"2009","activite_statut":"{Utilise}","activite_categorie":"Agence SPT","toilette_type":"{Latrines a eau}"}},{"type":"Feature","id":"_mview_agences_etablissements_agences.fid--1b6ae3e2_1a0d7fec089_7922","geometry":{"type":"Point","coordinates":[0.7316857,7.12821912]},"geometry_name":"geometry","properties":{"region_nom_bdd":"Plateaux","prefecture_nom_bdd":"Kpélé","commune_nom_bdd":"Kpélé 1","canton_nom_bdd":"Kpélé-Novivé","nom_localite":"Kpele Adeta","etab_nom":"Agence de la poste Kpele Adeta","etab_adresse":"Agence de Poste Kpele Adeta, Kpele Adeta, BP2626","etab_jour":"{Lundi,Mardi,Mercredi,jeudi,Vendredi,Samedi}","etab_creation_date":"1991","activite_statut":"{Utilise}","activite_categorie":"Agence SPT","toilette_type":"{Latrines a eau,Douches}"}},{"type":"Feature","id":"_mview_agences_etablissements_agences.fid--1b6ae3e2_1a0d7fec089_7923","geometry":{"type":"Point","coordinates":[0.80134322,7.27788236]},"geometry_name":"geometry","properties":{"region_nom_bdd":"Plateaux","prefecture_nom_bdd":"Kpélé","commune_nom_bdd":"Kpélé 2","canton_nom_bdd":"Kpélé-Nord","nom_localite":"Kpele Ele","etab_nom":"Agence de la poste Kpele Ele","etab_adresse":"Agence de Poste Kpele Ele, Kpele Ele, BP2626","etab_jour":"{Lundi,Mardi,Mercredi,jeudi,Vendredi,Samedi}","etab_creation_date":"1970","activite_statut":"{Utilise}","activite_categorie":"Agence SPT","toilette_type":"{Latrines a eau,Douches}"}},{"type":"Feature","id":"_mview_agences_etablissements_agences.fid--1b6ae3e2_1a0d7fec089_7924","geometry":{"type":"Point","coordinates":[1.14848531,7.52439321]},"geometry_name":"geometry","properties":{"region_nom_bdd":"Plateaux","prefecture_nom_bdd":"Ogou","commune_nom_bdd":"Ogou 1","canton_nom_bdd":"Djama","nom_localite":"Agbonou","etab_nom":"Agence de la poste Agbonou","etab_adresse":"Posté D'Agbnou, Agbonou, BP2626","etab_jour":"{Lundi,Mardi,Mercredi,jeudi,Vendredi,Samedi}","etab_creation_date":"2010","activite_statut":"{Utilise}","activite_categorie":"Agence SPT","toilette_type":"{Latrines a eau}"}},{"type":"Feature","id":"_mview_agences_etablissements_agences.fid--1b6ae3e2_1a0d7fec089_7925","geometry":{"type":"Point","coordinates":[0.74252667,10.32690833]},"geometry_name":"geometry","properties":{"region_nom_bdd":"Savanes","prefecture_nom_bdd":"Oti-Sud","commune_nom_bdd":"Oti-Sud 1","canton_nom_bdd":"Gando","nom_localite":"Gando ","etab_nom":"Point Poste Gando","etab_adresse":"Point Poste Gando, Gando , BP2626","etab_jour":"{Lundi,Mardi,Mercredi,jeudi,Vendredi,Samedi}","etab_creation_date":"2021","activite_statut":"{Utilise}","activite_categorie":"Agence SPT","toilette_type":"Nsp"}},{"type":"Feature","id":"_mview_agences_etablissements_agences.fid--1b6ae3e2_1a0d7fec089_7926","geometry":{"type":"Point","coordinates":[1.19142174,7.7580686]},"geometry_name":"geometry","properties":{"region_nom_bdd":"Plateaux","prefecture_nom_bdd":"Anié","commune_nom_bdd":"Anié 1","canton_nom_bdd":"Anié","nom_localite":"Anie ","etab_nom":"Agence de la poste Anie","etab_adresse":"Agence de Poste Anie, Anie , BP2626","etab_jour":"{Lundi,Mardi,Mercredi,jeudi,Vendredi,Samedi}","etab_creation_date":"1947","activite_statut":"{Utilise}","activite_categorie":"Agence SPT","toilette_type":"Nsp"}},{"type":"Feature","id":"_mview_agences_etablissements_agences.fid--1b6ae3e2_1a0d7fec089_7927","geometry":{"type":"Point","coordinates":[0.86580833,7.38416833]},"geometry_name":"geometry","properties":{"region_nom_bdd":"Plateaux","prefecture_nom_bdd":"Amou","commune_nom_bdd":"Amou 2","canton_nom_bdd":"Amou-Oblo","nom_localite":"Ognan","etab_nom":"Franchise Postale Amou Oblo","etab_adresse":"Agence de Poste Ognan, Ognan, BP2626","etab_jour":"{Lundi,Mardi,Mercredi,jeudi,Vendredi,Samedi}","etab_creation_date":"2021","activite_statut":"{Utilise}","activite_categorie":"Agence SPT","toilette_type":"{Douches,Latrines a eau}"}},{"type":"Feature","id":"_mview_agences_etablissements_agences.fid--1b6ae3e2_1a0d7fec089_7928","geometry":{"type":"Point","coordinates":[1.17358537,6.94988393]},"geometry_name":"geometry","properties":{"region_nom_bdd":"Plateaux","prefecture_nom_bdd":"Haho","commune_nom_bdd":"Haho 1","canton_nom_bdd":"Notsé","nom_localite":"Adimé","etab_nom":"Agence de la poste Notse","etab_adresse":"Agence de Poste Notse, Adimé, BP2626","etab_jour":"{Lundi,Mardi,Mercredi,jeudi,Vendredi,Samedi}","etab_creation_date":"1950","activite_statut":"{Utilise}","activite_categorie":"Agence SPT","toilette_type":"{WCs}"}},{"type":"Feature","id":"_mview_agences_etablissements_agences.fid--1b6ae3e2_1a0d7fec089_7929","geometry":{"type":"Point","coordinates":[1.40476667,7.00451167]},"geometry_name":"geometry","properties":{"region_nom_bdd":"Plateaux","prefecture_nom_bdd":"Haho","commune_nom_bdd":"Haho 2","canton_nom_bdd":"Asrama","nom_localite":"Fiokome","etab_nom":"Point Poste Asrama","etab_adresse":"Agence de Poste Asrama, Fiokome, BP2626","etab_jour":"{Lundi,Mercredi,Mardi,jeudi,Vendredi,Samedi}","etab_creation_date":"2015","activite_statut":"{Utilise}","activite_categorie":"Agence SPT","toilette_type":"Nsp"}},{"type":"Feature","id":"_mview_agences_etablissements_agences.fid--1b6ae3e2_1a0d7fec089_792a","geometry":{"type":"Point","coordinates":[0.71635333,6.84404833]},"geometry_name":"geometry","properties":{"region_nom_bdd":"Plateaux","prefecture_nom_bdd":"Agou","commune_nom_bdd":"Agou 1","canton_nom_bdd":"Agou-Tavié","nom_localite":"Gadzepe","etab_nom":"Agence de la poste Agou","etab_adresse":"Agence de Poste Gadzepe, Gadzepe, BP2626","etab_jour":"{Lundi,Mardi,Mercredi,jeudi,Vendredi,Samedi}","etab_creation_date":"1959","activite_statut":"{Utilise}","activite_categorie":"Agence SPT","toilette_type":"{WCs,Douches}"}},{"type":"Feature","id":"_mview_agences_etablissements_agences.fid--1b6ae3e2_1a0d7fec089_792b","geometry":{"type":"Point","coordinates":[0.20312833,10.86291]},"geometry_name":"geometry","properties":{"region_nom_bdd":"Savanes","prefecture_nom_bdd":"Tône","commune_nom_bdd":"Tône 1","canton_nom_bdd":"Dapaong","nom_localite":"Dapaong ","etab_nom":"Agence de la poste Dapaong","etab_adresse":"Agence de Poste Dapaong, Dapaong , BP2626","etab_jour":"{Lundi,Mardi,Mercredi,jeudi,Vendredi,Samedi}","etab_creation_date":"1949","activite_statut":"{Utilise}","activite_categorie":"Agence SPT","toilette_type":"Nsp"}},{"type":"Feature","id":"_mview_agences_etablissements_agences.fid--1b6ae3e2_1a0d7fec089_792c","geometry":{"type":"Point","coordinates":[0.20755667,10.69958167]},"geometry_name":"geometry","properties":{"region_nom_bdd":"Savanes","prefecture_nom_bdd":"Tandjoaré","commune_nom_bdd":"Tandjoaré 1","canton_nom_bdd":"Bombouaka","nom_localite":"Bombouaka ","etab_nom":"Agence de la poste Bombouaka","etab_adresse":"Agence de Poste Bombouaka, Bombouaka , BP2626","etab_jour":"{Lundi,Mardi,Mercredi,jeudi,Vendredi,Samedi}","etab_creation_date":"1988","activite_statut":"{Utilise}","activite_categorie":"Agence SPT","toilette_type":"Nsp"}},{"type":"Feature","id":"_mview_agences_etablissements_agences.fid--1b6ae3e2_1a0d7fec089_792d","geometry":{"type":"Point","coordinates":[1.12463112,7.53256017]},"geometry_name":"geometry","properties":{"region_nom_bdd":"Plateaux","prefecture_nom_bdd":"Ogou","commune_nom_bdd":"Ogou 1","canton_nom_bdd":"Djama","nom_localite":"Atakpame","etab_nom":"Agence de la poste Atakpame (plateaux)","etab_adresse":"Agence de Poste Atakpame, BP2626","etab_jour":"{Lundi,Mardi,Mercredi,jeudi,Vendredi,Samedi}","etab_creation_date":"1951","activite_statut":"{Utilise}","activite_categorie":"Agence SPT","toilette_type":"{WCs}"}},{"type":"Feature","id":"_mview_agences_etablissements_agences.fid--1b6ae3e2_1a0d7fec089_792e","geometry":{"type":"Point","coordinates":[0.012465,11.110935]},"geometry_name":"geometry","properties":{"region_nom_bdd":"Savanes","prefecture_nom_bdd":"Cinkassé","commune_nom_bdd":"Cinkassé 1","canton_nom_bdd":"Cinkassé","nom_localite":"Cinkassé ","etab_nom":"Agence de la poste Cinkassé","etab_adresse":"Agence de Poste Cinkassé, Cinkassé , BP2626","etab_jour":"{Lundi,Mardi,Mercredi,jeudi,Vendredi,Samedi}","etab_creation_date":"1990","activite_statut":"{Utilise}","activite_categorie":"Agence SPT","toilette_type":"{WCs,Douches}"}},{"type":"Feature","id":"_mview_agences_etablissements_agences.fid--1b6ae3e2_1a0d7fec089_792f","geometry":{"type":"Point","coordinates":[0.30571238,10.5577415]},"geometry_name":"geometry","properties":{"region_nom_bdd":"Savanes","prefecture_nom_bdd":"Oti","commune_nom_bdd":"Oti 2","canton_nom_bdd":"Barkoissi","nom_localite":"Barkoissi ","etab_nom":"Agence de la poste Barkoissi","etab_adresse":"Agence de Poste Barkoissi, Barkoissi , BP2626","etab_jour":"{Lundi,Mardi,Mercredi,jeudi,Vendredi,Samedi}","etab_creation_date":"2009","activite_statut":"{Utilise}","activite_categorie":"Agence SPT","toilette_type":"{Latrines a eau}"}},{"type":"Feature","id":"_mview_agences_etablissements_agences.fid--1b6ae3e2_1a0d7fec089_7930","geometry":{"type":"Point","coordinates":[0.81677333,10.84623333]},"geometry_name":"geometry","properties":{"region_nom_bdd":"Savanes","prefecture_nom_bdd":"Kpendjal","commune_nom_bdd":"Kpendjal 1","canton_nom_bdd":"Mandouri","nom_localite":"Mandouri","etab_nom":"Agence de la poste Mandouri","etab_adresse":"Agence de Poste Mandouri, Mandouri, BP2626","etab_jour":"{Lundi,Mardi,Mercredi,jeudi,Vendredi,Samedi}","etab_creation_date":"2008","activite_statut":"{Utilise}","activite_categorie":"Agence SPT","toilette_type":"{WCs}"}},{"type":"Feature","id":"_mview_agences_etablissements_agences.fid--1b6ae3e2_1a0d7fec089_7931","geometry":{"type":"Point","coordinates":[0.47198,10.357295]},"geometry_name":"geometry","properties":{"region_nom_bdd":"Savanes","prefecture_nom_bdd":"Oti","commune_nom_bdd":"Oti 1","canton_nom_bdd":"Mango","nom_localite":"Mango ","etab_nom":"Agence de la poste Mango","etab_adresse":"Agence de Poste Mango, Mango , BP2626","etab_jour":"{Lundi,Mardi,Mercredi,jeudi,Vendredi,Samedi}","etab_creation_date":"1948 ","activite_statut":"{Utilise}","activite_categorie":"Agence SPT","toilette_type":"{WCs}"}},{"type":"Feature","id":"_mview_agences_etablissements_agences.fid--1b6ae3e2_1a0d7fec089_7932","geometry":{"type":"Point","coordinates":[1.28949932,6.17024375]},"geometry_name":"geometry","properties":{"region_nom_bdd":"Maritime","prefecture_nom_bdd":"Golfe","commune_nom_bdd":"Golfe 1","canton_nom_bdd":"Bè-Est","nom_localite":"Adakpamé","etab_nom":"Agence de la poste Adakpame","etab_adresse":"Agence de Poste Adakpame, BP2626","etab_jour":"{Lundi,Mardi,Mercredi,jeudi,Vendredi,Samedi}","etab_creation_date":"2019","activite_statut":"{Utilise}","activite_categorie":"Agence SPT","toilette_type":"{WCs}"}},{"type":"Feature","id":"_mview_agences_etablissements_agences.fid--1b6ae3e2_1a0d7fec089_7933","geometry":{"type":"Point","coordinates":[1.21,6.42396667]},"geometry_name":"geometry","properties":{"region_nom_bdd":"Maritime","prefecture_nom_bdd":"Zio","commune_nom_bdd":"Zio 1","canton_nom_bdd":"Tsévié","nom_localite":"Tsévié","etab_nom":"Agence de la poste de Tsevié","etab_adresse":"Agence de Poste Tsevié, BP 2626","etab_jour":"{Lundi,Mardi,Mercredi,jeudi,Vendredi,Samedi}","etab_creation_date":"1947","activite_statut":"{Utilise}","activite_categorie":"Agence SPT","toilette_type":"{WCs}"}},{"type":"Feature","id":"_mview_agences_etablissements_agences.fid--1b6ae3e2_1a0d7fec089_7934","geometry":{"type":"Point","coordinates":[1.40901228,6.36141086]},"geometry_name":"geometry","properties":{"region_nom_bdd":"Maritime","prefecture_nom_bdd":"Vo","commune_nom_bdd":"Vo 4","canton_nom_bdd":"Hahotoé","nom_localite":"Hahotoé","etab_nom":"Agence de la poste Hahotoé","etab_adresse":"Agence de Poste, Hahotoé, BP2626","etab_jour":"{Lundi,Mardi,Mercredi,jeudi,Vendredi,Samedi}","etab_creation_date":"2006","activite_statut":"{Inacheve}","activite_categorie":"Agence SPT","toilette_type":"Nsp"}},{"type":"Feature","id":"_mview_agences_etablissements_agences.fid--1b6ae3e2_1a0d7fec089_7935","geometry":{"type":"Point","coordinates":[1.52951833,6.335045]},"geometry_name":"geometry","properties":{"region_nom_bdd":"Maritime","prefecture_nom_bdd":"Vo","commune_nom_bdd":"Vo 1","canton_nom_bdd":"Vogan","nom_localite":"Adrekpo","etab_nom":"Agence de la poste de vogan","etab_adresse":"Agence de Poste Vogan, BP2626","etab_jour":"{Lundi,Mardi,Mercredi,jeudi,Vendredi,Samedi}","etab_creation_date":"1973","activite_statut":"{Inacheve}","activite_categorie":"Agence SPT","toilette_type":"{Douches}"}},{"type":"Feature","id":"_mview_agences_etablissements_agences.fid--1b6ae3e2_1a0d7fec089_7936","geometry":{"type":"Point","coordinates":[1.39650425,6.60725145]},"geometry_name":"geometry","properties":{"region_nom_bdd":"Maritime","prefecture_nom_bdd":"Yoto","commune_nom_bdd":"Yoto 2","canton_nom_bdd":"Ahépé","nom_localite":"Ahépé","etab_nom":"Agence de poste Ahépé","etab_adresse":"Agence de Poste Ahépé, BP2626","etab_jour":"{Lundi,Mardi,Mercredi,jeudi,Vendredi,Samedi}","etab_creation_date":"Nsp","activite_statut":"{Utilise}","activite_categorie":"Agence SPT","toilette_type":"{WCs}"}},{"type":"Feature","id":"_mview_agences_etablissements_agences.fid--1b6ae3e2_1a0d7fec089_7937","geometry":{"type":"Point","coordinates":[0.90224189,7.45831332]},"geometry_name":"geometry","properties":{"region_nom_bdd":"Plateaux","prefecture_nom_bdd":"Amou","commune_nom_bdd":"Amou 1","canton_nom_bdd":"Amlamé (Ouma)","nom_localite":"Amlamé","etab_nom":"Agence postale Amlame","etab_adresse":"Agence de Poste Amlame, BP2626","etab_jour":"{Lundi,Mardi,Mercredi,jeudi,Vendredi,Samedi}","etab_creation_date":"1968","activite_statut":"{Utilise}","activite_categorie":"Agence SPT","toilette_type":"{WCs}"}},{"type":"Feature","id":"_mview_agences_etablissements_agences.fid--1b6ae3e2_1a0d7fec089_7938","geometry":{"type":"Point","coordinates":[0.69147279,7.19915202]},"geometry_name":"geometry","properties":{"region_nom_bdd":"Plateaux","prefecture_nom_bdd":"Danyi","commune_nom_bdd":"Danyi 1","canton_nom_bdd":"Danyi-Atigba","nom_localite":"DANYI Apeyeme","etab_nom":"Agence de la poste Danyi Apeyeme","etab_adresse":"Agence de Poste Adnyi Apeyeme, BP2626","etab_jour":"{Lundi,Mardi,Mercredi,jeudi,Vendredi,Samedi}","etab_creation_date":"1992","activite_statut":"{Utilise}","activite_categorie":"Agence SPT","toilette_type":"{WCs}"}}],"totalFeatures":95,"numberMatched":95,"numberReturned":95,"timeStamp":"2026-09-26T00:39:35.962Z","crs":{"type":"name","properties":{"name":"urn:ogc:def:crs:EPSG::4326"}}}